{"type":"FeatureCollection","name":"Barrios RENABAP - Santa Fe","source":"Barrios RENABAP.csv","bbox":[-60.768001,-31.705112,-60.55196,-31.55324],"features":[{"type":"Feature","id":2972,"geometry":{"type":"Polygon","coordinates":[[[-60.644815,-31.640085],[-60.645092,-31.640476],[-60.644981,-31.640593],[-60.644725,-31.640657],[-60.644484,-31.64045],[-60.644013,-31.640592],[-60.643926,-31.641026],[-60.644001,-31.641932],[-60.644318,-31.643281],[-60.643974,-31.643931],[-60.643584,-31.643047],[-60.643422,-31.642069],[-60.643244,-31.64046],[-60.644815,-31.640085]]]},"properties":{"renabap_id":2972,"barrio":"Nueva Esperanza","familias":22,"localidad":"Santa Fe","departamento":"La Capital","provincia":"Santa Fe"}},{"type":"Feature","id":2975,"geometry":{"type":"Polygon","coordinates":[[[-60.752846,-31.582542],[-60.743774,-31.584293],[-60.742408,-31.579622],[-60.752424,-31.577474],[-60.752846,-31.582542]]]},"properties":{"renabap_id":2975,"barrio":"Los Troncos","familias":880,"localidad":"Santa Fe","departamento":"La Capital","provincia":"Santa Fe"}},{"type":"Feature","id":2976,"geometry":{"type":"Polygon","coordinates":[[[-60.736451,-31.561924],[-60.736226,-31.56196],[-60.735961,-31.56117],[-60.73616,-31.561106],[-60.736451,-31.561924]]]},"properties":{"renabap_id":2976,"barrio":"En Nuevo Horizonte","familias":11,"localidad":"Santa Fe","departamento":"La Capital","provincia":"Santa Fe"}},{"type":"Feature","id":2977,"geometry":{"type":"Polygon","coordinates":[[[-60.68442,-31.630402],[-60.685049,-31.630324],[-60.68509,-31.630455],[-60.684948,-31.630485],[-60.684968,-31.631024],[-60.68487,-31.631043],[-60.684807,-31.631017],[-60.684805,-31.631017],[-60.684807,-31.631209],[-60.684292,-31.631346],[-60.684617,-31.632064],[-60.684362,-31.632172],[-60.683882,-31.631038],[-60.684252,-31.63087],[-60.684046,-31.630391],[-60.684384,-31.630318],[-60.68442,-31.630402]]]},"properties":{"renabap_id":2977,"barrio":"Candiotti","familias":55,"localidad":"Santa Fe","departamento":"La Capital","provincia":"Santa Fe"}},{"type":"Feature","id":2978,"geometry":{"type":"Polygon","coordinates":[[[-60.685898,-31.627936],[-60.684895,-31.628108],[-60.684691,-31.627484],[-60.683576,-31.627218],[-60.683533,-31.627347],[-60.683312,-31.62739],[-60.683265,-31.62729],[-60.682457,-31.627436],[-60.682242,-31.626957],[-60.682633,-31.626901],[-60.68355,-31.627152],[-60.683609,-31.627219],[-60.684722,-31.627483],[-60.684763,-31.627475],[-60.685829,-31.627645],[-60.685898,-31.627936]]]},"properties":{"renabap_id":2978,"barrio":"Candiotti Norte","familias":44,"localidad":"Santa Fe","departamento":"La Capital","provincia":"Santa Fe"}},{"type":"Feature","id":2979,"geometry":{"type":"Polygon","coordinates":[[[-60.735046,-31.645762],[-60.736088,-31.645983],[-60.737062,-31.646108],[-60.736998,-31.646405],[-60.73579,-31.646314],[-60.735713,-31.64667],[-60.735797,-31.647092],[-60.735966,-31.64713],[-60.736036,-31.647453],[-60.735783,-31.647535],[-60.735959,-31.648349],[-60.736581,-31.648186],[-60.736779,-31.647884],[-60.737366,-31.647921],[-60.737395,-31.648924],[-60.736612,-31.649079],[-60.736402,-31.650653],[-60.736193,-31.651647],[-60.736327,-31.653646],[-60.733834,-31.653437],[-60.732584,-31.652736],[-60.731779,-31.652075],[-60.731494,-31.651347],[-60.731462,-31.65089],[-60.731582,-31.650751],[-60.731585,-31.649546],[-60.73155,-31.648996],[-60.73152,-31.648699],[-60.731425,-31.648254],[-60.730918,-31.646779],[-60.734296,-31.645847],[-60.735046,-31.645762]]]},"properties":{"renabap_id":2979,"barrio":"Doce de Octubre","familias":880,"localidad":"Santa Fe","departamento":"La Capital","provincia":"Santa Fe"}},{"type":"Feature","id":2980,"geometry":{"type":"Polygon","coordinates":[[[-60.729248,-31.643509],[-60.729772,-31.643368],[-60.729794,-31.643427],[-60.730918,-31.646779],[-60.731425,-31.648254],[-60.73152,-31.648699],[-60.73155,-31.648996],[-60.731585,-31.649546],[-60.731582,-31.650751],[-60.731462,-31.65089],[-60.731337,-31.651197],[-60.730922,-31.651964],[-60.730394,-31.652569],[-60.730095,-31.652798],[-60.729941,-31.652692],[-60.729512,-31.653013],[-60.729176,-31.653211],[-60.728585,-31.653487],[-60.728113,-31.653668],[-60.728087,-31.65361],[-60.727845,-31.652887],[-60.728428,-31.652763],[-60.728741,-31.652762],[-60.72925,-31.652661],[-60.729096,-31.652368],[-60.729403,-31.65198],[-60.730391,-31.650188],[-60.730424,-31.649651],[-60.730227,-31.648775],[-60.729064,-31.645346],[-60.729783,-31.64514],[-60.729248,-31.643509]]]},"properties":{"renabap_id":2980,"barrio":"Alfonso","familias":376,"localidad":"Santa Fe","departamento":"La Capital","provincia":"Santa Fe"}},{"type":"Feature","id":2981,"geometry":{"type":"MultiPolygon","coordinates":[[[[-60.725586,-31.654569],[-60.725278,-31.653769],[-60.727062,-31.653455],[-60.727118,-31.65373],[-60.728087,-31.65361],[-60.728184,-31.653829],[-60.73064,-31.653418],[-60.731723,-31.653363],[-60.733546,-31.65349],[-60.733545,-31.653907],[-60.731136,-31.653734],[-60.725586,-31.654569]]],[[[-60.733866,-31.653955],[-60.733932,-31.653905],[-60.737153,-31.654281],[-60.737152,-31.654124],[-60.738313,-31.654203],[-60.737876,-31.656033],[-60.734557,-31.656404],[-60.734511,-31.656165],[-60.734441,-31.65607],[-60.733866,-31.653955]]],[[[-60.73046,-31.658278],[-60.729571,-31.658414],[-60.729305,-31.657013],[-60.730218,-31.656867],[-60.73046,-31.658278]]]]},"properties":{"renabap_id":2981,"barrio":"San Lorenzo","familias":545,"localidad":"Santa Fe","departamento":"La Capital","provincia":"Santa Fe"}},{"type":"Feature","id":2982,"geometry":{"type":"Polygon","coordinates":[[[-60.730671,-31.659109],[-60.730261,-31.656969],[-60.730821,-31.656906],[-60.731241,-31.656849],[-60.731828,-31.656772],[-60.732314,-31.656708],[-60.734566,-31.656432],[-60.73463,-31.656449],[-60.736771,-31.656219],[-60.737045,-31.656185],[-60.737892,-31.656085],[-60.737645,-31.656916],[-60.737323,-31.657473],[-60.736176,-31.658112],[-60.735884,-31.658011],[-60.735817,-31.657887],[-60.734786,-31.658112],[-60.734811,-31.658349],[-60.734514,-31.658663],[-60.734423,-31.658723],[-60.733911,-31.658815],[-60.733892,-31.658718],[-60.733586,-31.658693],[-60.730671,-31.659109]]]},"properties":{"renabap_id":2982,"barrio":"Arenales","familias":440,"localidad":"Santa Fe","departamento":"La Capital","provincia":"Santa Fe"}},{"type":"Feature","id":2983,"geometry":{"type":"MultiPolygon","coordinates":[[[[-60.730607,-31.669074],[-60.730006,-31.669583],[-60.730104,-31.669712],[-60.729948,-31.669906],[-60.729477,-31.669737],[-60.729529,-31.669428],[-60.729735,-31.668889],[-60.729907,-31.668601],[-60.730026,-31.668483],[-60.730607,-31.669074]]],[[[-60.732313,-31.668251],[-60.732029,-31.668349],[-60.731923,-31.668227],[-60.732013,-31.668181],[-60.731886,-31.668048],[-60.731722,-31.667893],[-60.731767,-31.667823],[-60.731337,-31.667443],[-60.730903,-31.667346],[-60.731344,-31.666215],[-60.731553,-31.66625],[-60.732922,-31.667508],[-60.733017,-31.66756],[-60.73457,-31.666984],[-60.734642,-31.666862],[-60.735195,-31.667005],[-60.735468,-31.666334],[-60.734814,-31.666239],[-60.735504,-31.66462],[-60.738922,-31.665482],[-60.738966,-31.665909],[-60.738557,-31.667369],[-60.73848,-31.667654],[-60.738499,-31.667976],[-60.738322,-31.668394],[-60.737996,-31.66885],[-60.737745,-31.669],[-60.737329,-31.669309],[-60.737036,-31.669462],[-60.736544,-31.669693],[-60.735964,-31.669829],[-60.735378,-31.669858],[-60.735046,-31.669759],[-60.734283,-31.669569],[-60.733919,-31.669486],[-60.733619,-31.669392],[-60.733414,-31.669294],[-60.733642,-31.668928],[-60.732313,-31.668251]]]]},"properties":{"renabap_id":2983,"barrio":"Varadero Sarsotti","familias":462,"localidad":"Santa Fe","departamento":"La Capital","provincia":"Santa Fe"}},{"type":"Feature","id":2984,"geometry":{"type":"Polygon","coordinates":[[[-60.729887,-31.636957],[-60.728434,-31.636426],[-60.728419,-31.636206],[-60.727504,-31.635967],[-60.72706,-31.635687],[-60.726586,-31.63449],[-60.726302,-31.633732],[-60.725998,-31.63312],[-60.725404,-31.632416],[-60.724896,-31.63182],[-60.72386,-31.630925],[-60.72335,-31.63045],[-60.722696,-31.630118],[-60.722696,-31.6298],[-60.722342,-31.628545],[-60.722823,-31.628513],[-60.723424,-31.628438],[-60.723706,-31.629956],[-60.724681,-31.630532],[-60.725826,-31.631145],[-60.726576,-31.630817],[-60.727198,-31.63121],[-60.727248,-31.631934],[-60.726698,-31.632216],[-60.727404,-31.633025],[-60.727673,-31.633198],[-60.728102,-31.633951],[-60.728916,-31.634426],[-60.729213,-31.635034],[-60.728886,-31.635639],[-60.729434,-31.635879],[-60.730067,-31.636372],[-60.732357,-31.636775],[-60.732479,-31.635495],[-60.733151,-31.635435],[-60.733142,-31.635282],[-60.733324,-31.634955],[-60.733755,-31.634756],[-60.734357,-31.635647],[-60.734683,-31.6363],[-60.734734,-31.637051],[-60.734954,-31.637752],[-60.734336,-31.637722],[-60.734098,-31.637554],[-60.733463,-31.637487],[-60.733238,-31.636922],[-60.732336,-31.636804],[-60.730036,-31.636387],[-60.729467,-31.63594],[-60.729285,-31.636171],[-60.729933,-31.636737],[-60.729887,-31.636957]]]},"properties":{"renabap_id":2984,"barrio":"Villa Oculta","familias":396,"localidad":"Santa Fe","departamento":"La Capital","provincia":"Santa Fe"}},{"type":"Feature","id":2985,"geometry":{"type":"Polygon","coordinates":[[[-60.711809,-31.612437],[-60.710176,-31.612783],[-60.710504,-31.613868],[-60.71068,-31.613856],[-60.710828,-31.613907],[-60.711021,-31.614543],[-60.709618,-31.614855],[-60.709129,-31.612999],[-60.708031,-31.6093],[-60.710778,-31.608688],[-60.7116,-31.611445],[-60.711809,-31.612437]]]},"properties":{"renabap_id":2985,"barrio":"Los Hornos","familias":473,"localidad":"Santa Fe","departamento":"La Capital","provincia":"Santa Fe"}},{"type":"Feature","id":2986,"geometry":{"type":"Polygon","coordinates":[[[-60.731111,-31.600707],[-60.729897,-31.596392],[-60.734033,-31.595598],[-60.734239,-31.595671],[-60.735135,-31.595535],[-60.734795,-31.596734],[-60.734706,-31.596849],[-60.73384,-31.600108],[-60.731111,-31.600707]]]},"properties":{"renabap_id":2986,"barrio":"Barrio Cabal","familias":297,"localidad":"Santa Fe","departamento":"La Capital","provincia":"Santa Fe"}},{"type":"Feature","id":2987,"geometry":{"type":"Polygon","coordinates":[[[-60.735437,-31.595151],[-60.736152,-31.592578],[-60.736428,-31.591603],[-60.736581,-31.591569],[-60.736817,-31.591512],[-60.737015,-31.592379],[-60.740108,-31.59173],[-60.740175,-31.592808],[-60.740055,-31.592814],[-60.739891,-31.592788],[-60.739604,-31.592818],[-60.738843,-31.592961],[-60.738009,-31.593162],[-60.738089,-31.593513],[-60.738036,-31.593701],[-60.738328,-31.593686],[-60.738459,-31.593722],[-60.738463,-31.593675],[-60.739099,-31.5936],[-60.738904,-31.594464],[-60.741782,-31.593861],[-60.742179,-31.592403],[-60.743274,-31.592203],[-60.742897,-31.593687],[-60.741742,-31.593911],[-60.741257,-31.59595],[-60.742224,-31.596163],[-60.741736,-31.59793],[-60.739117,-31.598394],[-60.739355,-31.599342],[-60.737806,-31.599678],[-60.737882,-31.600061],[-60.736904,-31.600274],[-60.737046,-31.600786],[-60.73391,-31.599846],[-60.734706,-31.596849],[-60.734795,-31.596734],[-60.735135,-31.595535],[-60.735088,-31.595542],[-60.735182,-31.595141],[-60.735437,-31.595151]]]},"properties":{"renabap_id":2987,"barrio":"Las Lomas","familias":875,"localidad":"Santa Fe","departamento":"La Capital","provincia":"Santa Fe"}},{"type":"Feature","id":2988,"geometry":{"type":"Polygon","coordinates":[[[-60.705591,-31.596201],[-60.706163,-31.59815],[-60.704465,-31.598469],[-60.704402,-31.598257],[-60.705523,-31.595274],[-60.705909,-31.595195],[-60.705591,-31.596201]]]},"properties":{"renabap_id":2988,"barrio":"Barrio San José","familias":94,"localidad":"Santa Fe","departamento":"La Capital","provincia":"Santa Fe"}},{"type":"Feature","id":2989,"geometry":{"type":"Polygon","coordinates":[[[-60.692652,-31.594325],[-60.692637,-31.593835],[-60.692577,-31.593831],[-60.692556,-31.593599],[-60.692634,-31.593572],[-60.692629,-31.593122],[-60.69357,-31.592942],[-60.693901,-31.594039],[-60.692652,-31.594325]]]},"properties":{"renabap_id":2989,"barrio":"Transporte","familias":33,"localidad":"Santa Fe","departamento":"La Capital","provincia":"Santa Fe"}},{"type":"Feature","id":2990,"geometry":{"type":"Polygon","coordinates":[[[-60.687708,-31.595407],[-60.687436,-31.594467],[-60.68802,-31.594349],[-60.688304,-31.595281],[-60.687708,-31.595407]]]},"properties":{"renabap_id":2990,"barrio":"Guadalupe Oeste","familias":44,"localidad":"Santa Fe","departamento":"La Capital","provincia":"Santa Fe"}},{"type":"Feature","id":2991,"geometry":{"type":"Polygon","coordinates":[[[-60.672356,-31.59562],[-60.671746,-31.59167],[-60.671572,-31.590975],[-60.671535,-31.590158],[-60.671681,-31.589339],[-60.671383,-31.586405],[-60.671931,-31.586374],[-60.672499,-31.590834],[-60.672919,-31.59556],[-60.672356,-31.59562]]]},"properties":{"renabap_id":2991,"barrio":"General Paz","familias":39,"localidad":"Santa Fe","departamento":"La Capital","provincia":"Santa Fe"}},{"type":"Feature","id":2992,"geometry":{"type":"Polygon","coordinates":[[[-60.698219,-31.588132],[-60.697656,-31.588264],[-60.697169,-31.586807],[-60.697936,-31.586608],[-60.697408,-31.584984],[-60.699373,-31.584526],[-60.699904,-31.586112],[-60.701603,-31.585741],[-60.701874,-31.58664],[-60.700217,-31.587044],[-60.700407,-31.587611],[-60.698219,-31.588132]]]},"properties":{"renabap_id":2992,"barrio":"Veintinueve de Abril","familias":149,"localidad":"Santa Fe","departamento":"La Capital","provincia":"Santa Fe"}},{"type":"Feature","id":2993,"geometry":{"type":"Polygon","coordinates":[[[-60.736581,-31.591569],[-60.73693,-31.590034],[-60.737639,-31.587414],[-60.737649,-31.587277],[-60.738235,-31.585425],[-60.741459,-31.584758],[-60.743677,-31.584322],[-60.743774,-31.584307],[-60.746899,-31.583711],[-60.746763,-31.585103],[-60.745573,-31.585275],[-60.745425,-31.585325],[-60.740678,-31.586268],[-60.740841,-31.586806],[-60.741039,-31.587634],[-60.741125,-31.587651],[-60.74145,-31.588872],[-60.738531,-31.589621],[-60.738288,-31.590628],[-60.738387,-31.59071],[-60.738424,-31.590883],[-60.737616,-31.591068],[-60.737681,-31.591306],[-60.736581,-31.591569]]]},"properties":{"renabap_id":2993,"barrio":"Santo Domingo","familias":275,"localidad":"Santa Fe","departamento":"La Capital","provincia":"Santa Fe"}},{"type":"Feature","id":2994,"geometry":{"type":"Polygon","coordinates":[[[-60.735839,-31.579361],[-60.735978,-31.579905],[-60.73517,-31.580066],[-60.734694,-31.580579],[-60.734098,-31.581337],[-60.734009,-31.581419],[-60.733681,-31.581533],[-60.733655,-31.581586],[-60.733288,-31.581662],[-60.733362,-31.581261],[-60.733848,-31.580313],[-60.733775,-31.580289],[-60.733789,-31.580258],[-60.734199,-31.579559],[-60.734958,-31.578591],[-60.735115,-31.578522],[-60.735506,-31.578402],[-60.735477,-31.578281],[-60.737178,-31.577892],[-60.737628,-31.577662],[-60.737812,-31.577957],[-60.738003,-31.57866],[-60.73627,-31.579029],[-60.735839,-31.579361]]]},"properties":{"renabap_id":2994,"barrio":"Estanislao López","familias":209,"localidad":"Santa Fe","departamento":"La Capital","provincia":"Santa Fe"}},{"type":"Feature","id":2995,"geometry":{"type":"Polygon","coordinates":[[[-60.73299,-31.572629],[-60.734105,-31.572417],[-60.733946,-31.571751],[-60.735654,-31.571371],[-60.735509,-31.570797],[-60.735861,-31.570704],[-60.736129,-31.570597],[-60.736178,-31.570652],[-60.736154,-31.57125],[-60.736801,-31.573591],[-60.735683,-31.573884],[-60.735489,-31.57452],[-60.734296,-31.574777],[-60.734243,-31.574207],[-60.733436,-31.574342],[-60.73299,-31.572629]]]},"properties":{"renabap_id":2995,"barrio":"La Villa","familias":176,"localidad":"Santa Fe","departamento":"La Capital","provincia":"Santa Fe"}},{"type":"Feature","id":2996,"geometry":{"type":"Polygon","coordinates":[[[-60.747204,-31.567401],[-60.743074,-31.568295],[-60.743063,-31.567733],[-60.743737,-31.567585],[-60.742973,-31.56495],[-60.746253,-31.564239],[-60.747204,-31.567401]]]},"properties":{"renabap_id":2996,"barrio":"La Ranita","familias":523,"localidad":"Santa Fe","departamento":"La Capital","provincia":"Santa Fe"}},{"type":"Feature","id":2997,"geometry":{"type":"MultiPolygon","coordinates":[[[[-60.755865,-31.563857],[-60.756499,-31.56573],[-60.756276,-31.565796],[-60.755648,-31.563933],[-60.755865,-31.563857]]],[[[-60.755717,-31.566855],[-60.755875,-31.567107],[-60.755482,-31.567337],[-60.755309,-31.56709],[-60.755717,-31.566855]]],[[[-60.753071,-31.568388],[-60.753172,-31.568555],[-60.752727,-31.568782],[-60.75261,-31.56865],[-60.752024,-31.568982],[-60.752118,-31.56914],[-60.75101,-31.569773],[-60.750889,-31.569627],[-60.750402,-31.569903],[-60.750493,-31.570076],[-60.749922,-31.570378],[-60.749801,-31.570245],[-60.749061,-31.570705],[-60.748532,-31.571007],[-60.748273,-31.571134],[-60.748111,-31.570991],[-60.748409,-31.570405],[-60.748589,-31.570391],[-60.750045,-31.570026],[-60.753033,-31.56833],[-60.753735,-31.567959],[-60.753611,-31.567652],[-60.754493,-31.567422],[-60.754534,-31.567497],[-60.753852,-31.567945],[-60.753071,-31.568388]]]]},"properties":{"renabap_id":2997,"barrio":"San Agustín","familias":149,"localidad":"Santa Fe","departamento":"La Capital","provincia":"Santa Fe"}},{"type":"Feature","id":2998,"geometry":{"type":"Polygon","coordinates":[[[-60.731994,-31.584816],[-60.731587,-31.585543],[-60.731453,-31.58549],[-60.730084,-31.58788],[-60.729481,-31.588947],[-60.729348,-31.588962],[-60.731699,-31.5847],[-60.731994,-31.584816]]]},"properties":{"renabap_id":2998,"barrio":"El Tránsito","familias":55,"localidad":"Santa Fe","departamento":"La Capital","provincia":"Santa Fe"}},{"type":"Feature","id":2999,"geometry":{"type":"Polygon","coordinates":[[[-60.684177,-31.687072],[-60.68357,-31.687605],[-60.683464,-31.687589],[-60.683338,-31.6877],[-60.683521,-31.687862],[-60.679598,-31.692437],[-60.668961,-31.703741],[-60.668467,-31.704423],[-60.668272,-31.704773],[-60.667901,-31.705112],[-60.667715,-31.704915],[-60.667967,-31.704585],[-60.6675,-31.704028],[-60.667451,-31.703451],[-60.667589,-31.703154],[-60.667601,-31.702905],[-60.667847,-31.702547],[-60.668294,-31.702096],[-60.668956,-31.701723],[-60.669186,-31.701722],[-60.669987,-31.701266],[-60.670869,-31.700214],[-60.671769,-31.699373],[-60.672613,-31.698471],[-60.674372,-31.696536],[-60.675449,-31.695233],[-60.675229,-31.694989],[-60.675579,-31.694602],[-60.676285,-31.695055],[-60.676868,-31.694381],[-60.677596,-31.693531],[-60.677262,-31.693259],[-60.678109,-31.692288],[-60.678258,-31.692368],[-60.67976,-31.690809],[-60.68009,-31.690824],[-60.686363,-31.683956],[-60.686482,-31.68372],[-60.686694,-31.682969],[-60.687215,-31.682479],[-60.68791,-31.682983],[-60.684177,-31.687072]]]},"properties":{"renabap_id":2999,"barrio":"La Boca","familias":198,"localidad":"Santa Fe","departamento":"La Capital","provincia":"Santa Fe"}},{"type":"Feature","id":3000,"geometry":{"type":"Polygon","coordinates":[[[-60.66113,-31.633996],[-60.659432,-31.633938],[-60.659454,-31.633097],[-60.661024,-31.633058],[-60.661374,-31.632965],[-60.662232,-31.633312],[-60.663097,-31.633647],[-60.663989,-31.633796],[-60.664552,-31.633969],[-60.664566,-31.634335],[-60.663375,-31.634526],[-60.663469,-31.634902],[-60.663118,-31.635025],[-60.662668,-31.634073],[-60.662347,-31.633944],[-60.661888,-31.63385],[-60.661786,-31.633845],[-60.661751,-31.633938],[-60.661523,-31.633952],[-60.66113,-31.633996]]]},"properties":{"renabap_id":3000,"barrio":"Los Alisos","familias":53,"localidad":"Santa Fe","departamento":"La Capital","provincia":"Santa Fe"}},{"type":"Feature","id":3001,"geometry":{"type":"Polygon","coordinates":[[[-60.640721,-31.640242],[-60.641012,-31.641311],[-60.641631,-31.64294],[-60.642064,-31.64285],[-60.642733,-31.644756],[-60.642326,-31.644882],[-60.642234,-31.644535],[-60.641969,-31.644185],[-60.641692,-31.644098],[-60.641401,-31.643795],[-60.640857,-31.642467],[-60.640412,-31.642385],[-60.639179,-31.642639],[-60.638925,-31.641998],[-60.638918,-31.641693],[-60.639294,-31.6416],[-60.639001,-31.640549],[-60.638896,-31.640397],[-60.639045,-31.640093],[-60.640721,-31.640242]]]},"properties":{"renabap_id":3001,"barrio":"Bajada Di Stéfano","familias":66,"localidad":"Santa Fe","departamento":"La Capital","provincia":"Santa Fe"}},{"type":"Feature","id":3002,"geometry":{"type":"Polygon","coordinates":[[[-60.627416,-31.638379],[-60.626764,-31.638154],[-60.626749,-31.637958],[-60.625789,-31.636965],[-60.626161,-31.63619],[-60.626383,-31.634714],[-60.626105,-31.633827],[-60.625182,-31.634076],[-60.624477,-31.632156],[-60.624171,-31.632213],[-60.623667,-31.631898],[-60.623958,-31.630143],[-60.62445,-31.62961],[-60.624883,-31.629267],[-60.625654,-31.62903],[-60.625643,-31.628175],[-60.626407,-31.627979],[-60.626771,-31.629219],[-60.627059,-31.630079],[-60.626832,-31.630323],[-60.62744,-31.6332],[-60.627806,-31.633271],[-60.627874,-31.635243],[-60.628283,-31.63751],[-60.628512,-31.637631],[-60.628576,-31.638853],[-60.627416,-31.638379]]]},"properties":{"renabap_id":3002,"barrio":"Los Bañados","familias":220,"localidad":"Santa Fe","departamento":"La Capital","provincia":"Santa Fe"}},{"type":"Feature","id":3003,"geometry":{"type":"Polygon","coordinates":[[[-60.622188,-31.632603],[-60.621835,-31.632609],[-60.621547,-31.632329],[-60.621213,-31.631688],[-60.621294,-31.631392],[-60.621714,-31.631269],[-60.622046,-31.630866],[-60.62213,-31.630528],[-60.62245,-31.630086],[-60.622677,-31.62919],[-60.623142,-31.628576],[-60.623615,-31.628193],[-60.623586,-31.628674],[-60.622897,-31.631361],[-60.622735,-31.632434],[-60.6225,-31.632736],[-60.622188,-31.632603]]]},"properties":{"renabap_id":3003,"barrio":"Camino de Las Cuadreras","familias":55,"localidad":"Santa Fe","departamento":"La Capital","provincia":"Santa Fe"}},{"type":"Feature","id":3014,"geometry":{"type":"Polygon","coordinates":[[[-60.731114,-31.661856],[-60.730649,-31.65914],[-60.732941,-31.658804],[-60.733629,-31.65871],[-60.733869,-31.658732],[-60.733906,-31.658842],[-60.734315,-31.65878],[-60.733868,-31.659423],[-60.733383,-31.659751],[-60.73318,-31.659689],[-60.733148,-31.659653],[-60.732766,-31.659853],[-60.732735,-31.660344],[-60.732492,-31.661005],[-60.732204,-31.661519],[-60.732016,-31.661776],[-60.731114,-31.661856]]]},"properties":{"renabap_id":3014,"barrio":"Chalet","familias":165,"localidad":"Santa Fe","departamento":"La Capital","provincia":"Santa Fe"}},{"type":"Feature","id":3015,"geometry":{"type":"Polygon","coordinates":[[[-60.723453,-31.671754],[-60.722252,-31.671179],[-60.723812,-31.669944],[-60.724571,-31.669329],[-60.725376,-31.670075],[-60.728765,-31.667358],[-60.729341,-31.667753],[-60.729005,-31.668692],[-60.72857,-31.670349],[-60.728075,-31.671243],[-60.727557,-31.671743],[-60.726467,-31.672241],[-60.725831,-31.67233],[-60.725071,-31.672327],[-60.724176,-31.672087],[-60.723453,-31.671754]]]},"properties":{"renabap_id":3015,"barrio":"Centenario","familias":682,"localidad":"Santa Fe","departamento":"La Capital","provincia":"Santa Fe"}},{"type":"Feature","id":3016,"geometry":{"type":"Polygon","coordinates":[[[-60.744275,-31.558098],[-60.744352,-31.561903],[-60.744238,-31.56201],[-60.73812,-31.563409],[-60.736938,-31.559888],[-60.744275,-31.558098]]]},"properties":{"renabap_id":3016,"barrio":"Abasto","familias":550,"localidad":"Santa Fe","departamento":"La Capital","provincia":"Santa Fe"}},{"type":"Feature","id":3017,"geometry":{"type":"MultiPolygon","coordinates":[[[[-60.689725,-31.680954],[-60.689467,-31.680203],[-60.689272,-31.678678],[-60.689537,-31.678168],[-60.68981,-31.677683],[-60.692899,-31.673908],[-60.69329,-31.673246],[-60.693938,-31.670463],[-60.694207,-31.669906],[-60.694594,-31.669172],[-60.694868,-31.668729],[-60.695067,-31.668266],[-60.695291,-31.667602],[-60.695773,-31.665125],[-60.695664,-31.661832],[-60.6951,-31.660037],[-60.696636,-31.659583],[-60.696571,-31.659316],[-60.696375,-31.658964],[-60.697818,-31.658252],[-60.695928,-31.655426],[-60.696016,-31.655365],[-60.693977,-31.653175],[-60.693604,-31.653344],[-60.692857,-31.652459],[-60.693193,-31.652304],[-60.690821,-31.649742],[-60.690115,-31.649573],[-60.689285,-31.649403],[-60.688907,-31.649271],[-60.688427,-31.648948],[-60.687902,-31.648507],[-60.687219,-31.648098],[-60.68743,-31.647679],[-60.689318,-31.648916],[-60.690231,-31.649242],[-60.691026,-31.649338],[-60.692099,-31.650017],[-60.697669,-31.655929],[-60.698651,-31.656921],[-60.700174,-31.658397],[-60.70135,-31.659815],[-60.701673,-31.66194],[-60.701759,-31.663819],[-60.701053,-31.667283],[-60.700039,-31.668998],[-60.698185,-31.671521],[-60.689725,-31.680954]]],[[[-60.694868,-31.656755],[-60.694737,-31.657172],[-60.694633,-31.657528],[-60.694566,-31.658052],[-60.694685,-31.658658],[-60.694388,-31.658781],[-60.694242,-31.658443],[-60.693734,-31.658376],[-60.692994,-31.658397],[-60.692921,-31.658039],[-60.693772,-31.657732],[-60.693688,-31.657383],[-60.694009,-31.657321],[-60.693929,-31.656995],[-60.693515,-31.656787],[-60.693174,-31.656574],[-60.693047,-31.656234],[-60.693408,-31.656149],[-60.693523,-31.656599],[-60.693681,-31.656801],[-60.693842,-31.656855],[-60.694561,-31.656681],[-60.694868,-31.656755]]]]},"properties":{"renabap_id":3017,"barrio":"Alto Verde","familias":3300,"localidad":"Santa Fe","departamento":"La Capital","provincia":"Santa Fe"}},{"type":"Feature","id":3018,"geometry":{"type":"Polygon","coordinates":[[[-60.607202,-31.64073],[-60.608992,-31.640681],[-60.6092,-31.64064],[-60.610057,-31.640599],[-60.610031,-31.640425],[-60.610518,-31.640378],[-60.610392,-31.639483],[-60.613553,-31.638948],[-60.613988,-31.640498],[-60.614907,-31.640511],[-60.614937,-31.640597],[-60.61901,-31.640583],[-60.619032,-31.640497],[-60.62587,-31.640349],[-60.625886,-31.640858],[-60.622905,-31.640905],[-60.618979,-31.640946],[-60.618608,-31.642902],[-60.614771,-31.642015],[-60.608967,-31.641088],[-60.607935,-31.640953],[-60.605903,-31.640964],[-60.605598,-31.640891],[-60.605342,-31.638931],[-60.606861,-31.638832],[-60.607061,-31.639208],[-60.60696,-31.639389],[-60.60709,-31.639894],[-60.607202,-31.64073]]]},"properties":{"renabap_id":3018,"barrio":"La Vía Muerta","familias":374,"localidad":"Santa Fe","departamento":"La Capital","provincia":"Santa Fe"}},{"type":"Feature","id":3019,"geometry":{"type":"Polygon","coordinates":[[[-60.713823,-31.615922],[-60.713584,-31.615965],[-60.714745,-31.613874],[-60.714971,-31.613938],[-60.714145,-31.615459],[-60.714075,-31.615427],[-60.713823,-31.615922]]]},"properties":{"renabap_id":3019,"barrio":"Schneider","familias":26,"localidad":"Santa Fe","departamento":"La Capital","provincia":"Santa Fe"}},{"type":"Feature","id":3021,"geometry":{"type":"Polygon","coordinates":[[[-60.736297,-31.569463],[-60.736198,-31.570316],[-60.735593,-31.570454],[-60.735331,-31.569673],[-60.736297,-31.569463]]]},"properties":{"renabap_id":3021,"barrio":"Yapeyú","familias":55,"localidad":"Santa Fe","departamento":"La Capital","provincia":"Santa Fe"}},{"type":"Feature","id":3024,"geometry":{"type":"Polygon","coordinates":[[[-60.735633,-31.593648],[-60.734838,-31.593624],[-60.734249,-31.593718],[-60.734022,-31.592445],[-60.736108,-31.592089],[-60.735633,-31.593648]]]},"properties":{"renabap_id":3024,"barrio":"Barrio Scarafia","familias":198,"localidad":"Santa Fe","departamento":"La Capital","provincia":"Santa Fe"}},{"type":"Feature","id":3026,"geometry":{"type":"Polygon","coordinates":[[[-60.635501,-31.645811],[-60.632983,-31.645877],[-60.632498,-31.644844],[-60.632387,-31.644069],[-60.634808,-31.643559],[-60.635501,-31.645811]]]},"properties":{"renabap_id":3026,"barrio":"La Fábrica Vieja","familias":99,"localidad":"Santa Fe","departamento":"La Capital","provincia":"Santa Fe"}},{"type":"Feature","id":3027,"geometry":{"type":"Polygon","coordinates":[[[-60.605033,-31.660265],[-60.604746,-31.660403],[-60.602734,-31.660966],[-60.601995,-31.661124],[-60.601338,-31.659858],[-60.600202,-31.660138],[-60.599741,-31.659856],[-60.599585,-31.659359],[-60.599153,-31.65942],[-60.598846,-31.658624],[-60.599064,-31.658556],[-60.59965,-31.658432],[-60.600721,-31.658795],[-60.60077,-31.658988],[-60.59964,-31.659363],[-60.599976,-31.659752],[-60.601843,-31.659263],[-60.603778,-31.658879],[-60.603897,-31.65911],[-60.602737,-31.659344],[-60.60259,-31.659176],[-60.601882,-31.659314],[-60.602066,-31.659412],[-60.602463,-31.659896],[-60.602769,-31.660099],[-60.60326,-31.660594],[-60.604571,-31.660254],[-60.604816,-31.660013],[-60.605022,-31.66001],[-60.605142,-31.660151],[-60.605033,-31.660265]]]},"properties":{"renabap_id":3027,"barrio":"Colastine Sur","familias":55,"localidad":"Santa Fe","departamento":"La Capital","provincia":"Santa Fe"}},{"type":"Feature","id":3028,"geometry":{"type":"Polygon","coordinates":[[[-60.675269,-31.562798],[-60.673621,-31.5631],[-60.673394,-31.56217],[-60.675011,-31.56187],[-60.675269,-31.562798]]]},"properties":{"renabap_id":3028,"barrio":"Congregación Cristiana Pueblo de Dios","familias":55,"localidad":"Santa Fe","departamento":"La Capital","provincia":"Santa Fe"}},{"type":"Feature","id":3032,"geometry":{"type":"MultiPolygon","coordinates":[[[[-60.664819,-31.597335],[-60.664239,-31.595171],[-60.664141,-31.594888],[-60.663968,-31.594624],[-60.663462,-31.594011],[-60.663329,-31.593778],[-60.663126,-31.592992],[-60.663832,-31.592864],[-60.664569,-31.593261],[-60.665469,-31.593531],[-60.665768,-31.594579],[-60.666252,-31.594476],[-60.666827,-31.596888],[-60.666111,-31.597058],[-60.664819,-31.597335]]],[[[-60.66948,-31.595657],[-60.669892,-31.595559],[-60.670613,-31.595233],[-60.671293,-31.595173],[-60.671381,-31.59574],[-60.6704,-31.59597],[-60.670418,-31.596033],[-60.669649,-31.596192],[-60.66948,-31.595657]]]]},"properties":{"renabap_id":3032,"barrio":"Playa Norte","familias":164,"localidad":"Santa Fe","departamento":"La Capital","provincia":"Santa Fe"}},{"type":"Feature","id":3033,"geometry":{"type":"MultiPolygon","coordinates":[[[[-60.747174,-31.575888],[-60.747853,-31.578372],[-60.747515,-31.578442],[-60.746782,-31.575976],[-60.747174,-31.575888]]],[[[-60.746483,-31.574967],[-60.745928,-31.573099],[-60.743876,-31.5743],[-60.743719,-31.573748],[-60.744281,-31.57359],[-60.747691,-31.571552],[-60.749732,-31.572778],[-60.749643,-31.573313],[-60.748855,-31.573661],[-60.748648,-31.573929],[-60.748059,-31.574333],[-60.7474,-31.574355],[-60.747523,-31.574735],[-60.746483,-31.574967]]]]},"properties":{"renabap_id":3033,"barrio":"Loyola Sur","familias":220,"localidad":"Santa Fe","departamento":"La Capital","provincia":"Santa Fe"}},{"type":"Feature","id":3034,"geometry":{"type":"Polygon","coordinates":[[[-60.761969,-31.561587],[-60.762497,-31.56098],[-60.763031,-31.560831],[-60.764066,-31.560729],[-60.764027,-31.558028],[-60.762563,-31.558177],[-60.762511,-31.559545],[-60.761513,-31.560159],[-60.759919,-31.554531],[-60.765431,-31.55324],[-60.768001,-31.557362],[-60.767401,-31.560441],[-60.766864,-31.561105],[-60.765759,-31.561054],[-60.76277,-31.562319],[-60.762252,-31.562104],[-60.759639,-31.562643],[-60.759494,-31.562169],[-60.761969,-31.561587]]]},"properties":{"renabap_id":3034,"barrio":"La Tablada Vieja","familias":88,"localidad":"Santa Fe","departamento":"La Capital","provincia":"Santa Fe"}},{"type":"Feature","id":3035,"geometry":{"type":"Polygon","coordinates":[[[-60.720894,-31.617725],[-60.720031,-31.614511],[-60.719754,-31.614288],[-60.719435,-31.613176],[-60.719763,-31.613077],[-60.719671,-31.612505],[-60.719139,-31.612539],[-60.719151,-31.612348],[-60.719213,-31.612346],[-60.719727,-31.610296],[-60.721179,-31.610572],[-60.720778,-31.612208],[-60.720886,-31.612811],[-60.720651,-31.613315],[-60.720991,-31.614271],[-60.7212,-31.614247],[-60.721804,-31.616065],[-60.721875,-31.616062],[-60.722173,-31.616248],[-60.722469,-31.617452],[-60.720894,-31.617725]]]},"properties":{"renabap_id":3035,"barrio":"San Pantaleón","familias":396,"localidad":"Santa Fe","departamento":"La Capital","provincia":"Santa Fe"}},{"type":"Feature","id":3036,"geometry":{"type":"Polygon","coordinates":[[[-60.723827,-31.569608],[-60.723813,-31.569421],[-60.724172,-31.569219],[-60.724559,-31.569],[-60.724922,-31.568753],[-60.725303,-31.5687],[-60.725444,-31.569266],[-60.724969,-31.569386],[-60.723827,-31.569608]]]},"properties":{"renabap_id":3036,"barrio":"Cabañas Leiva Sf","familias":19,"localidad":"Santa Fe","departamento":"La Capital","provincia":"Santa Fe"}},{"type":"Feature","id":3037,"geometry":{"type":"Polygon","coordinates":[[[-60.734439,-31.637865],[-60.735456,-31.640659],[-60.738539,-31.63993],[-60.739763,-31.641005],[-60.740763,-31.643021],[-60.739839,-31.643123],[-60.73947,-31.643297],[-60.739306,-31.642868],[-60.740056,-31.642657],[-60.739777,-31.641956],[-60.737961,-31.642487],[-60.737564,-31.643782],[-60.737733,-31.644272],[-60.737171,-31.644394],[-60.737033,-31.643994],[-60.736526,-31.644137],[-60.73635,-31.644112],[-60.736077,-31.644215],[-60.735837,-31.644481],[-60.735899,-31.644767],[-60.735806,-31.644937],[-60.735578,-31.645049],[-60.735275,-31.645121],[-60.735383,-31.645546],[-60.736136,-31.645841],[-60.736088,-31.645983],[-60.735046,-31.645762],[-60.734296,-31.645847],[-60.734251,-31.645859],[-60.734036,-31.645085],[-60.732777,-31.645407],[-60.733057,-31.646188],[-60.731321,-31.646666],[-60.730602,-31.644487],[-60.730893,-31.644399],[-60.730503,-31.643239],[-60.729794,-31.643427],[-60.729295,-31.642101],[-60.729497,-31.642042],[-60.728548,-31.63951],[-60.734439,-31.637865]]]},"properties":{"renabap_id":3037,"barrio":"Santa Rosa de Lima","familias":1166,"localidad":"Santa Fe","departamento":"La Capital","provincia":"Santa Fe"}},{"type":"Feature","id":3038,"geometry":{"type":"Polygon","coordinates":[[[-60.718679,-31.603097],[-60.719084,-31.604724],[-60.717753,-31.60497],[-60.717935,-31.605914],[-60.718462,-31.605883],[-60.718403,-31.606366],[-60.718513,-31.606368],[-60.718827,-31.6064],[-60.719113,-31.606378],[-60.719359,-31.606442],[-60.718351,-31.608256],[-60.718254,-31.608583],[-60.715986,-31.608573],[-60.715707,-31.607629],[-60.714364,-31.607922],[-60.713971,-31.606509],[-60.714065,-31.606505],[-60.714108,-31.605478],[-60.713742,-31.604175],[-60.718679,-31.603097]]]},"properties":{"renabap_id":3038,"barrio":"Villa Hipódromo","familias":858,"localidad":"Santa Fe","departamento":"La Capital","provincia":"Santa Fe"}},{"type":"Feature","id":3039,"geometry":{"type":"Polygon","coordinates":[[[-60.699841,-31.595047],[-60.697388,-31.595617],[-60.697273,-31.59519],[-60.695819,-31.595522],[-60.69526,-31.593698],[-60.699115,-31.592765],[-60.699841,-31.595047]]]},"properties":{"renabap_id":3039,"barrio":"Villa Elsa","familias":275,"localidad":"Santa Fe","departamento":"La Capital","provincia":"Santa Fe"}},{"type":"Feature","id":3040,"geometry":{"type":"MultiPolygon","coordinates":[[[[-60.675817,-31.643567],[-60.675817,-31.643277],[-60.676727,-31.643228],[-60.677536,-31.643172],[-60.677527,-31.643669],[-60.677674,-31.643693],[-60.677582,-31.644074],[-60.677244,-31.644033],[-60.677319,-31.643738],[-60.676568,-31.643701],[-60.676488,-31.644377],[-60.675034,-31.645351],[-60.674569,-31.64527],[-60.674392,-31.645048],[-60.674819,-31.644786],[-60.674617,-31.644466],[-60.675258,-31.644112],[-60.675264,-31.643977],[-60.675413,-31.643895],[-60.675399,-31.64351],[-60.675584,-31.643523],[-60.675817,-31.643567]]],[[[-60.67383,-31.643595],[-60.67337,-31.64362],[-60.671658,-31.643931],[-60.670888,-31.644354],[-60.66986,-31.644487],[-60.668889,-31.64518],[-60.668882,-31.645805],[-60.668965,-31.645956],[-60.668729,-31.646108],[-60.667563,-31.645019],[-60.667287,-31.6441],[-60.666842,-31.644072],[-60.666471,-31.643706],[-60.665161,-31.643722],[-60.664816,-31.644039],[-60.664609,-31.644158],[-60.663365,-31.644195],[-60.663219,-31.643988],[-60.663969,-31.643657],[-60.664582,-31.643568],[-60.66563,-31.643268],[-60.668541,-31.643255],[-60.673298,-31.643277],[-60.673812,-31.643332],[-60.67383,-31.643595]]]]},"properties":{"renabap_id":3040,"barrio":"La Vuelta del Paraguayo","familias":220,"localidad":"Santa Fe","departamento":"La Capital","provincia":"Santa Fe"}},{"type":"Feature","id":3041,"geometry":{"type":"Polygon","coordinates":[[[-60.737812,-31.577957],[-60.737631,-31.577665],[-60.739817,-31.576318],[-60.741683,-31.575164],[-60.743703,-31.573936],[-60.743813,-31.574321],[-60.741875,-31.575551],[-60.741968,-31.575907],[-60.742661,-31.575778],[-60.742925,-31.576662],[-60.741278,-31.577005],[-60.740996,-31.576094],[-60.739839,-31.576767],[-60.737812,-31.577957]]]},"properties":{"renabap_id":3041,"barrio":"Loyola","familias":171,"localidad":"Santa Fe","departamento":"La Capital","provincia":"Santa Fe"}},{"type":"Feature","id":5886,"geometry":{"type":"Polygon","coordinates":[[[-60.555643,-31.683085],[-60.555324,-31.683106],[-60.554772,-31.683165],[-60.554437,-31.683254],[-60.55385,-31.683453],[-60.553012,-31.683895],[-60.552634,-31.683291],[-60.552384,-31.683357],[-60.552123,-31.68332],[-60.55196,-31.682995],[-60.554515,-31.682322],[-60.555374,-31.682136],[-60.555643,-31.683085]]]},"properties":{"renabap_id":5886,"barrio":"La Balsa","familias":36,"localidad":"Santa Fe","departamento":"La Capital","provincia":"Santa Fe"}},{"type":"Feature","id":5891,"geometry":{"type":"Polygon","coordinates":[[[-60.697866,-31.629278],[-60.697516,-31.629337],[-60.69681,-31.629297],[-60.696764,-31.629169],[-60.69765,-31.628657],[-60.697866,-31.629278]]]},"properties":{"renabap_id":5891,"barrio":"El Triángulo","familias":17,"localidad":"Santa Fe","departamento":"La Capital","provincia":"Santa Fe"}},{"type":"Feature","id":5892,"geometry":{"type":"Polygon","coordinates":[[[-60.705966,-31.595185],[-60.705909,-31.595195],[-60.705523,-31.595274],[-60.704114,-31.595594],[-60.703797,-31.594617],[-60.705254,-31.594188],[-60.705069,-31.593449],[-60.70507,-31.593382],[-60.704966,-31.592948],[-60.704759,-31.592521],[-60.704483,-31.591591],[-60.705653,-31.591317],[-60.705366,-31.590411],[-60.707442,-31.589967],[-60.707565,-31.589642],[-60.70799,-31.589712],[-60.708007,-31.589838],[-60.708059,-31.58983],[-60.708377,-31.590846],[-60.70706,-31.591097],[-60.70728,-31.591942],[-60.705949,-31.592254],[-60.706175,-31.593153],[-60.706726,-31.593025],[-60.706731,-31.593093],[-60.705966,-31.595185]]]},"properties":{"renabap_id":5892,"barrio":"Nueva Pompeya","familias":220,"localidad":"Santa Fe","departamento":"La Capital","provincia":"Santa Fe"}},{"type":"Feature","id":5893,"geometry":{"type":"Polygon","coordinates":[[[-60.714278,-31.568973],[-60.714241,-31.569364],[-60.713888,-31.569339],[-60.713924,-31.568988],[-60.714003,-31.56843],[-60.713814,-31.567841],[-60.7141,-31.567775],[-60.71415,-31.567205],[-60.714116,-31.567121],[-60.714217,-31.566878],[-60.714391,-31.566611],[-60.714684,-31.566581],[-60.714795,-31.566614],[-60.71489,-31.566698],[-60.714754,-31.567252],[-60.714645,-31.568346],[-60.714816,-31.568281],[-60.715042,-31.568275],[-60.715323,-31.56824],[-60.715387,-31.568562],[-60.714293,-31.568808],[-60.714278,-31.568973]]]},"properties":{"renabap_id":5893,"barrio":"Punta Norte","familias":35,"localidad":"Santa Fe","departamento":"La Capital","provincia":"Santa Fe"}},{"type":"Feature","id":5894,"geometry":{"type":"Polygon","coordinates":[[[-60.722612,-31.617427],[-60.722818,-31.618819],[-60.723923,-31.618656],[-60.724209,-31.620582],[-60.723635,-31.621718],[-60.72311,-31.621576],[-60.723298,-31.623601],[-60.722889,-31.623612],[-60.722782,-31.622072],[-60.722205,-31.622088],[-60.722148,-31.621659],[-60.722041,-31.621519],[-60.721776,-31.621266],[-60.721318,-31.621334],[-60.720928,-31.619202],[-60.720779,-31.619227],[-60.720432,-31.617808],[-60.720894,-31.617725],[-60.722469,-31.617452],[-60.722612,-31.617427]]]},"properties":{"renabap_id":5894,"barrio":"Barranquitas Oeste","familias":259,"localidad":"Santa Fe","departamento":"La Capital","provincia":"Santa Fe"}},{"type":"Feature","id":5895,"geometry":{"type":"MultiPolygon","coordinates":[[[[-60.654356,-31.639105],[-60.655378,-31.639198],[-60.655339,-31.639681],[-60.65432,-31.639613],[-60.654356,-31.639105]]],[[[-60.652229,-31.639473],[-60.651411,-31.639418],[-60.651431,-31.639082],[-60.651686,-31.638875],[-60.651983,-31.638705],[-60.65228,-31.638793],[-60.652229,-31.639473]]]]},"properties":{"renabap_id":5895,"barrio":"El Cañaveral","familias":13,"localidad":"Santa Fe","departamento":"La Capital","provincia":"Santa Fe"}},{"type":"Feature","id":5896,"geometry":{"type":"Polygon","coordinates":[[[-60.59095,-31.626674],[-60.590449,-31.626181],[-60.59012,-31.625839],[-60.589876,-31.625618],[-60.589492,-31.625389],[-60.589138,-31.625087],[-60.588973,-31.624902],[-60.588707,-31.624501],[-60.588609,-31.624406],[-60.588339,-31.624329],[-60.588273,-31.624213],[-60.588259,-31.624098],[-60.58821,-31.623993],[-60.588172,-31.623885],[-60.588178,-31.623728],[-60.588652,-31.623574],[-60.58883,-31.623775],[-60.589066,-31.623971],[-60.589357,-31.624112],[-60.589996,-31.624391],[-60.590799,-31.624193],[-60.591024,-31.62434],[-60.590457,-31.624664],[-60.590775,-31.62483],[-60.59025,-31.625331],[-60.591543,-31.626339],[-60.59095,-31.626674]]]},"properties":{"renabap_id":5896,"barrio":"Sin Nombre","familias":33,"localidad":"Santa Fe","departamento":"La Capital","provincia":"Santa Fe"}},{"type":"Feature","id":5897,"geometry":{"type":"MultiPolygon","coordinates":[[[[-60.693994,-31.576599],[-60.694267,-31.577546],[-60.694335,-31.577758],[-60.693909,-31.57784],[-60.693862,-31.577638],[-60.693596,-31.576694],[-60.693565,-31.576609],[-60.693972,-31.576506],[-60.693994,-31.576599]]],[[[-60.6913,-31.57805],[-60.689783,-31.57835],[-60.689833,-31.578039],[-60.691257,-31.577774],[-60.6913,-31.57805]]]]},"properties":{"renabap_id":5897,"barrio":"Las Delicias 2","familias":26,"localidad":"Santa Fe","departamento":"La Capital","provincia":"Santa Fe"}},{"type":"Feature","id":6713,"geometry":{"type":"MultiPolygon","coordinates":[[[[-60.684941,-31.57813],[-60.684985,-31.578122],[-60.685663,-31.580555],[-60.685646,-31.580559],[-60.685643,-31.580553],[-60.685596,-31.580557],[-60.685291,-31.580595],[-60.685177,-31.580203],[-60.68503,-31.579546],[-60.684732,-31.578429],[-60.684716,-31.578398],[-60.68469,-31.578375],[-60.684595,-31.578317],[-60.684558,-31.578304],[-60.684447,-31.578277],[-60.684368,-31.57826],[-60.684357,-31.578242],[-60.684673,-31.578186],[-60.684941,-31.57813]]],[[[-60.685096,-31.580673],[-60.6851,-31.580679],[-60.683119,-31.581114],[-60.683103,-31.581058],[-60.683011,-31.58072],[-60.684994,-31.580331],[-60.685096,-31.580673]]],[[[-60.682832,-31.580081],[-60.684342,-31.57978],[-60.684841,-31.579673],[-60.68495,-31.580155],[-60.682962,-31.580544],[-60.682832,-31.580081]]],[[[-60.684395,-31.578449],[-60.684485,-31.578471],[-60.684533,-31.578502],[-60.684798,-31.579497],[-60.684393,-31.579585],[-60.684257,-31.579031],[-60.684111,-31.578473],[-60.68429,-31.578436],[-60.684327,-31.578436],[-60.684395,-31.578449]]],[[[-60.684074,-31.579159],[-60.684188,-31.579627],[-60.682784,-31.579905],[-60.682648,-31.579428],[-60.684074,-31.579159]]],[[[-60.683906,-31.578515],[-60.684025,-31.578983],[-60.6826,-31.579252],[-60.68247,-31.578797],[-60.683906,-31.578515]]],[[[-60.684121,-31.578324],[-60.682453,-31.578649],[-60.682442,-31.578599],[-60.684104,-31.578275],[-60.684121,-31.578324]]]]},"properties":{"renabap_id":6713,"barrio":"Veintinueve de Abril III","familias":220,"localidad":"Santa Fe","departamento":"La Capital","provincia":"Santa Fe"}},{"type":"Feature","id":6717,"geometry":{"type":"MultiPolygon","coordinates":[[[[-60.742638,-31.569552],[-60.742675,-31.569466],[-60.742726,-31.569348],[-60.744556,-31.56895],[-60.744751,-31.569643],[-60.742701,-31.570093],[-60.742706,-31.570061],[-60.742699,-31.569908],[-60.742644,-31.569633],[-60.742638,-31.569552]]],[[[-60.744956,-31.569601],[-60.744761,-31.568908],[-60.746806,-31.568468],[-60.747023,-31.569161],[-60.744956,-31.569601]]],[[[-60.743093,-31.568471],[-60.743176,-31.568291],[-60.744338,-31.568031],[-60.744333,-31.56809],[-60.744334,-31.568117],[-60.744507,-31.568774],[-60.742804,-31.569145],[-60.743093,-31.568471]]],[[[-60.749088,-31.568608],[-60.749026,-31.568725],[-60.747222,-31.569119],[-60.747011,-31.568426],[-60.74903,-31.567968],[-60.749414,-31.567893],[-60.749357,-31.568002],[-60.749155,-31.56845],[-60.749088,-31.568608]]],[[[-60.744544,-31.568093],[-60.744559,-31.56798],[-60.746123,-31.567635],[-60.746552,-31.567542],[-60.746758,-31.568301],[-60.744712,-31.568733],[-60.744544,-31.568093]]],[[[-60.748781,-31.567054],[-60.749002,-31.567788],[-60.746963,-31.568255],[-60.746748,-31.5675],[-60.747204,-31.567401],[-60.747202,-31.567396],[-60.748229,-31.567174],[-60.748402,-31.567137],[-60.748781,-31.567054]]],[[[-60.749647,-31.567387],[-60.749502,-31.56769],[-60.749207,-31.567746],[-60.748986,-31.567008],[-60.749906,-31.566799],[-60.749927,-31.566813],[-60.749647,-31.567387]]],[[[-60.7426,-31.570057],[-60.742585,-31.570116],[-60.742443,-31.570153],[-60.742514,-31.569841],[-60.742561,-31.569742],[-60.742594,-31.569922],[-60.7426,-31.570057]]]]},"properties":{"renabap_id":6717,"barrio":"Loyola Norte","familias":275,"localidad":"Santa Fe","departamento":"La Capital","provincia":"Santa Fe"}},{"type":"Feature","id":6728,"geometry":{"type":"MultiPolygon","coordinates":[[[[-60.693068,-31.577397],[-60.693741,-31.577224],[-60.693843,-31.57758],[-60.693171,-31.577743],[-60.693068,-31.577397]]],[[[-60.693691,-31.577048],[-60.693019,-31.577221],[-60.692938,-31.576888],[-60.693338,-31.576788],[-60.693599,-31.576727],[-60.693691,-31.577048]]],[[[-60.691748,-31.577733],[-60.691846,-31.578057],[-60.691378,-31.578159],[-60.691333,-31.57783],[-60.691748,-31.577733]]],[[[-60.692868,-31.577447],[-60.692971,-31.577794],[-60.692045,-31.578011],[-60.691948,-31.577682],[-60.692868,-31.577447]]],[[[-60.691318,-31.577235],[-60.691339,-31.577235],[-60.691418,-31.577225],[-60.691544,-31.577198],[-60.691581,-31.577193],[-60.691694,-31.577557],[-60.691305,-31.57765],[-60.691242,-31.577251],[-60.691316,-31.577235],[-60.691318,-31.577235]]],[[[-60.692738,-31.576939],[-60.69282,-31.577272],[-60.691894,-31.577507],[-60.691786,-31.577147],[-60.692738,-31.576939]]]]},"properties":{"renabap_id":6728,"barrio":"Las Delicias II","familias":92,"localidad":"Santa Fe","departamento":"La Capital","provincia":"Santa Fe"}},{"type":"Feature","id":6731,"geometry":{"type":"MultiPolygon","coordinates":[[[[-60.746746,-31.567494],[-60.747202,-31.567396],[-60.747204,-31.567401],[-60.746747,-31.567499],[-60.746746,-31.567494]]],[[[-60.746584,-31.566968],[-60.746497,-31.566648],[-60.746844,-31.566583],[-60.747076,-31.567321],[-60.746719,-31.567404],[-60.746584,-31.566968]]],[[[-60.746949,-31.566564],[-60.746952,-31.566563],[-60.74706,-31.566921],[-60.746949,-31.566564]]],[[[-60.746605,-31.565723],[-60.746795,-31.566412],[-60.746448,-31.566472],[-60.746264,-31.565806],[-60.746605,-31.565723]]],[[[-60.746899,-31.566388],[-60.746895,-31.566389],[-60.746847,-31.566215],[-60.746899,-31.566388]]],[[[-60.746329,-31.564791],[-60.746557,-31.565547],[-60.74622,-31.56563],[-60.746009,-31.564852],[-60.746329,-31.564791]]],[[[-60.745966,-31.564766],[-60.745819,-31.564801],[-60.74571,-31.564441],[-60.746194,-31.564332],[-60.746302,-31.564701],[-60.745966,-31.564766]]]]},"properties":{"renabap_id":6731,"barrio":"San Agustín","familias":57,"localidad":"Santa Fe","departamento":"La Capital","provincia":"Santa Fe"}},{"type":"Feature","id":6733,"geometry":{"type":"MultiPolygon","coordinates":[[[[-60.723473,-31.626828],[-60.724446,-31.627311],[-60.724261,-31.628052],[-60.724695,-31.628037],[-60.724792,-31.628503],[-60.724539,-31.628469],[-60.723888,-31.628591],[-60.723821,-31.628457],[-60.723691,-31.62844],[-60.723688,-31.62844],[-60.723641,-31.627365],[-60.723612,-31.627126],[-60.723498,-31.627041],[-60.723473,-31.626828]]],[[[-60.722524,-31.630136],[-60.72255,-31.630104],[-60.722958,-31.630372],[-60.722921,-31.630418],[-60.722524,-31.630136]]],[[[-60.721634,-31.62964],[-60.721718,-31.629545],[-60.722386,-31.629997],[-60.72236,-31.630033],[-60.72201,-31.629823],[-60.721994,-31.629814],[-60.721984,-31.629805],[-60.721968,-31.629796],[-60.721947,-31.629787],[-60.72192,-31.629774],[-60.721634,-31.62964]]],[[[-60.722265,-31.628654],[-60.722481,-31.629351],[-60.722562,-31.629617],[-60.722596,-31.629914],[-60.722569,-31.629883],[-60.721812,-31.629369],[-60.721826,-31.629215],[-60.721826,-31.629202],[-60.721806,-31.628661],[-60.722022,-31.628682],[-60.722049,-31.628682],[-60.722265,-31.628654]]],[[[-60.721455,-31.629542],[-60.721158,-31.629363],[-60.721173,-31.628619],[-60.72159,-31.628644],[-60.721615,-31.629203],[-60.721601,-31.629383],[-60.72159,-31.629397],[-60.721455,-31.629542]]],[[[-60.721794,-31.628476],[-60.721745,-31.627579],[-60.722193,-31.627585],[-60.722226,-31.628474],[-60.722031,-31.628502],[-60.721794,-31.628476]]],[[[-60.721139,-31.627596],[-60.721534,-31.627585],[-60.721583,-31.628459],[-60.721177,-31.628434],[-60.721165,-31.628213],[-60.721164,-31.62815],[-60.721139,-31.627596]]],[[[-60.722404,-31.62758],[-60.722683,-31.627558],[-60.722754,-31.628289],[-60.722741,-31.62829],[-60.722758,-31.628421],[-60.722437,-31.62845],[-60.722404,-31.62758]]],[[[-60.721733,-31.627367],[-60.722191,-31.627337],[-60.722192,-31.627405],[-60.721733,-31.627399],[-60.721733,-31.627367]]],[[[-60.720669,-31.626764],[-60.720837,-31.62675],[-60.720854,-31.626795],[-60.720892,-31.626925],[-60.720919,-31.627088],[-60.720922,-31.627426],[-60.720674,-31.627436],[-60.720669,-31.626764]]],[[[-60.72149,-31.626674],[-60.721522,-31.627332],[-60.721522,-31.627404],[-60.721132,-31.627416],[-60.72113,-31.627068],[-60.721097,-31.626884],[-60.721054,-31.626749],[-60.721043,-31.626717],[-60.721195,-31.62668],[-60.721364,-31.626652],[-60.721448,-31.626656],[-60.72149,-31.626674]]],[[[-60.722338,-31.626579],[-60.722518,-31.626641],[-60.722539,-31.626924],[-60.722621,-31.626928],[-60.722665,-31.627379],[-60.722397,-31.627399],[-60.722401,-31.627282],[-60.722338,-31.626579]]],[[[-60.72219,-31.627247],[-60.721732,-31.627277],[-60.721701,-31.626682],[-60.722143,-31.626571],[-60.72219,-31.627247]]],[[[-60.7222467,-31.6263901],[-60.721689,-31.626497],[-60.721688,-31.626478],[-60.722218,-31.626378],[-60.7222467,-31.6263901]]],[[[-60.720305,-31.628827],[-60.720327,-31.628831],[-60.720358,-31.628831],[-60.720374,-31.628827],[-60.720511,-31.62879],[-60.720542,-31.628772],[-60.720541,-31.628645],[-60.72056,-31.628348],[-60.720581,-31.628339],[-60.72066,-31.628293],[-60.720744,-31.628261],[-60.720955,-31.628269],[-60.720967,-31.62849],[-60.720967,-31.628553],[-60.720952,-31.629243],[-60.720284,-31.628845],[-60.72029,-31.628818],[-60.720305,-31.628827]]],[[[-60.71905,-31.628739],[-60.719022,-31.628824],[-60.718881,-31.628849],[-60.718819,-31.628609],[-60.719238,-31.628545],[-60.719188,-31.628379],[-60.719332,-31.628404],[-60.719492,-31.628534],[-60.719672,-31.628637],[-60.719719,-31.628659],[-60.719704,-31.628695],[-60.7197,-31.628705],[-60.719144,-31.628803],[-60.719156,-31.628766],[-60.71905,-31.628739]]],[[[-60.718771,-31.628011],[-60.719094,-31.628194],[-60.71911,-31.628203],[-60.719305,-31.628251],[-60.719326,-31.628251],[-60.719342,-31.628246],[-60.719373,-31.628233],[-60.719453,-31.628273],[-60.719585,-31.628358],[-60.719881,-31.628505],[-60.719971,-31.628558],[-60.720014,-31.628585],[-60.720067,-31.62863],[-60.720104,-31.628684],[-60.720094,-31.628725],[-60.719829,-31.628559],[-60.719813,-31.62855],[-60.719766,-31.628533],[-60.719745,-31.628573],[-60.719549,-31.628462],[-60.719385,-31.628323],[-60.719369,-31.628318],[-60.719158,-31.628282],[-60.719156,-31.628274],[-60.718737,-31.628086],[-60.718755,-31.628042],[-60.718771,-31.628011]]],[[[-60.720565,-31.627622],[-60.720561,-31.627816],[-60.72048,-31.628177],[-60.72046,-31.628339],[-60.72043,-31.628619],[-60.720357,-31.628642],[-60.720293,-31.628615],[-60.720171,-31.628467],[-60.720143,-31.627633],[-60.720565,-31.627622]]],[[[-60.71914,-31.628112],[-60.718797,-31.627934],[-60.718817,-31.627852],[-60.718875,-31.627911],[-60.719325,-31.628138],[-60.719283,-31.628152],[-60.71914,-31.628112]]],[[[-60.719458,-31.627664],[-60.719933,-31.627643],[-60.719954,-31.628333],[-60.719695,-31.628204],[-60.719562,-31.628119],[-60.719477,-31.628079],[-60.719458,-31.627664]]],[[[-60.720727,-31.628081],[-60.720711,-31.628081],[-60.720684,-31.628085],[-60.7206,-31.628117],[-60.720605,-31.628068],[-60.720636,-31.627914],[-60.720661,-31.627838],[-60.720667,-31.627824],[-60.72067,-31.627621],[-60.720928,-31.627606],[-60.720948,-31.628088],[-60.720727,-31.628081]]]]},"properties":{"renabap_id":6733,"barrio":"Barranquitas Sur","familias":385,"localidad":"Santa Fe","departamento":"La Capital","provincia":"Santa Fe"}},{"type":"Feature","id":6743,"geometry":{"type":"MultiPolygon","coordinates":[[[[-60.703407,-31.601185],[-60.703515,-31.601164],[-60.703431,-31.601524],[-60.70341,-31.601528],[-60.703347,-31.601542],[-60.703236,-31.601565],[-60.703168,-31.601579],[-60.70311,-31.601593],[-60.703023,-31.601273],[-60.703376,-31.60119],[-60.703407,-31.601185]]],[[[-60.703897,-31.600985],[-60.70379,-31.601012],[-60.703754,-31.601016],[-60.703591,-31.601058],[-60.703559,-31.601062],[-60.703417,-31.60109],[-60.703385,-31.601095],[-60.702996,-31.601183],[-60.702904,-31.600841],[-60.703051,-31.600804],[-60.703167,-31.600772],[-60.703183,-31.600767],[-60.703272,-31.60073],[-60.703335,-31.600703],[-60.703551,-31.600724],[-60.703567,-31.600729],[-60.703699,-31.600751],[-60.703761,-31.600579],[-60.703597,-31.600548],[-60.703344,-31.600523],[-60.703139,-31.599829],[-60.703891,-31.599667],[-60.703959,-31.599653],[-60.704028,-31.599635],[-60.704122,-31.599616],[-60.704185,-31.599598],[-60.704277,-31.599579],[-60.704054,-31.600193],[-60.703897,-31.600985]]],[[[-60.704504,-31.598537],[-60.704562,-31.598532],[-60.704615,-31.598523],[-60.70435,-31.599376],[-60.704305,-31.599385],[-60.704195,-31.599409],[-60.704131,-31.599427],[-60.704037,-31.59945],[-60.703974,-31.599464],[-60.703937,-31.599473],[-60.703662,-31.598713],[-60.704336,-31.598565],[-60.704394,-31.598555],[-60.704504,-31.598537]]]]},"properties":{"renabap_id":6743,"barrio":"Belgrano","familias":99,"localidad":"Santa Fe","departamento":"La Capital","provincia":"Santa Fe"}},{"type":"Feature","id":6744,"geometry":{"type":"Polygon","coordinates":[[[-60.723176,-31.625938],[-60.723259,-31.625856],[-60.724778,-31.626488],[-60.724715,-31.626616],[-60.72471,-31.626615],[-60.723689,-31.626179],[-60.723488,-31.626086],[-60.723245,-31.625979],[-60.723161,-31.625952],[-60.723176,-31.625938]]]},"properties":{"renabap_id":6744,"barrio":"Barranquitas","familias":17,"localidad":"Santa Fe","departamento":"La Capital","provincia":"Santa Fe"}},{"type":"Feature","id":6746,"geometry":{"type":"MultiPolygon","coordinates":[[[[-60.73623,-31.574389],[-60.736428,-31.57435],[-60.736432,-31.574367],[-60.736234,-31.574409],[-60.73623,-31.574389]]],[[[-60.735695,-31.57397],[-60.735716,-31.573952],[-60.735742,-31.573925],[-60.735757,-31.573902],[-60.736688,-31.573681],[-60.736807,-31.57409],[-60.735592,-31.574327],[-60.735653,-31.573993],[-60.735695,-31.57397]]]]},"properties":{"renabap_id":6746,"barrio":"Villa Teresa","familias":24,"localidad":"Santa Fe","departamento":"La Capital","provincia":"Santa Fe"}},{"type":"Feature","id":6748,"geometry":{"type":"MultiPolygon","coordinates":[[[[-60.587373,-31.621856],[-60.587354,-31.621799],[-60.587654,-31.62221],[-60.587652,-31.622221],[-60.587373,-31.621856]]],[[[-60.587242,-31.621883],[-60.58758,-31.622348],[-60.587355,-31.622456],[-60.586653,-31.621679],[-60.586191,-31.621451],[-60.586094,-31.621382],[-60.586235,-31.621212],[-60.586374,-31.621266],[-60.586624,-31.621205],[-60.586485,-31.620713],[-60.586808,-31.620662],[-60.587242,-31.621883]]]]},"properties":{"renabap_id":6748,"barrio":"Colastiné Norte","familias":17,"localidad":"Santa Fe","departamento":"La Capital","provincia":"Santa Fe"}},{"type":"Feature","id":6749,"geometry":{"type":"MultiPolygon","coordinates":[[[[-60.723436,-31.627484],[-60.723475,-31.628444],[-60.723096,-31.628455],[-60.723062,-31.627526],[-60.723436,-31.627484]]],[[[-60.722851,-31.627546],[-60.722885,-31.628429],[-60.722864,-31.62842],[-60.722847,-31.628281],[-60.722759,-31.628289],[-60.722686,-31.627558],[-60.722851,-31.627546]]],[[[-60.722826,-31.626914],[-60.722845,-31.627365],[-60.722668,-31.627379],[-60.722623,-31.626925],[-60.722541,-31.626921],[-60.72252,-31.626642],[-60.722829,-31.626748],[-60.722826,-31.626914]]]]},"properties":{"renabap_id":6749,"barrio":"Barranquitas Sur","familias":44,"localidad":"Santa Fe","departamento":"La Capital","provincia":"Santa Fe"}}]}