{"type":"FeatureCollection","features":[{"type":"Feature","properties":{"barrio":"Nueva Esperanza","situacion":"Ambos riesgos","renabap_id":2972,"provincia":"Santa Fe","departamento":"La Capital","localidad":"Santa Fe","familias":22},"geometry":{"type":"MultiPolygon","coordinates":[[[[-60.643872,-31.638696],[-60.643823,-31.639139],[-60.644375,-31.639094],[-60.644453,-31.639639],[-60.643692,-31.639773],[-60.643179,-31.639788],[-60.643503,-31.63868],[-60.643872,-31.638696]]],[[[-60.644962,-31.639999],[-60.645131,-31.64048],[-60.644677,-31.640626],[-60.644013,-31.6407],[-60.643986,-31.640923],[-60.643991,-31.641591],[-60.644372,-31.643826],[-60.643942,-31.643886],[-60.643611,-31.643217],[-60.643484,-31.642339],[-60.643373,-31.642172],[-60.643222,-31.640835],[-60.643239,-31.640403],[-60.644647,-31.64011],[-60.644739,-31.640029],[-60.644962,-31.639999]]]]}},{"type":"Feature","properties":{"barrio":"Los Troncos","situacion":"Ambos riesgos","renabap_id":2975,"provincia":"Santa Fe","departamento":"La Capital","localidad":"Santa Fe","familias":1650},"geometry":{"type":"Polygon","coordinates":[[[-60.752846,-31.582542],[-60.743774,-31.584293],[-60.742408,-31.579622],[-60.752424,-31.577474],[-60.752846,-31.582542]]]}},{"type":"Feature","properties":{"barrio":"Doce de Octubre","situacion":"Ambos riesgos","renabap_id":2979,"provincia":"Santa Fe","departamento":"La Capital","localidad":"Santa Fe","familias":880},"geometry":{"type":"Polygon","coordinates":[[[-60.735046,-31.645762],[-60.736088,-31.645983],[-60.738337,-31.64628],[-60.738287,-31.646503],[-60.73579,-31.646314],[-60.735713,-31.64667],[-60.735797,-31.647092],[-60.735966,-31.64713],[-60.736036,-31.647453],[-60.735783,-31.647535],[-60.735959,-31.648349],[-60.736581,-31.648186],[-60.736904,-31.647692],[-60.738365,-31.647851],[-60.738217,-31.648732],[-60.736818,-31.649082],[-60.736864,-31.649293],[-60.736528,-31.650445],[-60.736337,-31.650928],[-60.736895,-31.651133],[-60.73688,-31.652101],[-60.737045,-31.653712],[-60.736327,-31.653646],[-60.73473,-31.653555],[-60.733834,-31.653437],[-60.733319,-31.653146],[-60.73298,-31.652951],[-60.732159,-31.652216],[-60.73183,-31.651682],[-60.731657,-31.651252],[-60.731582,-31.650751],[-60.731585,-31.649546],[-60.73155,-31.648996],[-60.73152,-31.648699],[-60.731425,-31.648254],[-60.730918,-31.646779],[-60.734296,-31.645847],[-60.735046,-31.645762]]]}},{"type":"Feature","properties":{"barrio":"San Lorenzo","situacion":"Ambos riesgos","renabap_id":2981,"provincia":"Santa Fe","departamento":"La Capital","localidad":"Santa Fe","familias":545},"geometry":{"type":"MultiPolygon","coordinates":[[[[-60.725586,-31.654569],[-60.725278,-31.653769],[-60.727062,-31.653455],[-60.727118,-31.65373],[-60.728087,-31.65361],[-60.728184,-31.653829],[-60.73064,-31.653418],[-60.731723,-31.653363],[-60.733546,-31.65349],[-60.733545,-31.653907],[-60.731136,-31.653734],[-60.725586,-31.654569]]],[[[-60.733866,-31.653955],[-60.733932,-31.653905],[-60.737153,-31.654281],[-60.737152,-31.654124],[-60.738313,-31.654203],[-60.737876,-31.656033],[-60.734557,-31.656404],[-60.734511,-31.656165],[-60.734441,-31.65607],[-60.733866,-31.653955]]],[[[-60.73046,-31.658278],[-60.729571,-31.658414],[-60.729305,-31.657013],[-60.730218,-31.656867],[-60.73046,-31.658278]]]]}},{"type":"Feature","properties":{"barrio":"Arenales","situacion":"Ambos riesgos","renabap_id":2982,"provincia":"Santa Fe","departamento":"La Capital","localidad":"Santa Fe","familias":440},"geometry":{"type":"Polygon","coordinates":[[[-60.730671,-31.659109],[-60.730261,-31.656969],[-60.730821,-31.656906],[-60.731241,-31.656849],[-60.731828,-31.656772],[-60.732314,-31.656708],[-60.734566,-31.656432],[-60.73463,-31.656449],[-60.736771,-31.656219],[-60.737045,-31.656185],[-60.737892,-31.656085],[-60.737645,-31.656916],[-60.737323,-31.657473],[-60.736176,-31.658112],[-60.735884,-31.658011],[-60.735817,-31.657887],[-60.734786,-31.658112],[-60.734811,-31.658349],[-60.734514,-31.658663],[-60.734423,-31.658723],[-60.733911,-31.658815],[-60.733892,-31.658718],[-60.733586,-31.658693],[-60.730671,-31.659109]]]}},{"type":"Feature","properties":{"barrio":"Varadero Sarsotti","situacion":"Ambos riesgos","renabap_id":2983,"provincia":"Santa Fe","departamento":"La Capital","localidad":"Santa Fe","familias":468},"geometry":{"type":"MultiPolygon","coordinates":[[[[-60.730607,-31.669074],[-60.730006,-31.669583],[-60.730104,-31.669712],[-60.729948,-31.669906],[-60.729477,-31.669737],[-60.729529,-31.669428],[-60.729735,-31.668889],[-60.729907,-31.668601],[-60.730026,-31.668483],[-60.730607,-31.669074]]],[[[-60.732313,-31.668251],[-60.732029,-31.668349],[-60.731923,-31.668227],[-60.732013,-31.668181],[-60.731886,-31.668048],[-60.731722,-31.667893],[-60.731767,-31.667823],[-60.731337,-31.667443],[-60.730903,-31.667346],[-60.731344,-31.666215],[-60.731553,-31.66625],[-60.732922,-31.667508],[-60.733017,-31.66756],[-60.73457,-31.666984],[-60.734642,-31.666862],[-60.735195,-31.667005],[-60.735468,-31.666334],[-60.734782,-31.666211],[-60.735465,-31.664583],[-60.738922,-31.665482],[-60.738966,-31.665909],[-60.738557,-31.667369],[-60.73848,-31.667654],[-60.738499,-31.667976],[-60.738322,-31.668394],[-60.737996,-31.66885],[-60.737745,-31.669],[-60.737329,-31.669309],[-60.737036,-31.669462],[-60.736544,-31.669693],[-60.735964,-31.669829],[-60.735378,-31.669858],[-60.735046,-31.669759],[-60.734283,-31.669569],[-60.733919,-31.669486],[-60.733619,-31.669392],[-60.733414,-31.669294],[-60.733642,-31.668928],[-60.732313,-31.668251]]]]}},{"type":"Feature","properties":{"barrio":"Cabal","situacion":"Ambos riesgos","renabap_id":2986,"provincia":"Santa Fe","departamento":"La Capital","localidad":"Santa Fe","familias":297},"geometry":{"type":"Polygon","coordinates":[[[-60.731111,-31.600707],[-60.729897,-31.596392],[-60.734033,-31.595598],[-60.734239,-31.595671],[-60.735135,-31.595535],[-60.734795,-31.596734],[-60.734706,-31.596849],[-60.73384,-31.600108],[-60.731111,-31.600707]]]}},{"type":"Feature","properties":{"barrio":"Las Lomas","situacion":"Ambos riesgos","renabap_id":2987,"provincia":"Santa Fe","departamento":"La Capital","localidad":"Santa Fe","familias":875},"geometry":{"type":"Polygon","coordinates":[[[-60.738382,-31.592092],[-60.740108,-31.59173],[-60.740175,-31.592808],[-60.740085,-31.59323],[-60.741392,-31.593013],[-60.741515,-31.592547],[-60.742179,-31.592403],[-60.743274,-31.592203],[-60.742897,-31.593687],[-60.741742,-31.593911],[-60.741257,-31.59595],[-60.742224,-31.596163],[-60.741736,-31.59793],[-60.739117,-31.598394],[-60.739338,-31.599392],[-60.737815,-31.599727],[-60.737882,-31.600061],[-60.738003,-31.600617],[-60.737046,-31.600786],[-60.73391,-31.599846],[-60.734706,-31.596849],[-60.734795,-31.596734],[-60.735135,-31.595535],[-60.735088,-31.595542],[-60.735182,-31.595141],[-60.735437,-31.595151],[-60.736152,-31.592578],[-60.736428,-31.591603],[-60.736581,-31.591569],[-60.736817,-31.591512],[-60.737015,-31.592379],[-60.737548,-31.592267],[-60.737328,-31.59139],[-60.737681,-31.591306],[-60.738121,-31.591219],[-60.738382,-31.592092]]]}},{"type":"Feature","properties":{"barrio":"Santo Domingo","situacion":"Ambos riesgos","renabap_id":2993,"provincia":"Santa Fe","departamento":"La Capital","localidad":"Santa Fe","familias":275},"geometry":{"type":"MultiPolygon","coordinates":[[[[-60.736581,-31.591569],[-60.736513,-31.591471],[-60.736917,-31.590012],[-60.737808,-31.586898],[-60.737736,-31.586835],[-60.73821,-31.585355],[-60.741459,-31.584758],[-60.743763,-31.584255],[-60.743774,-31.584293],[-60.747006,-31.583669],[-60.747081,-31.584135],[-60.746856,-31.584183],[-60.746763,-31.585103],[-60.745425,-31.585325],[-60.745463,-31.585527],[-60.744499,-31.585729],[-60.744661,-31.586831],[-60.742585,-31.587263],[-60.742273,-31.586203],[-60.741877,-31.586269],[-60.741827,-31.58605],[-60.741131,-31.586195],[-60.741313,-31.586821],[-60.741668,-31.586739],[-60.741918,-31.587477],[-60.741125,-31.587651],[-60.741458,-31.588905],[-60.739438,-31.589424],[-60.739537,-31.589907],[-60.738543,-31.590121],[-60.738716,-31.590794],[-60.737616,-31.591068],[-60.737681,-31.591306],[-60.736581,-31.591569]]],[[[-60.747934,-31.586018],[-60.748138,-31.587345],[-60.747623,-31.587449],[-60.747391,-31.586121],[-60.747934,-31.586018]]]]}},{"type":"Feature","properties":{"barrio":"San Agustín","situacion":"Ambos riesgos","renabap_id":2997,"provincia":"Santa Fe","departamento":"La Capital","localidad":"Santa Fe","familias":149},"geometry":{"type":"Polygon","coordinates":[[[-60.756502,-31.565719],[-60.756641,-31.566275],[-60.756642,-31.566725],[-60.756415,-31.566833],[-60.75633,-31.566442],[-60.755709,-31.566847],[-60.755872,-31.567094],[-60.754524,-31.567898],[-60.754329,-31.567672],[-60.753556,-31.56816],[-60.753076,-31.568388],[-60.753176,-31.568548],[-60.752428,-31.568967],[-60.751014,-31.569775],[-60.750972,-31.569949],[-60.749835,-31.570594],[-60.748702,-31.571292],[-60.748367,-31.571381],[-60.748242,-31.571217],[-60.748004,-31.571132],[-60.748368,-31.57037],[-60.748429,-31.570385],[-60.748633,-31.570355],[-60.750088,-31.569987],[-60.750532,-31.569743],[-60.751325,-31.569288],[-60.751643,-31.569096],[-60.752743,-31.568456],[-60.752935,-31.568241],[-60.75291,-31.56814],[-60.752793,-31.567802],[-60.753304,-31.567666],[-60.754198,-31.567427],[-60.754051,-31.567],[-60.754526,-31.566863],[-60.754353,-31.566341],[-60.756254,-31.565903],[-60.756247,-31.565803],[-60.755977,-31.564973],[-60.755583,-31.563953],[-60.755331,-31.563242],[-60.755696,-31.563141],[-60.756502,-31.565719]]]}},{"type":"Feature","properties":{"barrio":"Los Alisos","situacion":"Ambos riesgos","renabap_id":3000,"provincia":"Santa Fe","departamento":"La Capital","localidad":"Santa Fe","familias":53},"geometry":{"type":"Polygon","coordinates":[[[-60.66113,-31.633996],[-60.659432,-31.633938],[-60.659454,-31.633097],[-60.661024,-31.633058],[-60.661374,-31.632965],[-60.662232,-31.633312],[-60.663097,-31.633647],[-60.663989,-31.633796],[-60.664552,-31.633969],[-60.664566,-31.634335],[-60.663375,-31.634526],[-60.663469,-31.634902],[-60.663118,-31.635025],[-60.662668,-31.634073],[-60.662347,-31.633944],[-60.661888,-31.63385],[-60.661786,-31.633845],[-60.661751,-31.633938],[-60.661523,-31.633952],[-60.66113,-31.633996]]]}},{"type":"Feature","properties":{"barrio":"Bajada Di Stéfano","situacion":"Ambos riesgos","renabap_id":3001,"provincia":"Santa Fe","departamento":"La Capital","localidad":"Santa Fe","familias":66},"geometry":{"type":"Polygon","coordinates":[[[-60.641034,-31.64129],[-60.641323,-31.642049],[-60.641743,-31.641936],[-60.642064,-31.64285],[-60.642227,-31.643106],[-60.642483,-31.64385],[-60.642455,-31.643934],[-60.642729,-31.644759],[-60.642326,-31.644882],[-60.642234,-31.644535],[-60.641969,-31.644185],[-60.641692,-31.644098],[-60.641401,-31.643795],[-60.640863,-31.642469],[-60.640719,-31.642443],[-60.640038,-31.642602],[-60.639945,-31.642481],[-60.639131,-31.642648],[-60.638932,-31.642177],[-60.638911,-31.641664],[-60.639293,-31.641573],[-60.639009,-31.640589],[-60.638881,-31.640601],[-60.63878,-31.640545],[-60.638735,-31.64035],[-60.638846,-31.639992],[-60.639119,-31.640037],[-60.639872,-31.640033],[-60.640682,-31.640163],[-60.641034,-31.64129]]]}},{"type":"Feature","properties":{"barrio":"Centenario","situacion":"Ambos riesgos","renabap_id":3015,"provincia":"Santa Fe","departamento":"La Capital","localidad":"Santa Fe","familias":682},"geometry":{"type":"Polygon","coordinates":[[[-60.723453,-31.671754],[-60.722252,-31.671179],[-60.723812,-31.669944],[-60.724571,-31.669329],[-60.725376,-31.670075],[-60.728765,-31.667358],[-60.729341,-31.667753],[-60.729005,-31.668692],[-60.72857,-31.670349],[-60.728075,-31.671243],[-60.727557,-31.671743],[-60.726467,-31.672241],[-60.725831,-31.67233],[-60.725071,-31.672327],[-60.724176,-31.672087],[-60.723453,-31.671754]]]}},{"type":"Feature","properties":{"barrio":"La Vía Muerta","situacion":"Ambos riesgos","renabap_id":3018,"provincia":"Santa Fe","departamento":"La Capital","localidad":"Santa Fe","familias":374},"geometry":{"type":"MultiPolygon","coordinates":[[[[-60.60771,-31.640706],[-60.608645,-31.640696],[-60.608858,-31.640666],[-60.609086,-31.640662],[-60.60918,-31.640625],[-60.610102,-31.640601],[-60.610074,-31.640408],[-60.610594,-31.640342],[-60.610576,-31.640242],[-60.610592,-31.640239],[-60.610461,-31.63957],[-60.610442,-31.639467],[-60.613599,-31.638912],[-60.614021,-31.6405],[-60.614147,-31.640495],[-60.614963,-31.640487],[-60.615,-31.640596],[-60.616084,-31.640462],[-60.616105,-31.6406],[-60.617221,-31.640584],[-60.619004,-31.640551],[-60.619074,-31.640549],[-60.619087,-31.640467],[-60.621001,-31.640426],[-60.622771,-31.640407],[-60.622835,-31.640385],[-60.624648,-31.640343],[-60.62469,-31.640476],[-60.625945,-31.640449],[-60.625929,-31.640244],[-60.626183,-31.64023],[-60.626267,-31.640728],[-60.626052,-31.64097],[-60.625824,-31.640807],[-60.623551,-31.640871],[-60.623691,-31.641243],[-60.623041,-31.641422],[-60.622877,-31.640876],[-60.621792,-31.640876],[-60.621186,-31.640907],[-60.619034,-31.640931],[-60.618882,-31.64179],[-60.618672,-31.64292],[-60.616166,-31.642218],[-60.615312,-31.641962],[-60.614735,-31.641989],[-60.609152,-31.641118],[-60.608879,-31.641111],[-60.608031,-31.640923],[-60.605983,-31.640961],[-60.605669,-31.640875],[-60.605499,-31.639078],[-60.605533,-31.638973],[-60.605927,-31.638922],[-60.606621,-31.63883],[-60.606599,-31.638727],[-60.607043,-31.638658],[-60.607088,-31.638847],[-60.607133,-31.639185],[-60.607255,-31.640321],[-60.607285,-31.6407],[-60.607289,-31.640705],[-60.60771,-31.640706]]],[[[-60.615733,-31.639438],[-60.615215,-31.63952],[-60.61501,-31.63868],[-60.61507,-31.638669],[-60.615041,-31.638237],[-60.615008,-31.637682],[-60.615933,-31.637621],[-60.615977,-31.638132],[-60.616001,-31.638543],[-60.61554,-31.638642],[-60.615733,-31.639438]]]]}},{"type":"Feature","properties":{"barrio":"Scarafia","situacion":"Ambos riesgos","renabap_id":3024,"provincia":"Santa Fe","departamento":"La Capital","localidad":"Santa Fe","familias":198},"geometry":{"type":"MultiPolygon","coordinates":[[[[-60.736489,-31.590972],[-60.73484,-31.591281],[-60.734712,-31.590865],[-60.735588,-31.590705],[-60.735586,-31.590618],[-60.735692,-31.590586],[-60.735696,-31.590526],[-60.736107,-31.590469],[-60.73617,-31.590514],[-60.736615,-31.590512],[-60.736489,-31.590972]]],[[[-60.734216,-31.594012],[-60.731176,-31.594631],[-60.730837,-31.593462],[-60.730326,-31.593581],[-60.730355,-31.59333],[-60.73054,-31.593279],[-60.730828,-31.593185],[-60.730725,-31.592769],[-60.731056,-31.592713],[-60.731823,-31.592573],[-60.732393,-31.592486],[-60.732397,-31.592504],[-60.732613,-31.592465],[-60.732623,-31.592502],[-60.732929,-31.592451],[-60.73291,-31.592373],[-60.733994,-31.59218],[-60.734065,-31.592409],[-60.73507,-31.592214],[-60.73619,-31.592019],[-60.735694,-31.593735],[-60.734216,-31.594012]]]]}},{"type":"Feature","properties":{"barrio":"Playa Norte","situacion":"Ambos riesgos","renabap_id":3032,"provincia":"Santa Fe","departamento":"La Capital","localidad":"Santa Fe","familias":154},"geometry":{"type":"MultiPolygon","coordinates":[[[[-60.664819,-31.597335],[-60.664239,-31.595171],[-60.664141,-31.594888],[-60.663968,-31.594624],[-60.663462,-31.594011],[-60.663329,-31.593778],[-60.663126,-31.592992],[-60.663832,-31.592864],[-60.664569,-31.593261],[-60.665469,-31.593531],[-60.665768,-31.594579],[-60.666252,-31.594476],[-60.666827,-31.596888],[-60.666111,-31.597058],[-60.664819,-31.597335]]],[[[-60.66948,-31.595657],[-60.669892,-31.595559],[-60.670613,-31.595233],[-60.671293,-31.595173],[-60.671381,-31.59574],[-60.6704,-31.59597],[-60.670418,-31.596033],[-60.669649,-31.596192],[-60.66948,-31.595657]]]]}},{"type":"Feature","properties":{"barrio":"Loyola Sur","situacion":"Ambos riesgos","renabap_id":3033,"provincia":"Santa Fe","departamento":"La Capital","localidad":"Santa Fe","familias":220},"geometry":{"type":"MultiPolygon","coordinates":[[[[-60.747853,-31.578372],[-60.747515,-31.578442],[-60.746728,-31.575757],[-60.750556,-31.574919],[-60.750612,-31.575387],[-60.747234,-31.576127],[-60.747853,-31.578372]]],[[[-60.746483,-31.574967],[-60.745928,-31.573099],[-60.743876,-31.5743],[-60.743719,-31.573748],[-60.744281,-31.57359],[-60.747691,-31.571552],[-60.749732,-31.572778],[-60.749643,-31.573313],[-60.748855,-31.573661],[-60.748648,-31.573929],[-60.748059,-31.574333],[-60.7474,-31.574355],[-60.747523,-31.574735],[-60.746483,-31.574967]]]]}},{"type":"Feature","properties":{"barrio":"La Tablada Vieja","situacion":"Ambos riesgos","renabap_id":3034,"provincia":"Santa Fe","departamento":"La Capital","localidad":"Santa Fe","familias":88},"geometry":{"type":"Polygon","coordinates":[[[-60.761969,-31.561587],[-60.762497,-31.56098],[-60.763031,-31.560831],[-60.764066,-31.560729],[-60.764027,-31.558028],[-60.762563,-31.558177],[-60.762511,-31.559545],[-60.761513,-31.560159],[-60.759919,-31.554531],[-60.765409,-31.553175],[-60.765431,-31.55324],[-60.768001,-31.557362],[-60.767401,-31.560441],[-60.766864,-31.561105],[-60.765759,-31.561054],[-60.76277,-31.562319],[-60.762252,-31.562104],[-60.759639,-31.562643],[-60.759494,-31.562169],[-60.761969,-31.561587]]]}},{"type":"Feature","properties":{"barrio":"Santa Rosa de Lima","situacion":"Ambos riesgos","renabap_id":3037,"provincia":"Santa Fe","departamento":"La Capital","localidad":"Santa Fe","familias":1166},"geometry":{"type":"Polygon","coordinates":[[[-60.731321,-31.646666],[-60.730918,-31.646779],[-60.730193,-31.644615],[-60.730954,-31.644411],[-60.73058,-31.64322],[-60.729796,-31.643426],[-60.729295,-31.642101],[-60.729497,-31.642042],[-60.72919,-31.641206],[-60.728893,-31.641273],[-60.727123,-31.636494],[-60.726847,-31.635903],[-60.726921,-31.635935],[-60.727434,-31.636211],[-60.728689,-31.639487],[-60.734439,-31.637874],[-60.734517,-31.637849],[-60.734683,-31.638365],[-60.734586,-31.638384],[-60.735357,-31.640394],[-60.73551,-31.640331],[-60.735564,-31.640483],[-60.735418,-31.640555],[-60.735456,-31.640659],[-60.738539,-31.63993],[-60.739763,-31.641005],[-60.740768,-31.643016],[-60.740823,-31.643131],[-60.740902,-31.643277],[-60.740778,-31.643361],[-60.740611,-31.643223],[-60.740373,-31.643164],[-60.740347,-31.643041],[-60.739839,-31.643123],[-60.73947,-31.643297],[-60.739074,-31.643638],[-60.738928,-31.643974],[-60.738571,-31.643939],[-60.738626,-31.643675],[-60.739023,-31.643141],[-60.739306,-31.642868],[-60.740056,-31.642657],[-60.739886,-31.642223],[-60.739716,-31.642279],[-60.739653,-31.642117],[-60.739826,-31.642064],[-60.739776,-31.641957],[-60.738096,-31.642448],[-60.738169,-31.642834],[-60.738117,-31.643233],[-60.737679,-31.643153],[-60.737609,-31.643642],[-60.737691,-31.643644],[-60.737776,-31.644369],[-60.737015,-31.644577],[-60.736888,-31.644055],[-60.736526,-31.644137],[-60.73635,-31.644112],[-60.736303,-31.644213],[-60.736021,-31.644587],[-60.735929,-31.644777],[-60.735857,-31.644962],[-60.735625,-31.645116],[-60.735353,-31.645296],[-60.735383,-31.645546],[-60.736136,-31.645841],[-60.736089,-31.645982],[-60.735045,-31.645761],[-60.734331,-31.645843],[-60.734208,-31.645432],[-60.734083,-31.64508],[-60.732777,-31.645407],[-60.733091,-31.646179],[-60.731321,-31.646666]]]}},{"type":"Feature","properties":{"barrio":"La Vuelta del Paraguayo","situacion":"Ambos riesgos","renabap_id":3040,"provincia":"Santa Fe","departamento":"La Capital","localidad":"Santa Fe","familias":143},"geometry":{"type":"Polygon","coordinates":[[[-60.673645,-31.643665],[-60.673135,-31.643694],[-60.671766,-31.643987],[-60.671077,-31.644372],[-60.669956,-31.644478],[-60.66948,-31.64482],[-60.669142,-31.645088],[-60.668887,-31.645181],[-60.668893,-31.645324],[-60.668938,-31.645434],[-60.66889,-31.645787],[-60.669014,-31.645954],[-60.668729,-31.646108],[-60.66755,-31.645018],[-60.667423,-31.644533],[-60.66711,-31.6446],[-60.66701,-31.644112],[-60.666609,-31.644112],[-60.666495,-31.643742],[-60.66528,-31.643702],[-60.664961,-31.644005],[-60.664746,-31.644138],[-60.66457,-31.644208],[-60.664294,-31.644251],[-60.664065,-31.644139],[-60.663365,-31.644195],[-60.663219,-31.643988],[-60.663969,-31.643657],[-60.664582,-31.643568],[-60.66563,-31.643268],[-60.668541,-31.643255],[-60.673298,-31.643277],[-60.674105,-31.643458],[-60.674159,-31.643544],[-60.674333,-31.643557],[-60.674484,-31.643459],[-60.675446,-31.643383],[-60.675817,-31.643318],[-60.676432,-31.643244],[-60.677063,-31.643207],[-60.677619,-31.64316],[-60.677587,-31.64368],[-60.67768,-31.643695],[-60.67758,-31.644075],[-60.677281,-31.644036],[-60.677249,-31.644166],[-60.676936,-31.644234],[-60.676675,-31.644219],[-60.676636,-31.644428],[-60.676428,-31.644419],[-60.675606,-31.644965],[-60.675616,-31.645091],[-60.675338,-31.64514],[-60.675361,-31.645353],[-60.675033,-31.645384],[-60.674728,-31.645358],[-60.674568,-31.64527],[-60.674396,-31.645049],[-60.674811,-31.644787],[-60.674617,-31.644465],[-60.675256,-31.644112],[-60.675262,-31.64397],[-60.675234,-31.643608],[-60.67436,-31.643659],[-60.67408,-31.643657],[-60.673645,-31.643665]]]}},{"type":"Feature","properties":{"barrio":"La Balsa","situacion":"Ambos riesgos","renabap_id":5886,"provincia":"Santa Fe","departamento":"La Capital","localidad":"Santa Fe","familias":36},"geometry":{"type":"Polygon","coordinates":[[[-60.555643,-31.683085],[-60.555324,-31.683106],[-60.554772,-31.683165],[-60.554437,-31.683254],[-60.55385,-31.683453],[-60.553012,-31.683895],[-60.552634,-31.683291],[-60.552384,-31.683357],[-60.552123,-31.68332],[-60.55196,-31.682995],[-60.554515,-31.682322],[-60.555374,-31.682136],[-60.555643,-31.683085]]]}},{"type":"Feature","properties":{"barrio":"Punta Norte","situacion":"Ambos riesgos","renabap_id":5893,"provincia":"Santa Fe","departamento":"La Capital","localidad":"Santa Fe","familias":35},"geometry":{"type":"Polygon","coordinates":[[[-60.714278,-31.568973],[-60.714241,-31.569364],[-60.713888,-31.569339],[-60.713924,-31.568988],[-60.714003,-31.56843],[-60.713814,-31.567841],[-60.7141,-31.567775],[-60.71415,-31.567205],[-60.714116,-31.567121],[-60.714217,-31.566878],[-60.714391,-31.566611],[-60.714684,-31.566581],[-60.714795,-31.566614],[-60.71489,-31.566698],[-60.714754,-31.567252],[-60.714645,-31.568346],[-60.714816,-31.568281],[-60.715042,-31.568275],[-60.715321,-31.56823],[-60.716422,-31.567963],[-60.717122,-31.567801],[-60.71726,-31.568154],[-60.7165,-31.568324],[-60.715387,-31.568562],[-60.714293,-31.568808],[-60.714278,-31.568973]]]}},{"type":"Feature","properties":{"barrio":"Barranquitas Oeste","situacion":"Ambos riesgos","renabap_id":5894,"provincia":"Santa Fe","departamento":"La Capital","localidad":"Santa Fe","familias":259},"geometry":{"type":"Polygon","coordinates":[[[-60.722612,-31.617427],[-60.722818,-31.618819],[-60.723923,-31.618656],[-60.724209,-31.620582],[-60.723635,-31.621718],[-60.72311,-31.621576],[-60.723248,-31.623135],[-60.723443,-31.623209],[-60.723491,-31.623595],[-60.723314,-31.623602],[-60.723467,-31.625033],[-60.723645,-31.625051],[-60.723726,-31.62565],[-60.723537,-31.625871],[-60.723241,-31.625749],[-60.723204,-31.625833],[-60.723094,-31.626033],[-60.72284,-31.625937],[-60.723078,-31.625556],[-60.722782,-31.622072],[-60.722251,-31.62208],[-60.72251,-31.625373],[-60.722014,-31.625393],[-60.721776,-31.621266],[-60.721318,-31.621334],[-60.720928,-31.619202],[-60.720779,-31.619227],[-60.720432,-31.617808],[-60.720894,-31.617725],[-60.722469,-31.617452],[-60.722612,-31.617427]]]}},{"type":"Feature","properties":{"barrio":"Alfonso","situacion":"Zona inundable","renabap_id":2980,"provincia":"Santa Fe","departamento":"La Capital","localidad":"Santa Fe","familias":376},"geometry":{"type":"Polygon","coordinates":[[[-60.729248,-31.643509],[-60.729772,-31.643368],[-60.729794,-31.643427],[-60.730918,-31.646779],[-60.731425,-31.648254],[-60.73152,-31.648699],[-60.73155,-31.648996],[-60.731585,-31.649546],[-60.731582,-31.650751],[-60.731657,-31.651252],[-60.73183,-31.651682],[-60.732159,-31.652216],[-60.73298,-31.652951],[-60.732743,-31.65321],[-60.732049,-31.652613],[-60.731646,-31.652767],[-60.731554,-31.652464],[-60.731749,-31.652412],[-60.731655,-31.652167],[-60.730692,-31.652214],[-60.730394,-31.652569],[-60.730095,-31.652798],[-60.72996,-31.652705],[-60.729628,-31.65298],[-60.729207,-31.653251],[-60.72861,-31.653525],[-60.728113,-31.653668],[-60.728087,-31.65361],[-60.727845,-31.652887],[-60.728428,-31.652763],[-60.728821,-31.652602],[-60.729096,-31.652368],[-60.729403,-31.65198],[-60.730391,-31.650188],[-60.730424,-31.649651],[-60.730227,-31.648775],[-60.729064,-31.645346],[-60.729783,-31.64514],[-60.729248,-31.643509]]]}},{"type":"Feature","properties":{"barrio":"Los Hornos","situacion":"Zona inundable","renabap_id":2985,"provincia":"Santa Fe","departamento":"La Capital","localidad":"Santa Fe","familias":550},"geometry":{"type":"Polygon","coordinates":[[[-60.711809,-31.612437],[-60.710176,-31.612783],[-60.710504,-31.613868],[-60.71068,-31.613856],[-60.710828,-31.613907],[-60.711021,-31.614543],[-60.709618,-31.614855],[-60.709129,-31.612999],[-60.708031,-31.6093],[-60.710778,-31.608688],[-60.7116,-31.611445],[-60.711809,-31.612437]]]}},{"type":"Feature","properties":{"barrio":"San José","situacion":"Zona inundable","renabap_id":2988,"provincia":"Santa Fe","departamento":"La Capital","localidad":"Santa Fe","familias":94},"geometry":{"type":"Polygon","coordinates":[[[-60.705591,-31.596201],[-60.706163,-31.59815],[-60.704465,-31.598469],[-60.704402,-31.598257],[-60.705523,-31.595274],[-60.705909,-31.595195],[-60.705591,-31.596201]]]}},{"type":"Feature","properties":{"barrio":"Veintinueve de Abril","situacion":"Zona inundable","renabap_id":2992,"provincia":"Santa Fe","departamento":"La Capital","localidad":"Santa Fe","familias":149},"geometry":{"type":"Polygon","coordinates":[[[-60.698219,-31.588132],[-60.697656,-31.588264],[-60.697169,-31.586807],[-60.697936,-31.586608],[-60.697408,-31.584984],[-60.699373,-31.584526],[-60.699904,-31.586112],[-60.701603,-31.585741],[-60.701874,-31.58664],[-60.700217,-31.587044],[-60.700407,-31.587611],[-60.698219,-31.588132]]]}},{"type":"Feature","properties":{"barrio":"Estanislao López","situacion":"Zona inundable","renabap_id":2994,"provincia":"Santa Fe","departamento":"La Capital","localidad":"Santa Fe","familias":209},"geometry":{"type":"Polygon","coordinates":[[[-60.735839,-31.579361],[-60.735978,-31.579905],[-60.73517,-31.580066],[-60.734694,-31.580579],[-60.734098,-31.581337],[-60.734009,-31.581419],[-60.733681,-31.581533],[-60.733655,-31.581586],[-60.733288,-31.581662],[-60.733362,-31.581261],[-60.733848,-31.580313],[-60.733775,-31.580289],[-60.733789,-31.580258],[-60.734199,-31.579559],[-60.734958,-31.578591],[-60.735115,-31.578522],[-60.735506,-31.578402],[-60.735477,-31.578281],[-60.737178,-31.577892],[-60.737628,-31.577662],[-60.737812,-31.577957],[-60.738003,-31.57866],[-60.73627,-31.579029],[-60.735839,-31.579361]]]}},{"type":"Feature","properties":{"barrio":"Santa Marta","situacion":"Zona inundable","renabap_id":2995,"provincia":"Santa Fe","departamento":"La Capital","localidad":"Santa Fe","familias":176},"geometry":{"type":"Polygon","coordinates":[[[-60.73299,-31.572629],[-60.732819,-31.572001],[-60.73168,-31.572236],[-60.73154,-31.571647],[-60.735509,-31.570797],[-60.735861,-31.570704],[-60.736129,-31.570597],[-60.736178,-31.570652],[-60.736154,-31.57125],[-60.736801,-31.573591],[-60.735683,-31.573884],[-60.735489,-31.57452],[-60.734296,-31.574777],[-60.734243,-31.574207],[-60.733436,-31.574342],[-60.73299,-31.572629]]]}},{"type":"Feature","properties":{"barrio":"La Ranita","situacion":"Zona inundable","renabap_id":2996,"provincia":"Santa Fe","departamento":"La Capital","localidad":"Santa Fe","familias":523},"geometry":{"type":"Polygon","coordinates":[[[-60.746643,-31.567522],[-60.743074,-31.568295],[-60.74305,-31.567812],[-60.741208,-31.568237],[-60.740872,-31.567096],[-60.742676,-31.566722],[-60.742164,-31.565105],[-60.745685,-31.564359],[-60.746643,-31.567522]]]}},{"type":"Feature","properties":{"barrio":"El Tránsito","situacion":"Zona inundable","renabap_id":2998,"provincia":"Santa Fe","departamento":"La Capital","localidad":"Santa Fe","familias":55},"geometry":{"type":"Polygon","coordinates":[[[-60.731539,-31.585652],[-60.730295,-31.587633],[-60.730268,-31.587779],[-60.7302,-31.587879],[-60.730115,-31.588091],[-60.730102,-31.588226],[-60.730025,-31.588241],[-60.730042,-31.588312],[-60.729944,-31.588325],[-60.729616,-31.588916],[-60.729298,-31.588979],[-60.729597,-31.588445],[-60.729839,-31.587965],[-60.729885,-31.587849],[-60.730446,-31.586863],[-60.730446,-31.586811],[-60.730599,-31.58652],[-60.731082,-31.585662],[-60.731124,-31.585608],[-60.731643,-31.584644],[-60.732018,-31.584771],[-60.731539,-31.585652]]]}},{"type":"Feature","properties":{"barrio":"Los Bañados","situacion":"Zona inundable","renabap_id":3002,"provincia":"Santa Fe","departamento":"La Capital","localidad":"Santa Fe","familias":220},"geometry":{"type":"Polygon","coordinates":[[[-60.626903,-31.63803],[-60.62676,-31.637903],[-60.625776,-31.636993],[-60.626077,-31.636627],[-60.62623,-31.635818],[-60.626388,-31.634963],[-60.626378,-31.634573],[-60.626135,-31.633819],[-60.625153,-31.634076],[-60.624448,-31.632077],[-60.624082,-31.632159],[-60.623667,-31.631898],[-60.623958,-31.630143],[-60.624219,-31.629564],[-60.624495,-31.629556],[-60.624591,-31.629423],[-60.624633,-31.629211],[-60.624903,-31.629217],[-60.625195,-31.628234],[-60.625614,-31.628194],[-60.626569,-31.628014],[-60.626675,-31.628894],[-60.626848,-31.628859],[-60.626869,-31.629516],[-60.627059,-31.630079],[-60.626912,-31.630232],[-60.627063,-31.631069],[-60.627339,-31.631008],[-60.627404,-31.63142],[-60.62709,-31.631487],[-60.627409,-31.633221],[-60.627759,-31.633189],[-60.627873,-31.635134],[-60.627966,-31.635123],[-60.628054,-31.635656],[-60.628144,-31.635693],[-60.628267,-31.637553],[-60.628509,-31.637548],[-60.628618,-31.638731],[-60.627197,-31.63826],[-60.626903,-31.63803]]]}},{"type":"Feature","properties":{"barrio":"Abasto","situacion":"Zona inundable","renabap_id":3016,"provincia":"Santa Fe","departamento":"La Capital","localidad":"Santa Fe","familias":550},"geometry":{"type":"Polygon","coordinates":[[[-60.744275,-31.558098],[-60.744352,-31.561903],[-60.744238,-31.56201],[-60.73812,-31.563409],[-60.736938,-31.559888],[-60.744275,-31.558098]]]}},{"type":"Feature","properties":{"barrio":"Schneider","situacion":"Zona inundable","renabap_id":3019,"provincia":"Santa Fe","departamento":"La Capital","localidad":"Santa Fe","familias":26},"geometry":{"type":"Polygon","coordinates":[[[-60.713823,-31.615922],[-60.713584,-31.615965],[-60.714745,-31.613874],[-60.714971,-31.613938],[-60.714145,-31.615459],[-60.714075,-31.615427],[-60.713823,-31.615922]]]}},{"type":"Feature","properties":{"barrio":"Yapeyú","situacion":"Zona inundable","renabap_id":3021,"provincia":"Santa Fe","departamento":"La Capital","localidad":"Santa Fe","familias":55},"geometry":{"type":"Polygon","coordinates":[[[-60.736297,-31.569463],[-60.736198,-31.570316],[-60.735593,-31.570454],[-60.735331,-31.569673],[-60.736297,-31.569463]]]}},{"type":"Feature","properties":{"barrio":"Colastine Sur","situacion":"Zona inundable","renabap_id":3027,"provincia":"Santa Fe","departamento":"La Capital","localidad":"Santa Fe","familias":77},"geometry":{"type":"Polygon","coordinates":[[[-60.605033,-31.660265],[-60.604746,-31.660403],[-60.602734,-31.660966],[-60.601995,-31.661124],[-60.601338,-31.659858],[-60.600202,-31.660138],[-60.599741,-31.659856],[-60.599585,-31.659359],[-60.599153,-31.65942],[-60.598846,-31.658624],[-60.599064,-31.658556],[-60.59965,-31.658432],[-60.600721,-31.658795],[-60.60077,-31.658988],[-60.59964,-31.659363],[-60.599976,-31.659752],[-60.601843,-31.659263],[-60.603778,-31.658879],[-60.603897,-31.65911],[-60.602737,-31.659344],[-60.60259,-31.659176],[-60.601882,-31.659314],[-60.602066,-31.659412],[-60.602463,-31.659896],[-60.602769,-31.660099],[-60.60326,-31.660594],[-60.604571,-31.660254],[-60.604816,-31.660013],[-60.605022,-31.66001],[-60.605142,-31.660151],[-60.605033,-31.660265]]]}},{"type":"Feature","properties":{"barrio":"Congregación Cristiana Pueblo de Dios","situacion":"Zona inundable","renabap_id":3028,"provincia":"Santa Fe","departamento":"La Capital","localidad":"Santa Fe","familias":55},"geometry":{"type":"Polygon","coordinates":[[[-60.675269,-31.562798],[-60.673621,-31.5631],[-60.673394,-31.56217],[-60.675011,-31.56187],[-60.675269,-31.562798]]]}},{"type":"Feature","properties":{"barrio":"Cabañas Leiva Sf","situacion":"Zona inundable","renabap_id":3036,"provincia":"Santa Fe","departamento":"La Capital","localidad":"Santa Fe","familias":23},"geometry":{"type":"Polygon","coordinates":[[[-60.723827,-31.569608],[-60.723813,-31.569421],[-60.724172,-31.569219],[-60.724559,-31.569],[-60.724922,-31.568753],[-60.725303,-31.5687],[-60.725444,-31.569266],[-60.724969,-31.569386],[-60.723827,-31.569608]]]}},{"type":"Feature","properties":{"barrio":"Villa Hipódromo","situacion":"Zona inundable","renabap_id":3038,"provincia":"Santa Fe","departamento":"La Capital","localidad":"Santa Fe","familias":858},"geometry":{"type":"Polygon","coordinates":[[[-60.718679,-31.603097],[-60.719084,-31.604724],[-60.717753,-31.60497],[-60.717935,-31.605914],[-60.718462,-31.605883],[-60.718403,-31.606366],[-60.718513,-31.606368],[-60.718827,-31.6064],[-60.719113,-31.606378],[-60.719359,-31.606442],[-60.718351,-31.608256],[-60.718254,-31.608583],[-60.715986,-31.608573],[-60.715707,-31.607629],[-60.714364,-31.607922],[-60.713971,-31.606509],[-60.714065,-31.606505],[-60.714108,-31.605478],[-60.713742,-31.604175],[-60.718679,-31.603097]]]}},{"type":"Feature","properties":{"barrio":"Villa Elsa","situacion":"Zona inundable","renabap_id":3039,"provincia":"Santa Fe","departamento":"La Capital","localidad":"Santa Fe","familias":616},"geometry":{"type":"Polygon","coordinates":[[[-60.699841,-31.595047],[-60.697388,-31.595617],[-60.697273,-31.59519],[-60.695819,-31.595522],[-60.69526,-31.593698],[-60.699115,-31.592765],[-60.699841,-31.595047]]]}},{"type":"Feature","properties":{"barrio":"Loyola","situacion":"Zona inundable","renabap_id":3041,"provincia":"Santa Fe","departamento":"La Capital","localidad":"Santa Fe","familias":171},"geometry":{"type":"Polygon","coordinates":[[[-60.737812,-31.577957],[-60.737631,-31.577665],[-60.739817,-31.576318],[-60.741683,-31.575164],[-60.743703,-31.573936],[-60.743813,-31.574321],[-60.741875,-31.575551],[-60.741968,-31.575907],[-60.742661,-31.575778],[-60.742925,-31.576662],[-60.741278,-31.577005],[-60.740996,-31.576094],[-60.739839,-31.576767],[-60.737812,-31.577957]]]}},{"type":"Feature","properties":{"barrio":"Nueva Pompeya","situacion":"Zona inundable","renabap_id":5892,"provincia":"Santa Fe","departamento":"La Capital","localidad":"Santa Fe","familias":220},"geometry":{"type":"Polygon","coordinates":[[[-60.705966,-31.595185],[-60.705909,-31.595195],[-60.705523,-31.595274],[-60.704114,-31.595594],[-60.703797,-31.594617],[-60.705254,-31.594188],[-60.705069,-31.593449],[-60.70507,-31.593382],[-60.704966,-31.592948],[-60.704759,-31.592521],[-60.704483,-31.591591],[-60.705653,-31.591317],[-60.705366,-31.590411],[-60.707442,-31.589967],[-60.707565,-31.589642],[-60.70799,-31.589712],[-60.708007,-31.589838],[-60.708059,-31.58983],[-60.708377,-31.590846],[-60.70706,-31.591097],[-60.70728,-31.591942],[-60.705949,-31.592254],[-60.706175,-31.593153],[-60.706726,-31.593025],[-60.706731,-31.593093],[-60.705966,-31.595185]]]}},{"type":"Feature","properties":{"barrio":"Loyola Norte","situacion":"Zona inundable","renabap_id":6717,"provincia":"Santa Fe","departamento":"La Capital","localidad":"Santa Fe","familias":275},"geometry":{"type":"Polygon","coordinates":[[[-60.747204,-31.567401],[-60.74718,-31.567323],[-60.75015,-31.566705],[-60.74918,-31.568777],[-60.742332,-31.570277],[-60.742376,-31.56988],[-60.743074,-31.568295],[-60.747204,-31.567401]]]}},{"type":"Feature","properties":{"barrio":"Belgrano","situacion":"Zona inundable","renabap_id":6743,"provincia":"Santa Fe","departamento":"La Capital","localidad":"Santa Fe","familias":99},"geometry":{"type":"Polygon","coordinates":[[[-60.704576,-31.598448],[-60.70462,-31.598507],[-60.704341,-31.599404],[-60.704054,-31.600193],[-60.703885,-31.601048],[-60.703526,-31.601117],[-60.703408,-31.60162],[-60.702995,-31.601715],[-60.702745,-31.600782],[-60.703312,-31.600647],[-60.703037,-31.599726],[-60.703841,-31.599543],[-60.703544,-31.598609],[-60.704455,-31.598435],[-60.704465,-31.598469],[-60.704576,-31.598448]]]}},{"type":"Feature","properties":{"barrio":"Villa Teresa","situacion":"Zona inundable","renabap_id":6746,"provincia":"Santa Fe","departamento":"La Capital","localidad":"Santa Fe","familias":24},"geometry":{"type":"Polygon","coordinates":[[[-60.736801,-31.573591],[-60.73694,-31.574168],[-60.736414,-31.574285],[-60.736432,-31.574367],[-60.736234,-31.574409],[-60.736217,-31.574327],[-60.735503,-31.574473],[-60.735683,-31.573884],[-60.736801,-31.573591]]]}},{"type":"Feature","properties":{"barrio":"Villa Oculta","situacion":"Cercano a cursos de agua","renabap_id":2984,"provincia":"Santa Fe","departamento":"La Capital","localidad":"Santa Fe","familias":396},"geometry":{"type":"MultiPolygon","coordinates":[[[[-60.732443,-31.635898],[-60.733702,-31.635616],[-60.734371,-31.636905],[-60.734599,-31.637055],[-60.734678,-31.637728],[-60.734313,-31.637707],[-60.734098,-31.637554],[-60.733149,-31.637565],[-60.731873,-31.637478],[-60.731903,-31.637246],[-60.732954,-31.637317],[-60.733953,-31.637334],[-60.734055,-31.637294],[-60.734062,-31.637186],[-60.733922,-31.6369],[-60.733096,-31.6369],[-60.73157,-31.636732],[-60.730478,-31.636478],[-60.730567,-31.635883],[-60.732422,-31.63612],[-60.732443,-31.635898]]],[[[-60.726739,-31.634823],[-60.726594,-31.634868],[-60.726364,-31.634433],[-60.726418,-31.634361],[-60.726305,-31.634168],[-60.726216,-31.634164],[-60.72621,-31.634092],[-60.726125,-31.633868],[-60.725888,-31.633721],[-60.725796,-31.633456],[-60.725518,-31.633049],[-60.725292,-31.632774],[-60.725309,-31.632687],[-60.725251,-31.632598],[-60.725135,-31.632594],[-60.725062,-31.632434],[-60.724681,-31.63204],[-60.724465,-31.631892],[-60.724629,-31.631792],[-60.723963,-31.631199],[-60.723823,-31.631115],[-60.723943,-31.630947],[-60.72335,-31.63045],[-60.722696,-31.630118],[-60.722696,-31.6298],[-60.722528,-31.62923],[-60.722461,-31.629198],[-60.722291,-31.62852],[-60.72272,-31.628475],[-60.723449,-31.628456],[-60.723602,-31.628446],[-60.72369,-31.628441],[-60.723828,-31.62892],[-60.723588,-31.628955],[-60.723783,-31.629857],[-60.723942,-31.62997],[-60.723875,-31.630055],[-60.724681,-31.630532],[-60.725826,-31.631145],[-60.726576,-31.630817],[-60.727198,-31.63121],[-60.727248,-31.631934],[-60.726796,-31.632164],[-60.727172,-31.6326],[-60.72732,-31.632497],[-60.727545,-31.632793],[-60.727673,-31.633198],[-60.728102,-31.633951],[-60.728916,-31.634426],[-60.729213,-31.635034],[-60.728886,-31.635639],[-60.729434,-31.635879],[-60.729471,-31.635909],[-60.729467,-31.63594],[-60.729285,-31.636171],[-60.729385,-31.636246],[-60.729564,-31.636558],[-60.729497,-31.636755],[-60.729908,-31.636897],[-60.729826,-31.637078],[-60.729189,-31.636845],[-60.729228,-31.636719],[-60.72838,-31.63639],[-60.72706,-31.635687],[-60.726739,-31.634823]]]]}},{"type":"Feature","properties":{"barrio":"General Paz","situacion":"Cercano a cursos de agua","renabap_id":2991,"provincia":"Santa Fe","departamento":"La Capital","localidad":"Santa Fe","familias":39},"geometry":{"type":"Polygon","coordinates":[[[-60.672356,-31.59562],[-60.671746,-31.59167],[-60.671572,-31.590975],[-60.671535,-31.590158],[-60.671681,-31.589339],[-60.671383,-31.586405],[-60.671931,-31.586374],[-60.672499,-31.590834],[-60.672919,-31.59556],[-60.672356,-31.59562]]]}},{"type":"Feature","properties":{"barrio":"La Boca","situacion":"Cercano a cursos de agua","renabap_id":2999,"provincia":"Santa Fe","departamento":"La Capital","localidad":"Santa Fe","familias":198},"geometry":{"type":"Polygon","coordinates":[[[-60.684177,-31.687072],[-60.68357,-31.687605],[-60.683464,-31.687589],[-60.683338,-31.6877],[-60.683521,-31.687862],[-60.679598,-31.692437],[-60.668961,-31.703741],[-60.668467,-31.704423],[-60.668272,-31.704773],[-60.667901,-31.705112],[-60.667715,-31.704915],[-60.667967,-31.704585],[-60.6675,-31.704028],[-60.667451,-31.703451],[-60.667589,-31.703154],[-60.667601,-31.702905],[-60.667847,-31.702547],[-60.668294,-31.702096],[-60.668956,-31.701723],[-60.669186,-31.701722],[-60.669987,-31.701266],[-60.670869,-31.700214],[-60.671769,-31.699373],[-60.672613,-31.698471],[-60.674372,-31.696536],[-60.675449,-31.695233],[-60.675229,-31.694989],[-60.675579,-31.694602],[-60.676285,-31.695055],[-60.676868,-31.694381],[-60.677596,-31.693531],[-60.677262,-31.693259],[-60.678109,-31.692288],[-60.678258,-31.692368],[-60.67976,-31.690809],[-60.68009,-31.690824],[-60.686363,-31.683956],[-60.686482,-31.68372],[-60.686694,-31.682969],[-60.687215,-31.682479],[-60.68791,-31.682983],[-60.684177,-31.687072]]]}},{"type":"Feature","properties":{"barrio":"Chalet","situacion":"Cercano a cursos de agua","renabap_id":3014,"provincia":"Santa Fe","departamento":"La Capital","localidad":"Santa Fe","familias":165},"geometry":{"type":"Polygon","coordinates":[[[-60.731114,-31.661856],[-60.730649,-31.65914],[-60.732941,-31.658804],[-60.733629,-31.65871],[-60.733869,-31.658732],[-60.733906,-31.658842],[-60.734315,-31.65878],[-60.733868,-31.659423],[-60.733383,-31.659751],[-60.73318,-31.659689],[-60.733148,-31.659653],[-60.732766,-31.659853],[-60.732735,-31.660344],[-60.732492,-31.661005],[-60.732204,-31.661519],[-60.732016,-31.661776],[-60.731114,-31.661856]]]}},{"type":"Feature","properties":{"barrio":"Alto Verde","situacion":"Cercano a cursos de agua","renabap_id":3017,"provincia":"Santa Fe","departamento":"La Capital","localidad":"Santa Fe","familias":3300},"geometry":{"type":"MultiPolygon","coordinates":[[[[-60.689725,-31.680954],[-60.689467,-31.680203],[-60.689272,-31.678678],[-60.689537,-31.678168],[-60.68981,-31.677683],[-60.692899,-31.673908],[-60.69329,-31.673246],[-60.693938,-31.670463],[-60.694207,-31.669906],[-60.694594,-31.669172],[-60.694868,-31.668729],[-60.695067,-31.668266],[-60.695291,-31.667602],[-60.695773,-31.665125],[-60.695664,-31.661832],[-60.6951,-31.660037],[-60.696636,-31.659583],[-60.696571,-31.659316],[-60.696375,-31.658964],[-60.697818,-31.658252],[-60.695928,-31.655426],[-60.696016,-31.655365],[-60.693977,-31.653175],[-60.693604,-31.653344],[-60.692857,-31.652459],[-60.693193,-31.652304],[-60.690821,-31.649742],[-60.690115,-31.649573],[-60.689285,-31.649403],[-60.688907,-31.649271],[-60.688427,-31.648948],[-60.687902,-31.648507],[-60.687219,-31.648098],[-60.68743,-31.647679],[-60.689318,-31.648916],[-60.690231,-31.649242],[-60.691026,-31.649338],[-60.692099,-31.650017],[-60.697669,-31.655929],[-60.698651,-31.656921],[-60.700174,-31.658397],[-60.70135,-31.659815],[-60.701673,-31.66194],[-60.701759,-31.663819],[-60.701053,-31.667283],[-60.700039,-31.668998],[-60.698185,-31.671521],[-60.689725,-31.680954]]],[[[-60.694868,-31.656755],[-60.694737,-31.657172],[-60.694633,-31.657528],[-60.694566,-31.658052],[-60.694685,-31.658658],[-60.694388,-31.658781],[-60.694242,-31.658443],[-60.693734,-31.658376],[-60.692994,-31.658397],[-60.692921,-31.658039],[-60.693772,-31.657732],[-60.693688,-31.657383],[-60.694009,-31.657321],[-60.693929,-31.656995],[-60.693515,-31.656787],[-60.693174,-31.656574],[-60.693047,-31.656234],[-60.693408,-31.656149],[-60.693523,-31.656599],[-60.693681,-31.656801],[-60.693842,-31.656855],[-60.694561,-31.656681],[-60.694868,-31.656755]]]]}},{"type":"Feature","properties":{"barrio":"La Fábrica Vieja","situacion":"Cercano a cursos de agua","renabap_id":3026,"provincia":"Santa Fe","departamento":"La Capital","localidad":"Santa Fe","familias":99},"geometry":{"type":"Polygon","coordinates":[[[-60.635501,-31.645811],[-60.632983,-31.645877],[-60.632498,-31.644844],[-60.632387,-31.644069],[-60.634808,-31.643559],[-60.635501,-31.645811]]]}},{"type":"Feature","properties":{"barrio":"San Pantaleón","situacion":"Cercano a cursos de agua","renabap_id":3035,"provincia":"Santa Fe","departamento":"La Capital","localidad":"Santa Fe","familias":396},"geometry":{"type":"Polygon","coordinates":[[[-60.720894,-31.617725],[-60.720031,-31.614511],[-60.719754,-31.614288],[-60.719435,-31.613176],[-60.719763,-31.613077],[-60.719671,-31.612505],[-60.719139,-31.612539],[-60.719151,-31.612348],[-60.719213,-31.612346],[-60.719727,-31.610296],[-60.721179,-31.610572],[-60.720778,-31.612208],[-60.720886,-31.612811],[-60.720651,-31.613315],[-60.720991,-31.614271],[-60.7212,-31.614247],[-60.721804,-31.616065],[-60.721875,-31.616062],[-60.722173,-31.616248],[-60.722469,-31.617452],[-60.720894,-31.617725]]]}},{"type":"Feature","properties":{"barrio":"El Cañaveral","situacion":"Cercano a cursos de agua","renabap_id":5895,"provincia":"Santa Fe","departamento":"La Capital","localidad":"Santa Fe","familias":11},"geometry":{"type":"MultiPolygon","coordinates":[[[[-60.654356,-31.639105],[-60.655378,-31.639198],[-60.655339,-31.639681],[-60.65432,-31.639613],[-60.654356,-31.639105]]],[[[-60.652229,-31.639473],[-60.651411,-31.639418],[-60.651431,-31.639082],[-60.651686,-31.638875],[-60.651983,-31.638705],[-60.65228,-31.638793],[-60.652229,-31.639473]]]]}},{"type":"Feature","properties":{"barrio":"Sin Nombre","situacion":"Cercano a cursos de agua","renabap_id":5896,"provincia":"Santa Fe","departamento":"La Capital","localidad":"Santa Fe","familias":33},"geometry":{"type":"Polygon","coordinates":[[[-60.590691,-31.626336],[-60.590449,-31.626181],[-60.59012,-31.625839],[-60.589876,-31.625618],[-60.589492,-31.625389],[-60.589138,-31.625087],[-60.588973,-31.624902],[-60.588707,-31.624501],[-60.588609,-31.624406],[-60.588339,-31.624329],[-60.588273,-31.624213],[-60.588259,-31.624098],[-60.58821,-31.623993],[-60.588172,-31.623885],[-60.588178,-31.623728],[-60.588652,-31.623574],[-60.58883,-31.623775],[-60.589066,-31.623971],[-60.589357,-31.624112],[-60.589996,-31.624391],[-60.590799,-31.624193],[-60.591056,-31.624368],[-60.590677,-31.624749],[-60.590826,-31.624828],[-60.59025,-31.625331],[-60.591495,-31.62628],[-60.591886,-31.626072],[-60.592146,-31.626362],[-60.591837,-31.626595],[-60.592817,-31.627804],[-60.593081,-31.628327],[-60.592529,-31.628421],[-60.591053,-31.626643],[-60.590691,-31.626336]]]}},{"type":"Feature","properties":{"barrio":"Barranquitas Sur","situacion":"Cercano a cursos de agua","renabap_id":6733,"provincia":"Santa Fe","departamento":"La Capital","localidad":"Santa Fe","familias":385},"geometry":{"type":"MultiPolygon","coordinates":[[[[-60.722287,-31.628518],[-60.722459,-31.629201],[-60.722527,-31.629232],[-60.722691,-31.629801],[-60.722694,-31.630119],[-60.72309,-31.630321],[-60.722954,-31.630508],[-60.722408,-31.630186],[-60.720172,-31.628859],[-60.719835,-31.628681],[-60.718881,-31.628849],[-60.718819,-31.628609],[-60.719238,-31.628545],[-60.719156,-31.628274],[-60.718615,-31.628031],[-60.718699,-31.627785],[-60.719396,-31.628081],[-60.719364,-31.627557],[-60.720626,-31.627519],[-60.720579,-31.626687],[-60.722218,-31.626378],[-60.722508,-31.626498],[-60.722539,-31.626924],[-60.722621,-31.626928],[-60.722772,-31.628469],[-60.722709,-31.628473],[-60.722287,-31.628518]]],[[[-60.723467,-31.626779],[-60.72445,-31.627294],[-60.724261,-31.628052],[-60.724695,-31.628037],[-60.724792,-31.628503],[-60.724539,-31.628469],[-60.723888,-31.628591],[-60.723821,-31.628457],[-60.723691,-31.62844],[-60.723604,-31.628444],[-60.723538,-31.627388],[-60.723467,-31.626779]]]]}},{"type":"Feature","properties":{"barrio":"Barranquitas","situacion":"Cercano a cursos de agua","renabap_id":6744,"provincia":"Santa Fe","departamento":"La Capital","localidad":"Santa Fe","familias":17},"geometry":{"type":"Polygon","coordinates":[[[-60.723204,-31.625833],[-60.724778,-31.626488],[-60.724654,-31.626741],[-60.723094,-31.626033],[-60.723204,-31.625833]]]}},{"type":"Feature","properties":{"barrio":"Barranquitas Sur","situacion":"Cercano a cursos de agua","renabap_id":6749,"provincia":"Santa Fe","departamento":"La Capital","localidad":"Santa Fe","familias":44},"geometry":{"type":"Polygon","coordinates":[[[-60.723449,-31.628456],[-60.722777,-31.628469],[-60.722623,-31.626925],[-60.722541,-31.626921],[-60.72251,-31.6265],[-60.722916,-31.626691],[-60.722951,-31.62742],[-60.723536,-31.627389],[-60.723602,-31.628446],[-60.723449,-31.628456]]]}}]}
