{"type":"FeatureCollection","features":[{"type":"Feature","properties":{"barrio":"En Nuevo Horizonte","renabap_id":2976,"familias":11,"localidad":"Santa Fe","departamento":"La Capital","provincia":"Santa Fe"},"geometry":{"type":"Polygon","coordinates":[[[-60.736451,-31.561924],[-60.736226,-31.56196],[-60.735961,-31.56117],[-60.73616,-31.561106],[-60.736451,-31.561924]]]}},{"type":"Feature","properties":{"barrio":"Candiotti","renabap_id":2977,"familias":55,"localidad":"Santa Fe","departamento":"La Capital","provincia":"Santa Fe"},"geometry":{"type":"Polygon","coordinates":[[[-60.68442,-31.630402],[-60.685049,-31.630324],[-60.68509,-31.630455],[-60.684948,-31.630485],[-60.684968,-31.631024],[-60.68487,-31.631043],[-60.684807,-31.631017],[-60.684805,-31.631017],[-60.684807,-31.631209],[-60.684292,-31.631346],[-60.684617,-31.632064],[-60.684362,-31.632172],[-60.683882,-31.631038],[-60.684252,-31.63087],[-60.684046,-31.630391],[-60.684384,-31.630318],[-60.68442,-31.630402]]]}},{"type":"Feature","properties":{"barrio":"Candiotti Norte","renabap_id":2978,"familias":44,"localidad":"Santa Fe","departamento":"La Capital","provincia":"Santa Fe"},"geometry":{"type":"Polygon","coordinates":[[[-60.685898,-31.627936],[-60.684895,-31.628108],[-60.684691,-31.627484],[-60.683576,-31.627218],[-60.683533,-31.627347],[-60.683312,-31.62739],[-60.683265,-31.62729],[-60.682457,-31.627436],[-60.682242,-31.626957],[-60.682633,-31.626901],[-60.68355,-31.627152],[-60.683609,-31.627219],[-60.684722,-31.627483],[-60.684763,-31.627475],[-60.685829,-31.627645],[-60.685898,-31.627936]]]}},{"type":"Feature","properties":{"barrio":"Transporte","renabap_id":2989,"familias":33,"localidad":"Santa Fe","departamento":"La Capital","provincia":"Santa Fe"},"geometry":{"type":"Polygon","coordinates":[[[-60.692652,-31.594325],[-60.692637,-31.593835],[-60.692577,-31.593831],[-60.692556,-31.593599],[-60.692634,-31.593572],[-60.692629,-31.593122],[-60.69357,-31.592942],[-60.693901,-31.594039],[-60.692652,-31.594325]]]}},{"type":"Feature","properties":{"barrio":"Guadalupe Oeste","renabap_id":2990,"familias":44,"localidad":"Santa Fe","departamento":"La Capital","provincia":"Santa Fe"},"geometry":{"type":"Polygon","coordinates":[[[-60.687708,-31.595407],[-60.687436,-31.594467],[-60.68802,-31.594349],[-60.688304,-31.595281],[-60.687708,-31.595407]]]}},{"type":"Feature","properties":{"barrio":"El Tránsito","renabap_id":2998,"familias":55,"localidad":"Santa Fe","departamento":"La Capital","provincia":"Santa Fe"},"geometry":{"type":"Polygon","coordinates":[[[-60.731994,-31.584816],[-60.731587,-31.585543],[-60.731453,-31.58549],[-60.730084,-31.58788],[-60.729481,-31.588947],[-60.729348,-31.588962],[-60.731699,-31.5847],[-60.731994,-31.584816]]]}},{"type":"Feature","properties":{"barrio":"Camino de Las Cuadreras","renabap_id":3003,"familias":55,"localidad":"Santa Fe","departamento":"La Capital","provincia":"Santa Fe"},"geometry":{"type":"Polygon","coordinates":[[[-60.622188,-31.632603],[-60.621835,-31.632609],[-60.621547,-31.632329],[-60.621213,-31.631688],[-60.621294,-31.631392],[-60.621714,-31.631269],[-60.622046,-31.630866],[-60.62213,-31.630528],[-60.62245,-31.630086],[-60.622677,-31.62919],[-60.623142,-31.628576],[-60.623615,-31.628193],[-60.623586,-31.628674],[-60.622897,-31.631361],[-60.622735,-31.632434],[-60.6225,-31.632736],[-60.622188,-31.632603]]]}},{"type":"Feature","properties":{"barrio":"Congregación Cristiana Pueblo de Dios","renabap_id":3028,"familias":55,"localidad":"Santa Fe","departamento":"La Capital","provincia":"Santa Fe"},"geometry":{"type":"Polygon","coordinates":[[[-60.675269,-31.562798],[-60.673621,-31.5631],[-60.673394,-31.56217],[-60.675011,-31.56187],[-60.675269,-31.562798]]]}},{"type":"Feature","properties":{"barrio":"El Triángulo","renabap_id":5891,"familias":17,"localidad":"Santa Fe","departamento":"La Capital","provincia":"Santa Fe"},"geometry":{"type":"Polygon","coordinates":[[[-60.697866,-31.629278],[-60.697516,-31.629337],[-60.69681,-31.629297],[-60.696764,-31.629169],[-60.69765,-31.628657],[-60.697866,-31.629278]]]}},{"type":"Feature","properties":{"barrio":"Las Delicias 2","renabap_id":5897,"familias":26,"localidad":"Santa Fe","departamento":"La Capital","provincia":"Santa Fe"},"geometry":{"type":"MultiPolygon","coordinates":[[[[-60.693994,-31.576599],[-60.694267,-31.577546],[-60.694335,-31.577758],[-60.693909,-31.57784],[-60.693862,-31.577638],[-60.693596,-31.576694],[-60.693565,-31.576609],[-60.693972,-31.576506],[-60.693994,-31.576599]]],[[[-60.6913,-31.57805],[-60.689783,-31.57835],[-60.689833,-31.578039],[-60.691257,-31.577774],[-60.6913,-31.57805]]]]}},{"type":"Feature","properties":{"barrio":"Veintinueve de Abril III","renabap_id":6713,"familias":220,"localidad":"Santa Fe","departamento":"La Capital","provincia":"Santa Fe"},"geometry":{"type":"MultiPolygon","coordinates":[[[[-60.684941,-31.57813],[-60.684985,-31.578122],[-60.685663,-31.580555],[-60.685646,-31.580559],[-60.685643,-31.580553],[-60.685596,-31.580557],[-60.685291,-31.580595],[-60.685177,-31.580203],[-60.68503,-31.579546],[-60.684732,-31.578429],[-60.684716,-31.578398],[-60.68469,-31.578375],[-60.684595,-31.578317],[-60.684558,-31.578304],[-60.684447,-31.578277],[-60.684368,-31.57826],[-60.684357,-31.578242],[-60.684673,-31.578186],[-60.684941,-31.57813]]],[[[-60.685096,-31.580673],[-60.6851,-31.580679],[-60.683119,-31.581114],[-60.683103,-31.581058],[-60.683011,-31.58072],[-60.684994,-31.580331],[-60.685096,-31.580673]]],[[[-60.682832,-31.580081],[-60.684342,-31.57978],[-60.684841,-31.579673],[-60.68495,-31.580155],[-60.682962,-31.580544],[-60.682832,-31.580081]]],[[[-60.684395,-31.578449],[-60.684485,-31.578471],[-60.684533,-31.578502],[-60.684798,-31.579497],[-60.684393,-31.579585],[-60.684257,-31.579031],[-60.684111,-31.578473],[-60.68429,-31.578436],[-60.684327,-31.578436],[-60.684395,-31.578449]]],[[[-60.684074,-31.579159],[-60.684188,-31.579627],[-60.682784,-31.579905],[-60.682648,-31.579428],[-60.684074,-31.579159]]],[[[-60.683906,-31.578515],[-60.684025,-31.578983],[-60.6826,-31.579252],[-60.68247,-31.578797],[-60.683906,-31.578515]]],[[[-60.684121,-31.578324],[-60.682453,-31.578649],[-60.682442,-31.578599],[-60.684104,-31.578275],[-60.684121,-31.578324]]]]}},{"type":"Feature","properties":{"barrio":"Las Delicias II","renabap_id":6728,"familias":92,"localidad":"Santa Fe","departamento":"La Capital","provincia":"Santa Fe"},"geometry":{"type":"MultiPolygon","coordinates":[[[[-60.693068,-31.577397],[-60.693741,-31.577224],[-60.693843,-31.57758],[-60.693171,-31.577743],[-60.693068,-31.577397]]],[[[-60.693691,-31.577048],[-60.693019,-31.577221],[-60.692938,-31.576888],[-60.693338,-31.576788],[-60.693599,-31.576727],[-60.693691,-31.577048]]],[[[-60.691748,-31.577733],[-60.691846,-31.578057],[-60.691378,-31.578159],[-60.691333,-31.57783],[-60.691748,-31.577733]]],[[[-60.692868,-31.577447],[-60.692971,-31.577794],[-60.692045,-31.578011],[-60.691948,-31.577682],[-60.692868,-31.577447]]],[[[-60.691318,-31.577235],[-60.691339,-31.577235],[-60.691418,-31.577225],[-60.691544,-31.577198],[-60.691581,-31.577193],[-60.691694,-31.577557],[-60.691305,-31.57765],[-60.691242,-31.577251],[-60.691316,-31.577235],[-60.691318,-31.577235]]],[[[-60.692738,-31.576939],[-60.69282,-31.577272],[-60.691894,-31.577507],[-60.691786,-31.577147],[-60.692738,-31.576939]]]]}},{"type":"Feature","properties":{"barrio":"San Agustín","renabap_id":6731,"familias":57,"localidad":"Santa Fe","departamento":"La Capital","provincia":"Santa Fe"},"geometry":{"type":"MultiPolygon","coordinates":[[[[-60.746746,-31.567494],[-60.747202,-31.567396],[-60.747204,-31.567401],[-60.746747,-31.567499],[-60.746746,-31.567494]]],[[[-60.746584,-31.566968],[-60.746497,-31.566648],[-60.746844,-31.566583],[-60.747076,-31.567321],[-60.746719,-31.567404],[-60.746584,-31.566968]]],[[[-60.746949,-31.566564],[-60.746952,-31.566563],[-60.74706,-31.566921],[-60.746949,-31.566564]]],[[[-60.746605,-31.565723],[-60.746795,-31.566412],[-60.746448,-31.566472],[-60.746264,-31.565806],[-60.746605,-31.565723]]],[[[-60.746899,-31.566388],[-60.746895,-31.566389],[-60.746847,-31.566215],[-60.746899,-31.566388]]],[[[-60.746329,-31.564791],[-60.746557,-31.565547],[-60.74622,-31.56563],[-60.746009,-31.564852],[-60.746329,-31.564791]]],[[[-60.745966,-31.564766],[-60.745819,-31.564801],[-60.74571,-31.564441],[-60.746194,-31.564332],[-60.746302,-31.564701],[-60.745966,-31.564766]]]]}},{"type":"Feature","properties":{"barrio":"Colastiné Norte","renabap_id":6748,"familias":17,"localidad":"Santa Fe","departamento":"La Capital","provincia":"Santa Fe"},"geometry":{"type":"MultiPolygon","coordinates":[[[[-60.587373,-31.621856],[-60.587354,-31.621799],[-60.587654,-31.62221],[-60.587652,-31.622221],[-60.587373,-31.621856]]],[[[-60.587242,-31.621883],[-60.58758,-31.622348],[-60.587355,-31.622456],[-60.586653,-31.621679],[-60.586191,-31.621451],[-60.586094,-31.621382],[-60.586235,-31.621212],[-60.586374,-31.621266],[-60.586624,-31.621205],[-60.586485,-31.620713],[-60.586808,-31.620662],[-60.587242,-31.621883]]]]}},{"type":"Feature","properties":{"barrio":"Cabaña Leiva Recreo","renabap_id":3004,"familias":220,"localidad":"Recreo","departamento":"La Capital","provincia":"Santa Fe"},"geometry":{"type":"Polygon","coordinates":[[[-60.723132,-31.560643],[-60.723476,-31.561868],[-60.720782,-31.562508],[-60.721381,-31.564464],[-60.720161,-31.564705],[-60.719157,-31.561634],[-60.723132,-31.560643]]]}}]}
