{"type":"FeatureCollection","name":"alcantarillas","features":[{"type":"Feature","geometry":{"type":"Point","coordinates":[-60.73385537,-31.65875771]},"properties":{"layer":"Alcantarillas","entity_type":"TEXT","handle":"129812","text":"PARTIDOR"}},{"type":"Feature","geometry":{"type":"Point","coordinates":[-60.7340755,-31.65903592]},"properties":{"layer":"Alcantarillas","entity_type":"TEXT","handle":"129813","text":"DE CAUDALES"}},{"type":"Feature","geometry":{"type":"Point","coordinates":[-60.73321337,-31.65933479]},"properties":{"layer":"Alcantarillas","entity_type":"TEXT","handle":"129814","text":"A2","numeric_value":2.0}},{"type":"Feature","geometry":{"type":"LineString","coordinates":[[-60.72425462,-31.6309013],[-60.72419643,-31.63090449]]},"properties":{"layer":"Alcantarillas","entity_type":"LINE","handle":"1496D2"}},{"type":"Feature","geometry":{"type":"LineString","coordinates":[[-60.72419643,-31.63090449],[-60.72411203,-31.63100667]]},"properties":{"layer":"Alcantarillas","entity_type":"LINE","handle":"1496D3"}},{"type":"Feature","geometry":{"type":"LineString","coordinates":[[-60.72411203,-31.63100667],[-60.72412313,-31.63104652]]},"properties":{"layer":"Alcantarillas","entity_type":"LINE","handle":"1496D4"}},{"type":"Feature","geometry":{"type":"LineString","coordinates":[[-60.72401696,-31.63076269],[-60.72403476,-31.6308102]]},"properties":{"layer":"Alcantarillas","entity_type":"LINE","handle":"1496D5"}},{"type":"Feature","geometry":{"type":"LineString","coordinates":[[-60.72403476,-31.6308102],[-60.72395445,-31.63091477]]},"properties":{"layer":"Alcantarillas","entity_type":"LINE","handle":"1496D6"}},{"type":"Feature","geometry":{"type":"LineString","coordinates":[[-60.72395445,-31.63091477],[-60.72390704,-31.6309205]]},"properties":{"layer":"Alcantarillas","entity_type":"LINE","handle":"1496D7"}},{"type":"Feature","geometry":{"type":"LineString","coordinates":[[-60.7328048,-31.63166116],[-60.73289349,-31.63169],[-60.73327694,-31.63154265],[-60.73331065,-31.63146676]]},"properties":{"layer":"Alcantarillas","entity_type":"LWPOLYLINE","handle":"15A4D6"}},{"type":"Feature","geometry":{"type":"LineString","coordinates":[[-60.73420619,-31.65915797],[-60.73389403,-31.65949279]]},"properties":{"layer":"Alcantarillas","entity_type":"LINE","handle":"269973"}},{"type":"Feature","geometry":{"type":"LineString","coordinates":[[-60.73483077,-31.65953657],[-60.73374582,-31.65965175]]},"properties":{"layer":"Alcantarillas","entity_type":"LINE","handle":"269974"}},{"type":"Feature","geometry":{"type":"LineString","coordinates":[[-60.73361683,-31.65956213],[-60.73434404,-31.65878212]]},"properties":{"layer":"Alcantarillas","entity_type":"LINE","handle":"269978"}},{"type":"Feature","geometry":{"type":"LineString","coordinates":[[-60.73389403,-31.65949279],[-60.73481563,-31.65939494]]},"properties":{"layer":"Alcantarillas","entity_type":"LINE","handle":"26997A"}},{"type":"Feature","geometry":{"type":"LineString","coordinates":[[-60.636274,-31.58982111],[-60.63417771,-31.58983153]]},"properties":{"layer":"Alcantarillas","entity_type":"LINE","handle":"2A3F42"}},{"type":"Feature","geometry":{"type":"LineString","coordinates":[[-60.73384064,-31.5815799],[-60.73387124,-31.5815327]]},"properties":{"layer":"Alcantarillas","entity_type":"LINE","handle":"2C8E4B"}},{"type":"Feature","geometry":{"type":"LineString","coordinates":[[-60.73398004,-31.58154562],[-60.73392485,-31.58151951]]},"properties":{"layer":"Alcantarillas","entity_type":"LINE","handle":"2C8E4C"}},{"type":"Feature","geometry":{"type":"LineString","coordinates":[[-60.73392485,-31.58151951],[-60.73390025,-31.58144621]]},"properties":{"layer":"Alcantarillas","entity_type":"LINE","handle":"2C8E4D"}},{"type":"Feature","geometry":{"type":"LineString","coordinates":[[-60.73390025,-31.58144621],[-60.73387565,-31.5813729]]},"properties":{"layer":"Alcantarillas","entity_type":"LINE","handle":"2C8E4E"}},{"type":"Feature","geometry":{"type":"LineString","coordinates":[[-60.73387565,-31.5813729],[-60.73390625,-31.5813257]]},"properties":{"layer":"Alcantarillas","entity_type":"LINE","handle":"2C8E4F"}},{"type":"Feature","geometry":{"type":"LineString","coordinates":[[-60.73384064,-31.5815799],[-60.73387124,-31.5815327]]},"properties":{"layer":"Alcantarillas","entity_type":"LINE","handle":"2C8E50"}},{"type":"Feature","geometry":{"type":"LineString","coordinates":[[-60.73387124,-31.5815327],[-60.73384664,-31.58145939]]},"properties":{"layer":"Alcantarillas","entity_type":"LINE","handle":"2C8E51"}},{"type":"Feature","geometry":{"type":"LineString","coordinates":[[-60.73384664,-31.58145939],[-60.73382204,-31.58138609]]},"properties":{"layer":"Alcantarillas","entity_type":"LINE","handle":"2C8E52"}},{"type":"Feature","geometry":{"type":"LineString","coordinates":[[-60.73382204,-31.58138609],[-60.73376685,-31.58135998]]},"properties":{"layer":"Alcantarillas","entity_type":"LINE","handle":"2C8E53"}},{"type":"Feature","geometry":{"type":"LineString","coordinates":[[-60.72201867,-31.6188353],[-60.7220485,-31.61885661]]},"properties":{"layer":"Alcantarillas","entity_type":"LINE","handle":"2CD27E"}},{"type":"Feature","geometry":{"type":"LineString","coordinates":[[-60.7220485,-31.61885661],[-60.72214412,-31.61884035]]},"properties":{"layer":"Alcantarillas","entity_type":"LINE","handle":"2CD27F"}},{"type":"Feature","geometry":{"type":"LineString","coordinates":[[-60.72214412,-31.61884035],[-60.72216013,-31.61881672]]},"properties":{"layer":"Alcantarillas","entity_type":"LINE","handle":"2CD280"}},{"type":"Feature","geometry":{"type":"LineString","coordinates":[[-60.72201867,-31.6188353],[-60.7220485,-31.61885661]]},"properties":{"layer":"Alcantarillas","entity_type":"LINE","handle":"2CD281"}},{"type":"Feature","geometry":{"type":"LineString","coordinates":[[-60.7220485,-31.61885661],[-60.72214412,-31.61884035]]},"properties":{"layer":"Alcantarillas","entity_type":"LINE","handle":"2CD282"}},{"type":"Feature","geometry":{"type":"LineString","coordinates":[[-60.72214412,-31.61884035],[-60.72216013,-31.61881672]]},"properties":{"layer":"Alcantarillas","entity_type":"LINE","handle":"2CD283"}},{"type":"Feature","geometry":{"type":"LineString","coordinates":[[-60.72201867,-31.6188353],[-60.7220485,-31.61885661]]},"properties":{"layer":"Alcantarillas","entity_type":"LINE","handle":"2CD284"}},{"type":"Feature","geometry":{"type":"LineString","coordinates":[[-60.7220485,-31.61885661],[-60.72214412,-31.61884035]]},"properties":{"layer":"Alcantarillas","entity_type":"LINE","handle":"2CD285"}},{"type":"Feature","geometry":{"type":"LineString","coordinates":[[-60.72214412,-31.61884035],[-60.72216013,-31.61881672]]},"properties":{"layer":"Alcantarillas","entity_type":"LINE","handle":"2CD286"}},{"type":"Feature","geometry":{"type":"LineString","coordinates":[[-60.72205038,-31.61895269],[-60.72206725,-31.61892273]]},"properties":{"layer":"Alcantarillas","entity_type":"LINE","handle":"2CD287"}},{"type":"Feature","geometry":{"type":"LineString","coordinates":[[-60.72206725,-31.61892273],[-60.72216216,-31.61890371]]},"properties":{"layer":"Alcantarillas","entity_type":"LINE","handle":"2CD288"}},{"type":"Feature","geometry":{"type":"LineString","coordinates":[[-60.72216216,-31.61890371],[-60.72218816,-31.61891956]]},"properties":{"layer":"Alcantarillas","entity_type":"LINE","handle":"2CD289"}},{"type":"Feature","geometry":{"type":"LineString","coordinates":[[-60.72201867,-31.6188353],[-60.7220485,-31.61885661]]},"properties":{"layer":"Alcantarillas","entity_type":"LINE","handle":"2CD28A"}},{"type":"Feature","geometry":{"type":"LineString","coordinates":[[-60.7220485,-31.61885661],[-60.72214412,-31.61884035]]},"properties":{"layer":"Alcantarillas","entity_type":"LINE","handle":"2CD28B"}},{"type":"Feature","geometry":{"type":"LineString","coordinates":[[-60.72214412,-31.61884035],[-60.72216013,-31.61881672]]},"properties":{"layer":"Alcantarillas","entity_type":"LINE","handle":"2CD28C"}},{"type":"Feature","geometry":{"type":"LineString","coordinates":[[-60.72214412,-31.61884035],[-60.72216013,-31.61881672]]},"properties":{"layer":"Alcantarillas","entity_type":"LINE","handle":"332193"}},{"type":"Feature","geometry":{"type":"LineString","coordinates":[[-60.72214412,-31.61884035],[-60.72216013,-31.61881672]]},"properties":{"layer":"Alcantarillas","entity_type":"LINE","handle":"332194"}},{"type":"Feature","geometry":{"type":"LineString","coordinates":[[-60.72214412,-31.61884035],[-60.72216013,-31.61881672]]},"properties":{"layer":"Alcantarillas","entity_type":"LINE","handle":"332195"}},{"type":"Feature","geometry":{"type":"LineString","coordinates":[[-60.73519483,-31.5961444],[-60.73513461,-31.59635482]]},"properties":{"layer":"Alcantarillas","entity_type":"LINE","handle":"381E27"}},{"type":"Feature","geometry":{"type":"LineString","coordinates":[[-60.69002514,-31.57692915],[-60.68993791,-31.57727093]]},"properties":{"layer":"Alcantarillas","entity_type":"LINE","handle":"3A899F"}},{"type":"Feature","geometry":{"type":"LineString","coordinates":[[-60.68996526,-31.57728768],[-60.68995623,-31.57727481],[-60.68991962,-31.57726706],[-60.68990462,-31.57727484]]},"properties":{"layer":"Alcantarillas","entity_type":"LWPOLYLINE","handle":"3A89A0"}},{"type":"Feature","geometry":{"type":"LineString","coordinates":[[-60.69005841,-31.57692502],[-60.69004348,-31.5769329],[-60.69000681,-31.57692539],[-60.68999766,-31.57691258]]},"properties":{"layer":"Alcantarillas","entity_type":"LWPOLYLINE","handle":"3A89A1"}},{"type":"Feature","geometry":{"type":"LineString","coordinates":[[-60.69041436,-31.57439182],[-60.69041471,-31.57462402]]},"properties":{"layer":"Alcantarillas","entity_type":"LINE","handle":"3A8BD1"}},{"type":"Feature","geometry":{"type":"LineString","coordinates":[[-60.69044562,-31.57463535],[-60.69043357,-31.57462444],[-60.69039587,-31.5746236],[-60.69038317,-31.57463396]]},"properties":{"layer":"Alcantarillas","entity_type":"LWPOLYLINE","handle":"3A8BD2"}},{"type":"Feature","geometry":{"type":"LineString","coordinates":[[-60.69044588,-31.57438168],[-60.69043327,-31.57439212],[-60.69039558,-31.57439152],[-60.69038343,-31.57438069]]},"properties":{"layer":"Alcantarillas","entity_type":"LWPOLYLINE","handle":"3A8BD3"}},{"type":"Feature","geometry":{"type":"LineString","coordinates":[[-60.68999387,-31.5714417],[-60.69003887,-31.57175896]]},"properties":{"layer":"Alcantarillas","entity_type":"LINE","handle":"3A8BD7"}},{"type":"Feature","geometry":{"type":"LineString","coordinates":[[-60.69007112,-31.57176709],[-60.69005765,-31.57175747],[-60.69002011,-31.57176044],[-60.69000892,-31.57177201]]},"properties":{"layer":"Alcantarillas","entity_type":"LWPOLYLINE","handle":"3A8BD8"}},{"type":"Feature","geometry":{"type":"LineString","coordinates":[[-60.69002371,-31.57142845],[-60.69001263,-31.5714401],[-60.68997511,-31.57144331],[-60.68996155,-31.57143378]]},"properties":{"layer":"Alcantarillas","entity_type":"LWPOLYLINE","handle":"3A8BD9"}},{"type":"Feature","geometry":{"type":"LineString","coordinates":[[-60.68998582,-31.58259401],[-60.68997124,-31.58258567],[-60.68993427,-31.58259203],[-60.68992458,-31.58260455]]},"properties":{"layer":"Alcantarillas","entity_type":"LWPOLYLINE","handle":"3A9006"}},{"type":"Feature","geometry":{"type":"LineString","coordinates":[[-60.68993908,-31.58241731],[-60.6899295,-31.58242989],[-60.68989259,-31.58243649],[-60.68987792,-31.58242824]]},"properties":{"layer":"Alcantarillas","entity_type":"LWPOLYLINE","handle":"3A9007"}},{"type":"Feature","geometry":{"type":"LineString","coordinates":[[-60.68991104,-31.58243319],[-60.68995274,-31.58258885]]},"properties":{"layer":"Alcantarillas","entity_type":"LINE","handle":"3A900E"}},{"type":"Feature","geometry":{"type":"LineString","coordinates":[[-60.73297688,-31.63198896],[-60.7330106,-31.63191308],[-60.73339404,-31.63176572],[-60.73348274,-31.63179457]]},"properties":{"layer":"Alcantarillas","entity_type":"LWPOLYLINE","handle":"3B3743"}},{"type":"Feature","geometry":{"type":"LineString","coordinates":[[-60.74160727,-31.64645384],[-60.74166996,-31.64651478],[-60.74208953,-31.64653768],[-60.74216077,-31.64648405]]},"properties":{"layer":"Alcantarillas","entity_type":"LWPOLYLINE","handle":"3B3744"}},{"type":"Feature","geometry":{"type":"LineString","coordinates":[[-60.74158052,-31.64681246],[-60.74165176,-31.64675883],[-60.74207132,-31.64678173],[-60.74213401,-31.64684267]]},"properties":{"layer":"Alcantarillas","entity_type":"LWPOLYLINE","handle":"3B3745"}},{"type":"Feature","geometry":{"type":"LineString","coordinates":[[-60.73597148,-31.65828408],[-60.73594521,-31.65836209],[-60.73614864,-31.65867685],[-60.73623984,-31.65869932]]},"properties":{"layer":"Alcantarillas","entity_type":"LWPOLYLINE","handle":"3B3746"}},{"type":"Feature","geometry":{"type":"LineString","coordinates":[[-60.73547767,-31.65852332],[-60.73556887,-31.65854579],[-60.7357723,-31.65886055],[-60.73574603,-31.65893856]]},"properties":{"layer":"Alcantarillas","entity_type":"LWPOLYLINE","handle":"3B3747"}},{"type":"Feature","geometry":{"type":"LineString","coordinates":[[-60.72884695,-31.62399671],[-60.72893563,-31.62402556],[-60.72931905,-31.62387822],[-60.72935277,-31.62380233]]},"properties":{"layer":"Alcantarillas","entity_type":"LWPOLYLINE","handle":"3B374C"}},{"type":"Feature","geometry":{"type":"LineString","coordinates":[[-60.729019,-31.62432453],[-60.72905272,-31.62424864],[-60.72943614,-31.6241013],[-60.72952482,-31.62413015]]},"properties":{"layer":"Alcantarillas","entity_type":"LWPOLYLINE","handle":"3B374D"}},{"type":"Feature","geometry":{"type":"LineString","coordinates":[[-60.73499832,-31.60409593],[-60.73499204,-31.60417694],[-60.7352689,-31.6044475],[-60.73536354,-31.60445287]]},"properties":{"layer":"Alcantarillas","entity_type":"LWPOLYLINE","handle":"3B3D8F"}},{"type":"Feature","geometry":{"type":"LineString","coordinates":[[-60.73468243,-31.60433268],[-60.73477708,-31.60433805],[-60.73505394,-31.60460861],[-60.73504766,-31.60468962]]},"properties":{"layer":"Alcantarillas","entity_type":"LWPOLYLINE","handle":"3B3D90"}},{"type":"Feature","geometry":{"type":"LineString","coordinates":[[-60.73434404,-31.65878212],[-60.73447303,-31.65887175]]},"properties":{"layer":"Alcantarillas","entity_type":"LINE","handle":"3B983F"}},{"type":"Feature","geometry":{"type":"LineString","coordinates":[[-60.73361683,-31.65956213],[-60.73374582,-31.65965175]]},"properties":{"layer":"Alcantarillas","entity_type":"LINE","handle":"3B9919"}},{"type":"Feature","geometry":{"type":"LineString","coordinates":[[-60.73075801,-31.66504415],[-60.73063873,-31.66500738]]},"properties":{"layer":"Alcantarillas","entity_type":"LINE","handle":"3B9B4A"}},{"type":"Feature","geometry":{"type":"LineString","coordinates":[[-60.73075801,-31.66504415],[-60.73063873,-31.66500738]]},"properties":{"layer":"Alcantarillas","entity_type":"LINE","handle":"3B9B4D"}},{"type":"Feature","geometry":{"type":"LineString","coordinates":[[-60.73063873,-31.66500738],[-60.73059283,-31.66502898]]},"properties":{"layer":"Alcantarillas","entity_type":"LINE","handle":"3B9B4E"}},{"type":"Feature","geometry":{"type":"LineString","coordinates":[[-60.73075801,-31.66504415],[-60.73063873,-31.66500738]]},"properties":{"layer":"Alcantarillas","entity_type":"LINE","handle":"3B9B52"}},{"type":"Feature","geometry":{"type":"LineString","coordinates":[[-60.73085952,-31.66480339],[-60.73074025,-31.66476661]]},"properties":{"layer":"Alcantarillas","entity_type":"LINE","handle":"3B9B54"}},{"type":"Feature","geometry":{"type":"LineString","coordinates":[[-60.73074025,-31.66476661],[-60.73072102,-31.66472492]]},"properties":{"layer":"Alcantarillas","entity_type":"LINE","handle":"3B9B55"}},{"type":"Feature","geometry":{"type":"LineString","coordinates":[[-60.73079985,-31.66478499],[-60.73069837,-31.66502576]]},"properties":{"layer":"Alcantarillas","entity_type":"LINE","handle":"3B9B57"}},{"type":"Feature","geometry":{"type":"LineString","coordinates":[[-60.73075808,-31.66504417],[-60.73078236,-31.66508388]]},"properties":{"layer":"Alcantarillas","entity_type":"LINE","handle":"3B9D6C"}},{"type":"Feature","geometry":{"type":"LineString","coordinates":[[-60.73085956,-31.6648034],[-60.73090786,-31.66478602]]},"properties":{"layer":"Alcantarillas","entity_type":"LINE","handle":"3B9D6D"}},{"type":"Feature","geometry":{"type":"LineString","coordinates":[[-60.73059283,-31.66502898],[-60.73063873,-31.66500738]]},"properties":{"layer":"Alcantarillas","entity_type":"LINE","handle":"3B9D7C"}},{"type":"Feature","geometry":{"type":"LineString","coordinates":[[-60.73072102,-31.66472492],[-60.73074025,-31.66476661]]},"properties":{"layer":"Alcantarillas","entity_type":"LINE","handle":"3B9D7F"}},{"type":"Feature","geometry":{"type":"LineString","coordinates":[[-60.73074025,-31.66476661],[-60.73085952,-31.66480339]]},"properties":{"layer":"Alcantarillas","entity_type":"LINE","handle":"3B9D80"}},{"type":"Feature","geometry":{"type":"LineString","coordinates":[[-60.73085952,-31.66480339],[-60.73090786,-31.66478602]]},"properties":{"layer":"Alcantarillas","entity_type":"LINE","handle":"3B9D81"}},{"type":"Feature","geometry":{"type":"LineString","coordinates":[[-60.72947223,-31.66764457],[-60.72949889,-31.66768316]]},"properties":{"layer":"Alcantarillas","entity_type":"LINE","handle":"3B9D82"}},{"type":"Feature","geometry":{"type":"LineString","coordinates":[[-60.72949889,-31.66768316],[-60.72962345,-31.66770343]]},"properties":{"layer":"Alcantarillas","entity_type":"LINE","handle":"3B9D83"}},{"type":"Feature","geometry":{"type":"LineString","coordinates":[[-60.7295534,-31.66769203],[-60.72947227,-31.66805673]]},"properties":{"layer":"Alcantarillas","entity_type":"LINE","handle":"3B9D86"}},{"type":"Feature","geometry":{"type":"LineString","coordinates":[[-60.72966481,-31.66767592],[-60.72962345,-31.66770343]]},"properties":{"layer":"Alcantarillas","entity_type":"LINE","handle":"3B9D8A"}},{"type":"Feature","geometry":{"type":"LineString","coordinates":[[-60.72936837,-31.66807295],[-60.72941015,-31.6680459]]},"properties":{"layer":"Alcantarillas","entity_type":"LINE","handle":"3B9D8B"}},{"type":"Feature","geometry":{"type":"LineString","coordinates":[[-60.72941015,-31.6680459],[-60.72953439,-31.66806755]]},"properties":{"layer":"Alcantarillas","entity_type":"LINE","handle":"3B9D8C"}},{"type":"Feature","geometry":{"type":"LineString","coordinates":[[-60.72956046,-31.66810643],[-60.72953439,-31.66806755]]},"properties":{"layer":"Alcantarillas","entity_type":"LINE","handle":"3B9D8D"}},{"type":"Feature","geometry":{"type":"LineString","coordinates":[[-60.69612457,-31.67225209],[-60.69615196,-31.67226489]]},"properties":{"layer":"Alcantarillas","entity_type":"LINE","handle":"3BB0B8"}},{"type":"Feature","geometry":{"type":"LineString","coordinates":[[-60.69615196,-31.67226489],[-60.69622293,-31.67224283]]},"properties":{"layer":"Alcantarillas","entity_type":"LINE","handle":"3BB0B9"}},{"type":"Feature","geometry":{"type":"LineString","coordinates":[[-60.69618744,-31.67225386],[-60.69628693,-31.67248795]]},"properties":{"layer":"Alcantarillas","entity_type":"LINE","handle":"3BB0BA"}},{"type":"Feature","geometry":{"type":"LineString","coordinates":[[-60.69623431,-31.67221798],[-60.69622293,-31.67224283]]},"properties":{"layer":"Alcantarillas","entity_type":"LINE","handle":"3BB0BB"}},{"type":"Feature","geometry":{"type":"LineString","coordinates":[[-60.69623952,-31.67252332],[-60.69625128,-31.67249859]]},"properties":{"layer":"Alcantarillas","entity_type":"LINE","handle":"3BB0BC"}},{"type":"Feature","geometry":{"type":"LineString","coordinates":[[-60.69625128,-31.67249859],[-60.69632258,-31.67247732]]},"properties":{"layer":"Alcantarillas","entity_type":"LINE","handle":"3BB0BD"}},{"type":"Feature","geometry":{"type":"LineString","coordinates":[[-60.69634977,-31.67249043],[-60.69632258,-31.67247732]]},"properties":{"layer":"Alcantarillas","entity_type":"LINE","handle":"3BB0BE"}},{"type":"Feature","geometry":{"type":"LineString","coordinates":[[-60.62635586,-31.64103627],[-60.62636126,-31.64109013],[-60.62681982,-31.64145305],[-60.62688948,-31.64145414]]},"properties":{"layer":"Alcantarillas","entity_type":"LWPOLYLINE","handle":"3C0A69"}},{"type":"Feature","geometry":{"type":"LineString","coordinates":[[-60.62612928,-31.64122989],[-60.62619245,-31.64123041],[-60.6266503,-31.64159399],[-60.62665687,-31.64165333]]},"properties":{"layer":"Alcantarillas","entity_type":"LWPOLYLINE","handle":"3C0A6A"}},{"type":"Feature","geometry":{"type":"LineString","coordinates":[[-60.755664,-31.57089412],[-60.75569153,-31.5709718],[-60.75606202,-31.57114131],[-60.75615276,-31.57111774]]},"properties":{"layer":"Alcantarillas","entity_type":"LWPOLYLINE","handle":"3C0C80"}},{"type":"Feature","geometry":{"type":"LineString","coordinates":[[-60.75546617,-31.57121106],[-60.75555691,-31.57118749],[-60.7559274,-31.57135699],[-60.75595494,-31.57143468]]},"properties":{"layer":"Alcantarillas","entity_type":"LWPOLYLINE","handle":"3C0C81"}},{"type":"Feature","geometry":{"type":"LineString","coordinates":[[-60.7302849,-31.66302668],[-60.73015759,-31.66298425]]},"properties":{"layer":"Alcantarillas","entity_type":"LINE","handle":"3C5BD6"}},{"type":"Feature","geometry":{"type":"LineString","coordinates":[[-60.7302849,-31.66302668],[-60.73015759,-31.66298425]]},"properties":{"layer":"Alcantarillas","entity_type":"LINE","handle":"3C5BD7"}},{"type":"Feature","geometry":{"type":"LineString","coordinates":[[-60.73015759,-31.66298425],[-60.73010744,-31.66300644]]},"properties":{"layer":"Alcantarillas","entity_type":"LINE","handle":"3C5BD8"}},{"type":"Feature","geometry":{"type":"LineString","coordinates":[[-60.7302849,-31.66302668],[-60.73015759,-31.66298425]]},"properties":{"layer":"Alcantarillas","entity_type":"LINE","handle":"3C5BD9"}},{"type":"Feature","geometry":{"type":"LineString","coordinates":[[-60.73040203,-31.66276969],[-60.73027472,-31.66272726]]},"properties":{"layer":"Alcantarillas","entity_type":"LINE","handle":"3C5BDA"}},{"type":"Feature","geometry":{"type":"LineString","coordinates":[[-60.73027472,-31.66272726],[-60.73025535,-31.66268189]]},"properties":{"layer":"Alcantarillas","entity_type":"LINE","handle":"3C5BDB"}},{"type":"Feature","geometry":{"type":"LineString","coordinates":[[-60.73033834,-31.66274846],[-60.73022124,-31.66300546]]},"properties":{"layer":"Alcantarillas","entity_type":"LINE","handle":"3C5BDC"}},{"type":"Feature","geometry":{"type":"LineString","coordinates":[[-60.73028498,-31.6630267],[-60.73030985,-31.66307006]]},"properties":{"layer":"Alcantarillas","entity_type":"LINE","handle":"3C5BDD"}},{"type":"Feature","geometry":{"type":"LineString","coordinates":[[-60.73040207,-31.66276971],[-60.73045466,-31.66275212]]},"properties":{"layer":"Alcantarillas","entity_type":"LINE","handle":"3C5BDE"}},{"type":"Feature","geometry":{"type":"LineString","coordinates":[[-60.7303452,-31.66242555],[-60.7303557,-31.662473]]},"properties":{"layer":"Alcantarillas","entity_type":"LINE","handle":"3C5BE2"}},{"type":"Feature","geometry":{"type":"LineString","coordinates":[[-60.73042919,-31.66233337],[-60.7303452,-31.66242555]]},"properties":{"layer":"Alcantarillas","entity_type":"LINE","handle":"3C5BE3"}},{"type":"Feature","geometry":{"type":"LineString","coordinates":[[-60.7304546,-31.66210342],[-60.73031797,-31.66210392]]},"properties":{"layer":"Alcantarillas","entity_type":"LINE","handle":"3C5BE4"}},{"type":"Feature","geometry":{"type":"LineString","coordinates":[[-60.73031797,-31.66210392],[-60.73028048,-31.6620678]]},"properties":{"layer":"Alcantarillas","entity_type":"LINE","handle":"3C5BE5"}},{"type":"Feature","geometry":{"type":"LineString","coordinates":[[-60.73042924,-31.66233331],[-60.73048493,-31.66232534]]},"properties":{"layer":"Alcantarillas","entity_type":"LINE","handle":"3C5BE7"}},{"type":"Feature","geometry":{"type":"LineString","coordinates":[[-60.73045465,-31.66210342],[-60.73049602,-31.66207055]]},"properties":{"layer":"Alcantarillas","entity_type":"LINE","handle":"3C5BE8"}},{"type":"Feature","geometry":{"type":"LineString","coordinates":[[-60.73038582,-31.66210367],[-60.7303872,-31.66237946]]},"properties":{"layer":"Alcantarillas","entity_type":"LINE","handle":"3C5DFE"}},{"type":"Feature","geometry":{"type":"LineString","coordinates":[[-60.73481563,-31.65939494],[-60.73483077,-31.65953657]]},"properties":{"layer":"Alcantarillas","entity_type":"LINE","handle":"3C6238"}},{"type":"Feature","geometry":{"type":"LineString","coordinates":[[-60.73389403,-31.65949279],[-60.73447303,-31.65887175]]},"properties":{"layer":"Alcantarillas","entity_type":"LINE","handle":"3C7741"}},{"type":"Feature","geometry":{"type":"LineString","coordinates":[[-60.67199974,-31.58081347],[-60.67212488,-31.58078861]]},"properties":{"layer":"Alcantarillas","entity_type":"LINE","handle":"3ED3F1"}},{"type":"Feature","geometry":{"type":"LineString","coordinates":[[-60.67235451,-31.58834136],[-60.67205772,-31.58836186]]},"properties":{"layer":"Alcantarillas","entity_type":"LINE","handle":"45C838"}},{"type":"Feature","geometry":{"type":"LineString","coordinates":[[-60.67234586,-31.58828769],[-60.67204907,-31.58830819]]},"properties":{"layer":"Alcantarillas","entity_type":"LINE","handle":"45C83D"}},{"type":"Feature","geometry":{"type":"LineString","coordinates":[[-60.67251692,-31.58848773],[-60.67249488,-31.58851917],[-60.67254091,-31.58867677],[-60.67257764,-31.58869564]]},"properties":{"layer":"Alcantarillas","entity_type":"LWPOLYLINE","handle":"46006C"}},{"type":"Feature","geometry":{"type":"LineString","coordinates":[[-60.67239643,-31.588512],[-60.67243316,-31.58853087],[-60.67247919,-31.58868846],[-60.67245715,-31.58871991]]},"properties":{"layer":"Alcantarillas","entity_type":"LWPOLYLINE","handle":"46006D"}},{"type":"Feature","geometry":{"type":"LineString","coordinates":[[-60.6720492,-31.58830818],[-60.67234858,-31.5882875],[-60.67237636,-31.58825959]]},"properties":{"layer":"Alcantarillas","entity_type":"LWPOLYLINE","handle":"460070"}},{"type":"Feature","geometry":{"type":"LineString","coordinates":[[-60.67205785,-31.58836185],[-60.67235451,-31.58834136],[-60.67238712,-31.58836514]]},"properties":{"layer":"Alcantarillas","entity_type":"LWPOLYLINE","handle":"460071"}},{"type":"Feature","geometry":{"type":"LineString","coordinates":[[-60.67195619,-31.58075406],[-60.67198632,-31.58077035],[-60.6721403,-31.58074056],[-60.67215932,-31.58071477]]},"properties":{"layer":"Alcantarillas","entity_type":"LWPOLYLINE","handle":"460074"}},{"type":"Feature","geometry":{"type":"LineString","coordinates":[[-60.6719775,-31.5808403],[-60.67199652,-31.58081451],[-60.67215049,-31.58078472],[-60.67218062,-31.580801]]},"properties":{"layer":"Alcantarillas","entity_type":"LWPOLYLINE","handle":"460075"}},{"type":"Feature","geometry":{"type":"LineString","coordinates":[[-60.67522616,-31.58018075],[-60.67535129,-31.58015588]]},"properties":{"layer":"Alcantarillas","entity_type":"LINE","handle":"4602C3"}},{"type":"Feature","geometry":{"type":"LineString","coordinates":[[-60.67518261,-31.58012134],[-60.67521274,-31.58013762],[-60.67536671,-31.58010783],[-60.67538573,-31.58008203]]},"properties":{"layer":"Alcantarillas","entity_type":"LWPOLYLINE","handle":"4602C4"}},{"type":"Feature","geometry":{"type":"LineString","coordinates":[[-60.67520391,-31.58020757],[-60.67522293,-31.58018178],[-60.67537691,-31.58015199],[-60.67540704,-31.58016827]]},"properties":{"layer":"Alcantarillas","entity_type":"LWPOLYLINE","handle":"4602C5"}},{"type":"Feature","geometry":{"type":"LineString","coordinates":[[-60.67872736,-31.57951001],[-60.67885249,-31.57948514]]},"properties":{"layer":"Alcantarillas","entity_type":"LINE","handle":"4602C7"}},{"type":"Feature","geometry":{"type":"LineString","coordinates":[[-60.6786838,-31.5794506],[-60.67871393,-31.57946688],[-60.6789561,-31.57942045],[-60.6789791,-31.57939269]]},"properties":{"layer":"Alcantarillas","entity_type":"LWPOLYLINE","handle":"4602C8"}},{"type":"Feature","geometry":{"type":"LineString","coordinates":[[-60.67870511,-31.57953684],[-60.67872413,-31.57951104],[-60.67896759,-31.57946436],[-60.6789981,-31.57948097]]},"properties":{"layer":"Alcantarillas","entity_type":"LWPOLYLINE","handle":"4602C9"}},{"type":"Feature","geometry":{"type":"LineString","coordinates":[[-60.67896163,-31.57941939],[-60.67871393,-31.57946688]]},"properties":{"layer":"Alcantarillas","entity_type":"LINE","handle":"4602CA"}},{"type":"Feature","geometry":{"type":"LineString","coordinates":[[-60.67896759,-31.57946436],[-60.67872413,-31.57951104]]},"properties":{"layer":"Alcantarillas","entity_type":"LINE","handle":"4602CB"}},{"type":"Feature","geometry":{"type":"LineString","coordinates":[[-60.68035672,-31.57911156],[-60.68038685,-31.57912784],[-60.68054082,-31.57909805],[-60.68055984,-31.57907225]]},"properties":{"layer":"Alcantarillas","entity_type":"LWPOLYLINE","handle":"460521"}},{"type":"Feature","geometry":{"type":"LineString","coordinates":[[-60.68037803,-31.5791978],[-60.68039705,-31.579172],[-60.68055102,-31.57914221],[-60.68058115,-31.57915849]]},"properties":{"layer":"Alcantarillas","entity_type":"LWPOLYLINE","handle":"460522"}},{"type":"Feature","geometry":{"type":"LineString","coordinates":[[-60.68224433,-31.5788211],[-60.68236946,-31.57879622]]},"properties":{"layer":"Alcantarillas","entity_type":"LINE","handle":"460E75"}},{"type":"Feature","geometry":{"type":"LineString","coordinates":[[-60.68220077,-31.57876169],[-60.6822309,-31.57877797],[-60.68247307,-31.57873153],[-60.68249607,-31.57870377]]},"properties":{"layer":"Alcantarillas","entity_type":"LWPOLYLINE","handle":"460E76"}},{"type":"Feature","geometry":{"type":"LineString","coordinates":[[-60.68222209,-31.57884792],[-60.68224111,-31.57882213],[-60.68248456,-31.57877544],[-60.68251507,-31.57879205]]},"properties":{"layer":"Alcantarillas","entity_type":"LWPOLYLINE","handle":"460E77"}},{"type":"Feature","geometry":{"type":"LineString","coordinates":[[-60.68248456,-31.57877544],[-60.68224111,-31.57882213]]},"properties":{"layer":"Alcantarillas","entity_type":"LINE","handle":"460E79"}},{"type":"Feature","geometry":{"type":"LineString","coordinates":[[-60.68420974,-31.57842616],[-60.68433487,-31.57840128]]},"properties":{"layer":"Alcantarillas","entity_type":"LINE","handle":"4625EB"}},{"type":"Feature","geometry":{"type":"LineString","coordinates":[[-60.68416619,-31.57836675],[-60.68419632,-31.57838304],[-60.68435029,-31.57835323],[-60.6843693,-31.57832744]]},"properties":{"layer":"Alcantarillas","entity_type":"LWPOLYLINE","handle":"4625EC"}},{"type":"Feature","geometry":{"type":"LineString","coordinates":[[-60.6841875,-31.57845299],[-60.68420652,-31.57842719],[-60.68436049,-31.57839739],[-60.68439062,-31.57841367]]},"properties":{"layer":"Alcantarillas","entity_type":"LWPOLYLINE","handle":"4625ED"}},{"type":"Feature","geometry":{"type":"LineString","coordinates":[[-60.6878542,-31.57769945],[-60.68797933,-31.57767457]]},"properties":{"layer":"Alcantarillas","entity_type":"LINE","handle":"4625F4"}},{"type":"Feature","geometry":{"type":"LineString","coordinates":[[-60.68781064,-31.57764005],[-60.68784077,-31.57765633],[-60.68799474,-31.57762652],[-60.68801376,-31.57760072]]},"properties":{"layer":"Alcantarillas","entity_type":"LWPOLYLINE","handle":"4625F5"}},{"type":"Feature","geometry":{"type":"LineString","coordinates":[[-60.68783196,-31.57772628],[-60.68785098,-31.57770048],[-60.68800494,-31.57767068],[-60.68803507,-31.57768696]]},"properties":{"layer":"Alcantarillas","entity_type":"LWPOLYLINE","handle":"4625F6"}},{"type":"Feature","geometry":{"type":"LineString","coordinates":[[-60.66927049,-31.58118783],[-60.66923886,-31.58117886],[-60.66893201,-31.58129067],[-60.66891377,-31.58132844],[-60.66894876,-31.58134786],[-60.66933481,-31.58127387],[-60.66935781,-31.58124611]]},"properties":{"layer":"Alcantarillas","entity_type":"LWPOLYLINE","handle":"4625F7"}},{"type":"Feature","geometry":{"type":"LineString","coordinates":[[-60.66894534,-31.58143172],[-60.66896357,-31.58140785],[-60.66934962,-31.58133386],[-60.66938013,-31.58135047]]},"properties":{"layer":"Alcantarillas","entity_type":"LWPOLYLINE","handle":"4625F8"}},{"type":"Feature","geometry":{"type":"LineString","coordinates":[[-60.66934034,-31.58127281],[-60.66909263,-31.58132029]]},"properties":{"layer":"Alcantarillas","entity_type":"LINE","handle":"4625F9"}},{"type":"Feature","geometry":{"type":"LineString","coordinates":[[-60.66886582,-31.58122057],[-60.66890443,-31.58123409],[-60.66920683,-31.58112402],[-60.66921744,-31.58109698]]},"properties":{"layer":"Alcantarillas","entity_type":"LWPOLYLINE","handle":"4625FD"}},{"type":"Feature","geometry":{"type":"LineString","coordinates":[[-60.75647201,-31.56621495],[-60.75654622,-31.56622551],[-60.75674006,-31.56645762],[-60.75672773,-31.56652116]]},"properties":{"layer":"Alcantarillas","entity_type":"LWPOLYLINE","handle":"464B67"}},{"type":"Feature","geometry":{"type":"LineString","coordinates":[[-60.72569789,-31.60818943],[-60.72576106,-31.60825],[-60.72618063,-31.60827037],[-60.72625139,-31.60821631]]},"properties":{"layer":"Alcantarillas","entity_type":"LWPOLYLINE","handle":"46FAAB"}},{"type":"Feature","geometry":{"type":"LineString","coordinates":[[-60.72568427,-31.60843651],[-60.72575504,-31.60838245],[-60.72617461,-31.60840282],[-60.72623778,-31.60846338]]},"properties":{"layer":"Alcantarillas","entity_type":"LWPOLYLINE","handle":"46FAAC"}},{"type":"Feature","geometry":{"type":"LineString","coordinates":[[-60.73504209,-31.59639178],[-60.73512424,-31.59634754],[-60.73519028,-31.59610376],[-60.73514077,-31.59603452]]},"properties":{"layer":"Alcantarillas","entity_type":"LWPOLYLINE","handle":"46FF67"}},{"type":"Feature","geometry":{"type":"LineString","coordinates":[[-60.73532337,-31.59644412],[-60.73527235,-31.59637568],[-60.73534146,-31.59613249],[-60.73542151,-31.59608895]]},"properties":{"layer":"Alcantarillas","entity_type":"LWPOLYLINE","handle":"46FF68"}},{"type":"Feature","geometry":{"type":"LineString","coordinates":[[-60.72741451,-31.62847284],[-60.72749618,-31.62843151],[-60.72764073,-31.62794962],[-60.72759242,-31.62787975]]},"properties":{"layer":"Alcantarillas","entity_type":"LWPOLYLINE","handle":"470D7D"}},{"type":"Feature","geometry":{"type":"LineString","coordinates":[[-60.7276952,-31.62853205],[-60.72764689,-31.62846217],[-60.72779144,-31.62798028],[-60.7278731,-31.62793895]]},"properties":{"layer":"Alcantarillas","entity_type":"LWPOLYLINE","handle":"470D7E"}},{"type":"Feature","geometry":{"type":"LineString","coordinates":[[-60.71949531,-31.59208536],[-60.71952456,-31.59211215],[-60.7197656,-31.59211914],[-60.7197969,-31.5920941]]},"properties":{"layer":"Alcantarillas","entity_type":"LWPOLYLINE","handle":"479029"}},{"type":"Feature","geometry":{"type":"LineString","coordinates":[[-60.71948941,-31.5921912],[-60.71952071,-31.59216616],[-60.71976175,-31.59217315],[-60.719791,-31.59219994]]},"properties":{"layer":"Alcantarillas","entity_type":"LWPOLYLINE","handle":"47902A"}},{"type":"Feature","geometry":{"type":"LineString","coordinates":[[-60.75673596,-31.56605828],[-60.7567237,-31.56612183],[-60.75691779,-31.56635379],[-60.75699201,-31.56636428]]},"properties":{"layer":"Alcantarillas","entity_type":"LWPOLYLINE","handle":"4794E1"}},{"type":"Feature","geometry":{"type":"LineString","coordinates":[[-60.75567849,-31.56297202],[-60.75564373,-31.56302914],[-60.75572555,-31.56325164],[-60.75579226,-31.5632814]]},"properties":{"layer":"Alcantarillas","entity_type":"LWPOLYLINE","handle":"479733"}},{"type":"Feature","geometry":{"type":"LineString","coordinates":[[-60.75537042,-31.5630507],[-60.75543713,-31.56308046],[-60.75551895,-31.56330296],[-60.75548419,-31.56336008]]},"properties":{"layer":"Alcantarillas","entity_type":"LWPOLYLINE","handle":"479734"}},{"type":"Feature","geometry":{"type":"LineString","coordinates":[[-60.75398831,-31.56342532],[-60.75394935,-31.56340581],[-60.75379122,-31.56344126],[-60.75376843,-31.56347462]]},"properties":{"layer":"Alcantarillas","entity_type":"LWPOLYLINE","handle":"479989"}},{"type":"Feature","geometry":{"type":"LineString","coordinates":[[-60.75395355,-31.56330548],[-60.75393076,-31.56333884],[-60.75377263,-31.56337429],[-60.75373367,-31.56335478]]},"properties":{"layer":"Alcantarillas","entity_type":"LWPOLYLINE","handle":"47998A"}},{"type":"Feature","geometry":{"type":"LineString","coordinates":[[-60.72984891,-31.63691318],[-60.72986588,-31.63694001],[-60.73001727,-31.63697856],[-60.73004862,-31.63696404]]},"properties":{"layer":"Alcantarillas","entity_type":"LWPOLYLINE","handle":"48F1D8"}},{"type":"Feature","geometry":{"type":"LineString","coordinates":[[-60.72980489,-31.63703314],[-60.72983625,-31.63701862],[-60.72998763,-31.63705717],[-60.7300046,-31.637084]]},"properties":{"layer":"Alcantarillas","entity_type":"LWPOLYLINE","handle":"48F1D9"}},{"type":"Feature","geometry":{"type":"LineString","coordinates":[[-60.7391885,-31.64051869],[-60.73922388,-31.6405225],[-60.73936808,-31.64068138],[-60.73936363,-31.64071165]]},"properties":{"layer":"Alcantarillas","entity_type":"LWPOLYLINE","handle":"49E3BC"}},{"type":"Feature","geometry":{"type":"LineString","coordinates":[[-60.73871159,-31.64002453],[-60.73867171,-31.64000966],[-60.73849233,-31.64006996],[-60.73847495,-31.64010407]]},"properties":{"layer":"Alcantarillas","entity_type":"LWPOLYLINE","handle":"49E3BD"}},{"type":"Feature","geometry":{"type":"LineString","coordinates":[[-60.73861205,-31.63986621],[-60.73859466,-31.63990032],[-60.73841528,-31.63996062],[-60.7383754,-31.63994575]]},"properties":{"layer":"Alcantarillas","entity_type":"LWPOLYLINE","handle":"49E3C0"}},{"type":"Feature","geometry":{"type":"LineString","coordinates":[[-60.73923633,-31.64036246],[-60.73923188,-31.64039272],[-60.73937608,-31.64055161],[-60.73941146,-31.64055542]]},"properties":{"layer":"Alcantarillas","entity_type":"LWPOLYLINE","handle":"49E3C4"}},{"type":"Feature","geometry":{"type":"LineString","coordinates":[[-60.73984363,-31.64103349],[-60.73981994,-31.64105629],[-60.73983368,-31.6412571],[-60.73986033,-31.64127737]]},"properties":{"layer":"Alcantarillas","entity_type":"LWPOLYLINE","handle":"49E626"}},{"type":"Feature","geometry":{"type":"LineString","coordinates":[[-60.73968632,-31.64103615],[-60.73971296,-31.64105643],[-60.73972671,-31.64125724],[-60.73970301,-31.64128003]]},"properties":{"layer":"Alcantarillas","entity_type":"LWPOLYLINE","handle":"49E627"}},{"type":"Feature","geometry":{"type":"LineString","coordinates":[[-60.67868799,-31.57958636],[-60.67871812,-31.57960265],[-60.67896029,-31.57955621],[-60.67898329,-31.57952845]]},"properties":{"layer":"Alcantarillas","entity_type":"LWPOLYLINE","handle":"4D0161"}},{"type":"Feature","geometry":{"type":"LineString","coordinates":[[-60.67870331,-31.57970369],[-60.67872233,-31.5796779],[-60.67896579,-31.57963122],[-60.6789963,-31.57964783]]},"properties":{"layer":"Alcantarillas","entity_type":"LWPOLYLINE","handle":"4D0162"}},{"type":"Feature","geometry":{"type":"LineString","coordinates":[[-60.67896165,-31.57955607],[-60.67871396,-31.57960356]]},"properties":{"layer":"Alcantarillas","entity_type":"LINE","handle":"4D0163"}},{"type":"Feature","geometry":{"type":"LineString","coordinates":[[-60.67896579,-31.57963122],[-60.67872233,-31.5796779]]},"properties":{"layer":"Alcantarillas","entity_type":"LINE","handle":"4D0164"}},{"type":"Feature","geometry":{"type":"LineString","coordinates":[[-60.67856093,-31.57946067],[-60.67858812,-31.57944095],[-60.67860908,-31.57922926],[-60.67858505,-31.57920214]]},"properties":{"layer":"Alcantarillas","entity_type":"LWPOLYLINE","handle":"4D08B0"}},{"type":"Feature","geometry":{"type":"LineString","coordinates":[[-60.67866335,-31.57946122],[-60.67864032,-31.57943794],[-60.6786614,-31.57922513],[-60.67868906,-31.5792052]]},"properties":{"layer":"Alcantarillas","entity_type":"LWPOLYLINE","handle":"4D08B1"}},{"type":"Feature","geometry":{"type":"LineString","coordinates":[[-60.636274,-31.58982111],[-60.63417771,-31.58983153]]},"properties":{"layer":"Alcantarillas","entity_type":"LINE","handle":"5355B4"}}]}