{"type":"FeatureCollection","features":[{"geometry":{"coordinates":[[-60.738291,-31.653822],[-60.734955,-31.653486]],"type":"LineString"},"type":"Feature","properties":{"name":"Canal General Lopez - Norte","description":"","source":"Canales.kmz.zip"}},{"geometry":{"coordinates":[[-60.7382659,-31.6515207],[-60.7362429,-31.6510157],[-60.7358529,-31.6511207]],"type":"LineString"},"type":"Feature","properties":{"name":"Canal Monseñor Zaspe","description":"","source":"Canales.kmz.zip"}},{"geometry":{"coordinates":[[-60.7315773,-31.6510468],[-60.7306393,-31.6526698],[-60.7311063,-31.6531018],[-60.7338283,-31.6534448]],"type":"LineString"},"type":"Feature","properties":{"name":"Canal El Triangulo","description":"","source":"Canales.kmz.zip"}},{"geometry":{"coordinates":[[-60.733222,-31.653772],[-60.740744,-31.654385],[-60.738278,-31.654179],[-60.738249,-31.654829],[-60.738148,-31.654955],[-60.737932,-31.656225],[-60.737375,-31.65732],[-60.737093,-31.657575],[-60.735542,-31.658126]],"type":"LineString"},"type":"Feature","properties":{"name":"Canal General Lopez - Sur","description":"","source":"Canales.kmz.zip"}},{"geometry":{"coordinates":[[-60.739729,-31.659896],[-60.735978,-31.6588],[-60.735542,-31.658126]],"type":"LineString"},"type":"Feature","properties":{"name":"Canal Estacion Bombeo 1 - Norte","description":"","source":"Canales.kmz.zip"}},{"geometry":{"coordinates":[[-60.739661,-31.660053],[-60.734823,-31.659466],[-60.733695,-31.659586]],"type":"LineString"},"type":"Feature","properties":{"name":"Canal Estacion Bombeo 1 - Sur","description":"","source":"Canales.kmz.zip"}},{"geometry":{"coordinates":[[-60.73882,-31.66629],[-60.737833,-31.666447],[-60.737075,-31.666383],[-60.73598,-31.666047],[-60.735784,-31.666091],[-60.735361,-31.667075],[-60.735784,-31.666091],[-60.73598,-31.666047],[-60.737075,-31.666383],[-60.736621,-31.667524]],"type":"LineString"},"type":"Feature","properties":{"name":"Canal Varadero Sarsotti","description":"","source":"Canales.kmz.zip"}},{"geometry":{"coordinates":[[-60.717101,-31.667389],[-60.71828,-31.6691],[-60.719005,-31.669759],[-60.7209596,-31.6707958],[-60.7245645,-31.6723785],[-60.7253083,-31.6725002],[-60.725957,-31.672497],[-60.7266387,-31.6723785],[-60.727482,-31.672041],[-60.7281837,-31.6714289],[-60.7288846,-31.6704062],[-60.7291278,-31.669213],[-60.729467,-31.668092],[-60.730687,-31.665053],[-60.730809,-31.664754],[-60.730655,-31.664618],[-60.73041,-31.664458],[-60.730074,-31.663914],[-60.730087,-31.663394],[-60.730205,-31.663041]],"type":"LineString"},"type":"Feature","properties":{"name":"Canal Tacca","description":"","source":"Canales.kmz.zip"}},{"geometry":{"coordinates":[[-60.730361,-31.662706],[-60.730432,-31.662415],[-60.730386,-31.662074],[-60.731157,-31.661834],[-60.7315577,-31.6617681],[-60.732351,-31.661378],[-60.732657,-31.660953],[-60.733283,-31.66002],[-60.734409,-31.658827],[-60.735542,-31.658126],[-60.737045,-31.6576],[-60.73744,-31.657218],[-60.737932,-31.656225],[-60.738148,-31.654955],[-60.738249,-31.654829],[-60.738278,-31.654179]],"type":"LineString"},"type":"Feature","properties":{"name":"Canal Centenario","description":"","source":"Canales.kmz.zip"}},{"geometry":{"coordinates":[[-60.738767,-31.647844],[-60.737241,-31.647874],[-60.7369493,-31.6479374],[-60.7367348,-31.6480896],[-60.736513,-31.6483027],[-60.7363986,-31.6485159],[-60.736263,-31.648798],[-60.736038,-31.648973],[-60.735594,-31.649051]],"type":"LineString"},"type":"Feature","properties":{"name":"Canal Corrientes","description":"","source":"Canales.kmz.zip"}},{"geometry":{"coordinates":[[-60.741563,-31.64663],[-60.737592,-31.64629],[-60.735766,-31.645582]],"type":"LineString"},"type":"Feature","properties":{"name":"Canal L. De La Torre","description":"","source":"Canales.kmz.zip"}},{"geometry":{"coordinates":[[-60.738782,-31.639985],[-60.738639,-31.639963],[-60.73751,-31.640325],[-60.737266,-31.640325],[-60.735603,-31.64072]],"type":"LineString"},"type":"Feature","properties":{"name":"Canal Durand","description":"","source":"Canales.kmz.zip"}},{"geometry":{"coordinates":[[-60.738482,-31.639902],[-60.737891,-31.639418],[-60.736654,-31.638659],[-60.735686,-31.637648],[-60.734135,-31.637626],[-60.733708,-31.637472],[-60.732,-31.63737],[-60.73003,-31.637032]],"type":"LineString"},"type":"Feature","properties":{"name":"Canal Suipacha 2","description":"","source":"Canales.kmz.zip"}},{"geometry":{"coordinates":[[-60.7224563,-31.6330482],[-60.720168,-31.631677],[-60.7192281,-31.631172],[-60.717904,-31.630627]],"type":"LineString"},"type":"Feature","properties":{"name":"Canal Irala","description":"","source":"Canales.kmz.zip"}},{"geometry":{"coordinates":[[-60.729831,-31.636976],[-60.728909,-31.63669],[-60.727054,-31.635899],[-60.7246879,-31.6344732],[-60.7224563,-31.6330482]],"type":"LineString"},"type":"Feature","properties":{"name":"Canal Suipacha 1","description":"","source":"Canales.kmz.zip"}},{"geometry":{"coordinates":[[-60.734415,-31.637172],[-60.734138,-31.636724],[-60.73385,-31.636544],[-60.732376,-31.6364069],[-60.731706,-31.63631],[-60.729959,-31.63591],[-60.728604,-31.635525]],"type":"LineString"},"type":"Feature","properties":{"name":"Canal Villa Oculta","description":"","source":"Canales.kmz.zip"}},{"geometry":{"coordinates":[[-60.728555,-31.635563],[-60.728964,-31.635272],[-60.733414,-31.634155]],"type":"LineString"},"type":"Feature","properties":{"name":"Canal Suipacha 3","description":"","source":"Canales.kmz.zip"}},{"geometry":{"coordinates":[[-60.733414,-31.634155],[-60.733624,-31.633891],[-60.732653,-31.631537],[-60.731977,-31.630955],[-60.728369,-31.628794],[-60.727314,-31.628507],[-60.724356,-31.627358],[-60.72392,-31.627363]],"type":"LineString"},"type":"Feature","properties":{"name":"Canal Domingo Silva","description":"","source":"Canales.kmz.zip"}},{"geometry":{"coordinates":[[-60.726074,-31.631688],[-60.726914,-31.630332]],"type":"LineString"},"type":"Feature","properties":{"name":"Canal Liberacion","description":"","source":"Canales.kmz.zip"}},{"geometry":{"coordinates":[[-60.724028,-31.630942],[-60.726779,-31.628816]],"type":"LineString"},"type":"Feature","properties":{"name":"Canal Justicia","description":"","source":"Canales.kmz.zip"}},{"geometry":{"coordinates":[[-60.739434,-31.662023],[-60.739742,-31.660342],[-60.7400017,-31.6589118],[-60.740744,-31.654385],[-60.7412272,-31.6517975],[-60.7408552,-31.6510669],[-60.7406401,-31.6508661],[-60.740522,-31.65059],[-60.740526,-31.650316],[-60.738573,-31.650143],[-60.739234,-31.643745],[-60.739533,-31.643312],[-60.740217,-31.643058],[-60.740872,-31.642939],[-60.739752,-31.641008],[-60.738048,-31.639269],[-60.735944,-31.637579],[-60.7352588,-31.6369754],[-60.734512,-31.636156],[-60.7336396,-31.6349528],[-60.733414,-31.634155],[-60.733585,-31.634678],[-60.733785,-31.635193],[-60.734512,-31.636156],[-60.7352588,-31.6369754],[-60.735944,-31.637579],[-60.738048,-31.639269],[-60.738457,-31.639651],[-60.739205,-31.640442],[-60.739393,-31.640621],[-60.7397254,-31.6409801],[-60.739781,-31.641277],[-60.740127,-31.641634],[-60.7405718,-31.6423163],[-60.7408622,-31.6429903],[-60.740928,-31.643151],[-60.741387,-31.644702],[-60.741563,-31.64663],[-60.741434,-31.648299],[-60.74056,-31.649923],[-60.740526,-31.650316]],"type":"LineString"},"type":"Feature","properties":{"name":"Canal de Guarda entre FFCC y OE01","description":"","source":"Canales.kmz.zip"}},{"geometry":{"coordinates":[[-60.708131,-31.625564],[-60.709967,-31.622483]],"type":"LineString"},"type":"Feature","properties":{"name":"Canal Saavedra - L. Torrent","description":"","source":"Canales.kmz.zip"}},{"geometry":{"coordinates":[[-60.723497,-31.623343],[-60.724257,-31.62356],[-60.72564,-31.623362]],"type":"LineString"},"type":"Feature","properties":{"name":"Canal Zenteno","description":"","source":"Canales.kmz.zip"}},{"geometry":{"coordinates":[[-60.7218982,-31.6214251],[-60.725684,-31.621333]],"type":"LineString"},"type":"Feature","properties":{"name":"Canal Peru","description":"","source":"Canales.kmz.zip"}},{"geometry":{"coordinates":[[-60.722889,-31.618736],[-60.724352,-31.618488]],"type":"LineString"},"type":"Feature","properties":{"name":"Canal Ecuador","description":"","source":"Canales.kmz.zip"}},{"geometry":{"coordinates":[[-60.728788,-31.623808],[-60.728073,-31.623903],[-60.7250285,-31.6172011],[-60.723665,-31.61426],[-60.72064,-31.612419],[-60.720433,-31.612372]],"type":"LineString"},"type":"Feature","properties":{"name":"Canal Derqui Bomba 4","description":"","source":"Canales.kmz.zip"}},{"geometry":{"coordinates":[[-60.727739,-31.62788],[-60.727904,-31.627347]],"type":"LineString"},"type":"Feature","properties":{"name":"Canal s/n","description":"","source":"Canales.kmz.zip"}},{"geometry":{"coordinates":[[-60.723665,-31.61426],[-60.723912,-31.612715],[-60.72423,-31.611392],[-60.7246497,-31.6102333],[-60.724856,-31.609815],[-60.72519,-31.608866],[-60.725337,-31.607878],[-60.724986,-31.607118],[-60.725337,-31.607878],[-60.725301,-31.608114],[-60.724284,-31.607372],[-60.725301,-31.608114],[-60.725274,-31.608301],[-60.727236,-31.608384]],"type":"LineString"},"type":"Feature","properties":{"name":"Canal Lavaisse - Derqui","description":"","source":"Canales.kmz.zip"}},{"geometry":{"coordinates":[[-60.715607,-31.612653],[-60.718327,-31.607966]],"type":"LineString"},"type":"Feature","properties":{"name":"Canal Ciudadela","description":"","source":"Canales.kmz.zip"}},{"geometry":{"coordinates":[[-60.720211,-31.605207],[-60.720367,-31.60471],[-60.720252,-31.604658],[-60.720351,-31.604466],[-60.720044,-31.604958]],"type":"LineString"},"type":"Feature","properties":{"name":"Canal Hipodromo","description":"","source":"Canales.kmz.zip"}},{"geometry":{"coordinates":[[-60.738313,-31.598348],[-60.734446,-31.599132]],"type":"LineString"},"type":"Feature","properties":{"name":"Canal Hernandarias","description":"","source":"Canales.kmz.zip"}},{"geometry":{"coordinates":[[-60.736294,-31.592438],[-60.730278,-31.593582]],"type":"LineString"},"type":"Feature","properties":{"name":"Canal Guanella","description":"","source":"Canales.kmz.zip"}},{"geometry":{"coordinates":[[-60.737869,-31.587019],[-60.734718,-31.598106]],"type":"LineString"},"type":"Feature","properties":{"name":"Canal Camino Vieja Esperanza","description":"","source":"Canales.kmz.zip"}},{"geometry":{"coordinates":[[-60.728548,-31.590346],[-60.725524,-31.59553]],"type":"LineString"},"type":"Feature","properties":{"name":"Canal Barrio Transito","description":"","source":"Canales.kmz.zip"}},{"geometry":{"coordinates":[[-60.723641,-31.593006],[-60.7216357,-31.5923517],[-60.719794,-31.592148],[-60.718603,-31.592108],[-60.716209,-31.591778],[-60.7145117,-31.5917912],[-60.71216,-31.591728]],"type":"LineString"},"type":"Feature","properties":{"name":"Canal Norte","description":"","source":"Canales.kmz.zip"}},{"geometry":{"coordinates":[[-60.707217,-31.591272],[-60.706874,-31.592172],[-60.707159,-31.592083]],"type":"LineString"},"type":"Feature","properties":{"name":"Canal s/n","description":"","source":"Canales.kmz.zip"}},{"geometry":{"coordinates":[[-60.740625,-31.579828],[-60.739366,-31.575714]],"type":"LineString"},"type":"Feature","properties":{"name":"Canal Reinares","description":"","source":"Canales.kmz.zip"}},{"geometry":{"coordinates":[[-60.723376,-31.5766968],[-60.7234332,-31.5809621]],"type":"LineString"},"type":"Feature","properties":{"name":"Canal Larguia","description":"","source":"Canales.kmz.zip"}},{"geometry":{"coordinates":[[-60.7234332,-31.5809621],[-60.7112452,-31.5833872]],"type":"LineString"},"type":"Feature","properties":{"name":"Canal Aguirre","description":"","source":"Canales.kmz.zip"}},{"geometry":{"coordinates":[[-60.718012,-31.581758],[-60.717833,-31.577957],[-60.717523,-31.577848],[-60.717146,-31.573866]],"type":"LineString"},"type":"Feature","properties":{"name":"Canal Azopardo","description":"","source":"Canales.kmz.zip"}},{"geometry":{"coordinates":[[-60.723965,-31.569443],[-60.72471,-31.571847],[-60.725769,-31.571608],[-60.723111,-31.572209]],"type":"LineString"},"type":"Feature","properties":{"name":"Canal El Sable","description":"","source":"Canales.kmz.zip"}},{"geometry":{"coordinates":[[-60.736571,-31.566214],[-60.730411,-31.56757]],"type":"LineString"},"type":"Feature","properties":{"name":"Canal Tte. Loza","description":"","source":"Canales.kmz.zip"}},{"geometry":{"coordinates":[[-60.732123,-31.561125],[-60.729387,-31.561748]],"type":"LineString"},"type":"Feature","properties":{"name":"Canal Monseñor Rodriguez","description":"","source":"Canales.kmz.zip"}},{"geometry":{"coordinates":[[-60.761096,-31.554006],[-60.754125,-31.555675],[-60.753857,-31.55616],[-60.744435,-31.558341]],"type":"LineString"},"type":"Feature","properties":{"name":"Canal Monseñor Rodriguez 2","description":"","source":"Canales.kmz.zip"}},{"geometry":{"coordinates":[[-60.747271,-31.563735],[-60.746013,-31.563995],[-60.744435,-31.558341]],"type":"LineString"},"type":"Feature","properties":{"name":"Canal Lateral Este Mercado","description":"","source":"Canales.kmz.zip"}},{"geometry":{"coordinates":[[-60.759435,-31.562467],[-60.75322,-31.563938],[-60.752382,-31.564031],[-60.75166,-31.563874]],"type":"LineString"},"type":"Feature","properties":{"name":"Canal Tte. Loza 2","description":"","source":"Canales.kmz.zip"}},{"geometry":{"coordinates":[[-60.7554406,-31.5630216],[-60.7530516,-31.5635701],[-60.752596,-31.563596],[-60.7520789,-31.5635457],[-60.751827,-31.563474]],"type":"LineString"},"type":"Feature","properties":{"name":"Canal Tte. Loza 3","description":"","source":"Canales.kmz.zip"}},{"geometry":{"coordinates":[[-60.75119,-31.563946],[-60.748965,-31.568801],[-60.749299,-31.568767],[-60.748582,-31.570295],[-60.749294,-31.570175],[-60.749894,-31.570859]],"type":"LineString"},"type":"Feature","properties":{"name":"Canal Camino Viejo Esperanza 2","description":"","source":"Canales.kmz.zip"}},{"geometry":{"coordinates":[[-60.75688,-31.566466],[-60.756844,-31.566983]],"type":"LineString"},"type":"Feature","properties":{"name":"Canal s/n","description":"","source":"Canales.kmz.zip"}},{"geometry":{"coordinates":[[-60.753298,-31.579652],[-60.753111,-31.577295],[-60.752779,-31.577158]],"type":"LineString"},"type":"Feature","properties":{"name":"Canal s/n","description":"","source":"Canales.kmz.zip"}},{"geometry":{"coordinates":[[-60.713024,-31.569162],[-60.714263,-31.568686],[-60.7135603,-31.5720819],[-60.7128165,-31.5758113],[-60.7122729,-31.5773956],[-60.711425,-31.579976]],"type":"LineString"},"type":"Feature","properties":{"name":"Canal Peñaloza sobre vias","description":"","source":"Canales.kmz.zip"}},{"geometry":{"coordinates":[[-60.7113322,-31.5856312],[-60.71108,-31.581223],[-60.711104,-31.581679],[-60.709007,-31.582297]],"type":"LineString"},"type":"Feature","properties":{"name":"Canal Peñaloza","description":"","source":"Canales.kmz.zip"}},{"geometry":{"coordinates":[[-60.705841,-31.587239],[-60.704344,-31.582601]],"type":"LineString"},"type":"Feature","properties":{"name":"Canal San Jose","description":"","source":"Canales.kmz.zip"}},{"geometry":{"coordinates":[[-60.702892,-31.586959],[-60.702049,-31.584306],[-60.7030133,-31.5840564],[-60.702049,-31.584306],[-60.6972054,-31.5693344],[-60.696628,-31.567353]],"type":"LineString"},"type":"Feature","properties":{"name":"Canal Zavalla","description":"","source":"Canales.kmz.zip"}},{"geometry":{"coordinates":[[-60.690356,-31.584071],[-60.689321,-31.580213],[-60.689328,-31.580082],[-60.6893784,-31.5796602],[-60.689935,-31.577281],[-60.6902796,-31.5758],[-60.690415,-31.574624],[-60.690039,-31.571759],[-60.68963,-31.568906]],"type":"LineString"},"type":"Feature","properties":{"name":"Canal A. del Valle","description":"","source":"Canales.kmz.zip"}},{"geometry":{"coordinates":[[-60.689878,-31.583146],[-60.689756,-31.582704]],"type":"LineString"},"type":"Feature","properties":{"name":"Canal A. del Valle 2","description":"","source":"Canales.kmz.zip"}},{"geometry":{"coordinates":[[-60.68951,-31.581857],[-60.689111,-31.580336]],"type":"LineString"},"type":"Feature","properties":{"name":"Canal A. del Valle 3","description":"","source":"Canales.kmz.zip"}},{"geometry":{"coordinates":[[-60.669421,-31.581431],[-60.6717441,-31.5852228],[-60.6720302,-31.5858565],[-60.6723736,-31.5876844],[-60.672409,-31.588387],[-60.671637,-31.588373],[-60.671242,-31.588273],[-60.671637,-31.588373],[-60.672409,-31.588387],[-60.672532,-31.58874]],"type":"LineString"},"type":"Feature","properties":{"name":"Canal Gomez Cello","description":"","source":"Canales.kmz.zip"}},{"geometry":{"coordinates":[[-60.6815575,-31.5868558],[-60.678914,-31.587314],[-60.678298,-31.587627],[-60.672532,-31.58874]],"type":"LineString"},"type":"Feature","properties":{"name":"Canal Funes","description":"","source":"Canales.kmz.zip"}},{"geometry":{"coordinates":[[-60.689935,-31.577281],[-60.669391,-31.581294]],"type":"LineString"},"type":"Feature","properties":{"name":"Canal Roca","description":"","source":"Canales.kmz.zip"}},{"geometry":{"coordinates":[[-60.668921,-31.581386],[-60.662353,-31.582674]],"type":"LineString"},"type":"Feature","properties":{"name":"Canal Salida Este Roca","description":"","source":"Canales.kmz.zip"}},{"geometry":{"coordinates":[[-60.679283,-31.574795],[-60.678894,-31.584093]],"type":"LineString"},"type":"Feature","properties":{"name":"Canal Paralelo Vias FFCC","description":"","source":"Canales.kmz.zip"}},{"geometry":{"coordinates":[[-60.679283,-31.574795],[-60.683404,-31.573988],[-60.682285,-31.570905],[-60.683477,-31.574147],[-60.686002,-31.573663]],"type":"LineString"},"type":"Feature","properties":{"name":"Canal Los Pinos","description":"","source":"Canales.kmz.zip"}},{"geometry":{"coordinates":[[-60.6923237,-31.5944075],[-60.689091,-31.595125]],"type":"LineString"},"type":"Feature","properties":{"name":"Canal s/n","description":"","source":"Canales.kmz.zip"}},{"geometry":{"coordinates":[[-60.666048,-31.598074],[-60.665281,-31.598234]],"type":"LineString"},"type":"Feature","properties":{"name":"Canal s/n","description":"","source":"Canales.kmz.zip"}},{"geometry":{"coordinates":[[-60.672707,-31.595558],[-60.672459,-31.593155],[-60.671005,-31.593276],[-60.6696,-31.593161]],"type":"LineString"},"type":"Feature","properties":{"name":"Canal P. Echague","description":"","source":"Canales.kmz.zip"}},{"geometry":{"coordinates":[[-60.6988419,-31.6597036],[-60.697129,-31.660618],[-60.696111,-31.658909],[-60.694546,-31.6594],[-60.693796,-31.659539],[-60.692518,-31.66217]],"type":"LineString"},"type":"Feature","properties":{"name":"Canal Salida AV03","description":"","source":"Canales.kmz.zip"}},{"geometry":{"coordinates":[[-60.6956117,-31.6654232],[-60.695227,-31.667287],[-60.6938951,-31.6672252]],"type":"LineString"},"type":"Feature","properties":{"name":"Canal s/n","description":"","source":"Canales.kmz.zip"}},{"geometry":{"coordinates":[[-60.635747,-31.640166],[-60.636215,-31.640159],[-60.637132,-31.642377]],"type":"LineString"},"type":"Feature","properties":{"name":"Canal s/n","description":"","source":"Canales.kmz.zip"}},{"geometry":{"coordinates":[[-60.637557,-31.644936],[-60.637207,-31.645507],[-60.636419,-31.645889],[-60.631944,-31.645844],[-60.62893,-31.64536],[-60.623139,-31.644784],[-60.62845,-31.645308],[-60.628389,-31.640969]],"type":"LineString"},"type":"Feature","properties":{"name":"Canal s/n","description":"","source":"Canales.kmz.zip"}},{"geometry":{"coordinates":[[-60.640815,-31.640308],[-60.641384,-31.64261]],"type":"LineString"},"type":"Feature","properties":{"name":"Canal s/n","description":"","source":"Canales.kmz.zip"}},{"geometry":{"coordinates":[[-60.6276323,-31.6251214],[-60.628433,-31.637576]],"type":"LineString"},"type":"Feature","properties":{"name":"Canal Paraiso","description":"","source":"Canales.kmz.zip"}},{"geometry":{"coordinates":[[-60.626088,-31.64128],[-60.621644,-31.645033]],"type":"LineString"},"type":"Feature","properties":{"name":"Canal Ruta 168","description":"","source":"Canales.kmz.zip"}},{"geometry":{"coordinates":[[-60.62082,-31.63535],[-60.619468,-31.635421],[-60.619489,-31.635289],[-60.618907,-31.63532],[-60.6192689,-31.6352975],[-60.619471,-31.637901],[-60.619051,-31.640592],[-60.618543,-31.643273],[-60.620537,-31.645468],[-60.618543,-31.643273],[-60.61496,-31.642023]],"type":"LineString"},"type":"Feature","properties":{"name":"Canal Los Canillitas","description":"","source":"Canales.kmz.zip"}},{"geometry":{"coordinates":[[-60.6139021,-31.636927],[-60.615272,-31.642132]],"type":"LineString"},"type":"Feature","properties":{"name":"Canal San Francisco de Asis","description":"","source":"Canales.kmz.zip"}},{"geometry":{"coordinates":[[-60.615162,-31.641715],[-60.611002,-31.641204],[-60.609157,-31.640865],[-60.607503,-31.640749]],"type":"LineString"},"type":"Feature","properties":{"name":"Canal de Guarda","description":"","source":"Canales.kmz.zip"}},{"geometry":{"coordinates":[[-60.60507,-31.643466],[-60.604864,-31.643187],[-60.604793,-31.642852],[-60.604804,-31.642597],[-60.6045688,-31.6417759],[-60.6043113,-31.641447],[-60.603965,-31.641275],[-60.6039394,-31.6410208],[-60.604688,-31.640067]],"type":"LineString"},"type":"Feature","properties":{"name":"Canal s/n","description":"","source":"Canales.kmz.zip"}},{"geometry":{"coordinates":[[-60.604688,-31.640067],[-60.598265,-31.636757],[-60.5979328,-31.6364483],[-60.596848,-31.634198],[-60.596324,-31.631805],[-60.596385,-31.631294]],"type":"LineString"},"type":"Feature","properties":{"name":"Canal de Guarda","description":"","source":"Canales.kmz.zip"}},{"geometry":{"coordinates":[[-60.607307,-31.633199],[-60.606461,-31.633827],[-60.606588,-31.6356],[-60.606237,-31.636695],[-60.60561,-31.636898],[-60.605771,-31.63906],[-60.604958,-31.639272]],"type":"LineString"},"type":"Feature","properties":{"name":"Canal Los Dinosaurios","description":"","source":"Canales.kmz.zip"}},{"geometry":{"coordinates":[[-60.607307,-31.633199],[-60.606816,-31.631488],[-60.607021,-31.631327],[-60.60679,-31.630433],[-60.609168,-31.630011]],"type":"LineString"},"type":"Feature","properties":{"name":"Canal Los Algarrobos","description":"","source":"Canales.kmz.zip"}},{"geometry":{"coordinates":[[-60.604174,-31.637016],[-60.603982,-31.636361],[-60.60064,-31.636766]],"type":"LineString"},"type":"Feature","properties":{"name":"Canal s/n","description":"","source":"Canales.kmz.zip"}},{"geometry":{"coordinates":[[-60.605354,-31.628438],[-60.59974,-31.629454],[-60.597081,-31.630256]],"type":"LineString"},"type":"Feature","properties":{"name":"Canal Los Jazmines","description":"","source":"Canales.kmz.zip"}},{"geometry":{"coordinates":[[-60.6059251,-31.664693],[-60.604404,-31.663797],[-60.605126,-31.663127],[-60.604779,-31.662751],[-60.603578,-31.661887]],"type":"LineString"},"type":"Feature","properties":{"name":"Canal s/n","description":"","source":"Canales.kmz.zip"}},{"geometry":{"coordinates":[[-60.601058,-31.624837],[-60.600615,-31.625482],[-60.601002,-31.626934],[-60.60081,-31.627767],[-60.600708,-31.627974],[-60.5999997,-31.6285047],[-60.599615,-31.628494]],"type":"LineString"},"type":"Feature","properties":{"name":"Canal El Lele","description":"","source":"Canales.kmz.zip"}},{"geometry":{"coordinates":[[-60.599422,-31.626312],[-60.599959,-31.627904],[-60.600538,-31.627792]],"type":"LineString"},"type":"Feature","properties":{"name":"Canal s/n","description":"","source":"Canales.kmz.zip"}},{"geometry":{"coordinates":[[-60.599615,-31.628494],[-60.599711,-31.629496],[-60.599579,-31.629689],[-60.599236,-31.629885],[-60.598862,-31.630224],[-60.598477,-31.630328],[-60.598862,-31.630224],[-60.599236,-31.629885],[-60.599574,-31.629692],[-60.59974,-31.629454],[-60.600014,-31.629441],[-60.600073,-31.630291],[-60.600335,-31.630536],[-60.601686,-31.630292],[-60.601643,-31.629969],[-60.602256,-31.629875],[-60.602491,-31.63097],[-60.602826,-31.630886],[-60.602889,-31.631172],[-60.604652,-31.630871],[-60.602889,-31.631172],[-60.603068,-31.631998]],"type":"LineString"},"type":"Feature","properties":{"name":"Canal s/n","description":"","source":"Canales.kmz.zip"}},{"geometry":{"coordinates":[[-60.613954,-31.613274],[-60.614336,-31.613851],[-60.614732,-31.614314],[-60.615957,-31.615334],[-60.614169,-31.615649]],"type":"LineString"},"type":"Feature","properties":{"name":"Canal s/n","description":"","source":"Canales.kmz.zip"}},{"geometry":{"coordinates":[[-60.590011,-31.618854],[-60.586698,-31.619828]],"type":"LineString"},"type":"Feature","properties":{"name":"Canal Las Moras","description":"","source":"Canales.kmz.zip"}},{"geometry":{"coordinates":[[-60.589024,-31.62413],[-60.588341,-31.623407],[-60.587676,-31.622459],[-60.587274,-31.6214042],[-60.5869307,-31.6202226],[-60.585815,-31.618181]],"type":"LineString"},"type":"Feature","properties":{"name":"Canal de Guarda","description":"","source":"Canales.kmz.zip"}},{"geometry":{"coordinates":[[-60.610464,-31.619189],[-60.610322,-31.618561],[-60.610368,-31.618369],[-60.609918,-31.616335]],"type":"LineString"},"type":"Feature","properties":{"name":"Canal Los Claveles","description":"","source":"Canales.kmz.zip"}}]}
