{"type":"FeatureCollection","name":"casabombas","features":[{"type":"Feature","geometry":{"type":"Point","coordinates":[-60.69348612,-31.64466282]},"properties":{"layer":"Casabomba","entity_type":"TEXT","handle":"129907","text":"E.B."}},{"type":"Feature","geometry":{"type":"Polygon","coordinates":[[[-60.69303713,-31.64471918],[-60.69303799,-31.64483448],[-60.69318008,-31.64483371],[-60.69317923,-31.64471841],[-60.69303713,-31.64471918]]]},"properties":{"layer":"Casabomba","entity_type":"LWPOLYLINE","handle":"12E5F3"}},{"type":"Feature","geometry":{"type":"Point","coordinates":[-60.69871235,-31.64742464]},"properties":{"layer":"Casabomba","entity_type":"TEXT","handle":"12E622","text":"E.B."}},{"type":"Feature","geometry":{"type":"Polygon","coordinates":[[[-60.69804028,-31.64749774],[-60.6980879,-31.64764146],[-60.69826503,-31.64759852],[-60.69821741,-31.64745479],[-60.69804028,-31.64749774]]]},"properties":{"layer":"Casabomba","entity_type":"LWPOLYLINE","handle":"12E623"}},{"type":"Feature","geometry":{"type":"Point","coordinates":[-60.7002642,-31.64733929]},"properties":{"layer":"Casabomba","entity_type":"TEXT","handle":"12E7D1","text":"E.B."}},{"type":"Feature","geometry":{"type":"Polygon","coordinates":[[[-60.69947594,-31.64727034],[-60.69952356,-31.64741407],[-60.69970069,-31.64737112],[-60.69965307,-31.6472274],[-60.69947594,-31.64727034]]]},"properties":{"layer":"Casabomba","entity_type":"LWPOLYLINE","handle":"12E7D2"}},{"type":"Feature","geometry":{"type":"Point","coordinates":[-60.70097902,-31.64795602]},"properties":{"layer":"Casabomba","entity_type":"TEXT","handle":"12EC89","text":"E.B."}},{"type":"Feature","geometry":{"type":"LineString","coordinates":[[-60.67540089,-31.61853034],[-60.67535516,-31.61849297]]},"properties":{"layer":"Casabomba","entity_type":"LINE","handle":"282A22"}},{"type":"Feature","geometry":{"type":"LineString","coordinates":[[-60.67547368,-31.61846513],[-60.67542795,-31.61842775]]},"properties":{"layer":"Casabomba","entity_type":"LINE","handle":"282A23"}},{"type":"Feature","geometry":{"type":"LineString","coordinates":[[-60.67542795,-31.61842775],[-60.67535516,-31.61849297]]},"properties":{"layer":"Casabomba","entity_type":"LINE","handle":"282A24"}},{"type":"Feature","geometry":{"type":"LineString","coordinates":[[-60.67547368,-31.61846513],[-60.67540089,-31.61853034]]},"properties":{"layer":"Casabomba","entity_type":"LINE","handle":"282A25"}},{"type":"Feature","geometry":{"type":"LineString","coordinates":[[-60.6820027,-31.61461671],[-60.68196344,-31.61457429]]},"properties":{"layer":"Casabomba","entity_type":"LINE","handle":"282B68"}},{"type":"Feature","geometry":{"type":"LineString","coordinates":[[-60.68206312,-31.61457576],[-60.68202387,-31.61453334]]},"properties":{"layer":"Casabomba","entity_type":"LINE","handle":"282B69"}},{"type":"Feature","geometry":{"type":"LineString","coordinates":[[-60.68202387,-31.61453334],[-60.68196344,-31.61457429]]},"properties":{"layer":"Casabomba","entity_type":"LINE","handle":"282B6A"}},{"type":"Feature","geometry":{"type":"LineString","coordinates":[[-60.68206312,-31.61457576],[-60.6820027,-31.61461671]]},"properties":{"layer":"Casabomba","entity_type":"LINE","handle":"282B6B"}},{"type":"Feature","geometry":{"type":"Point","coordinates":[-60.68211427,-31.61454602]},"properties":{"layer":"Casabomba","entity_type":"MTEXT","handle":"282B6C","text":"C.E."}},{"type":"Feature","geometry":{"type":"Point","coordinates":[-60.67534402,-31.6183836]},"properties":{"layer":"Casabomba","entity_type":"MTEXT","handle":"2C891B","text":"C.B."}},{"type":"Feature","geometry":{"type":"LineString","coordinates":[[-60.70101181,-31.64763968],[-60.70074456,-31.64773696]]},"properties":{"layer":"Casabomba","entity_type":"LINE","handle":"38C3B8"}},{"type":"Feature","geometry":{"type":"LineString","coordinates":[[-60.70074456,-31.64773696],[-60.7006992,-31.64764566]]},"properties":{"layer":"Casabomba","entity_type":"LINE","handle":"38C3B9"}},{"type":"Feature","geometry":{"type":"LineString","coordinates":[[-60.70096653,-31.64754855],[-60.70101181,-31.64763968]]},"properties":{"layer":"Casabomba","entity_type":"LINE","handle":"38C3BA"}},{"type":"Feature","geometry":{"type":"LineString","coordinates":[[-60.70096653,-31.64754855],[-60.70069928,-31.64764583]]},"properties":{"layer":"Casabomba","entity_type":"LINE","handle":"38C9FC"}}]}