{"type":"FeatureCollection","name":"descargas_gravedad","features":[{"type":"Feature","geometry":{"type":"LineString","coordinates":[[-60.75900079,-31.56260818],[-60.75873749,-31.56260975]]},"properties":{"layer":"Descarga por gravedad","entity_type":"LWPOLYLINE","handle":"21BD7A"}},{"type":"Feature","geometry":{"type":"LineString","coordinates":[[-60.75595199,-31.56366797],[-60.75568868,-31.56366953]]},"properties":{"layer":"Descarga por gravedad","entity_type":"LWPOLYLINE","handle":"21BD7C"}},{"type":"Feature","geometry":{"type":"Point","coordinates":[-60.76149122,-31.56231938]},"properties":{"layer":"Descarga por gravedad","entity_type":"MTEXT","handle":"21BD81","text":"NO04","numeric_value":4.0}},{"type":"Feature","geometry":{"type":"Point","coordinates":[-60.7570324,-31.56400641]},"properties":{"layer":"Descarga por gravedad","entity_type":"MTEXT","handle":"21BD82","text":"NO03","numeric_value":3.0}},{"type":"Feature","geometry":{"type":"LineString","coordinates":[[-60.74912491,-31.55764107],[-60.74886162,-31.55764261]]},"properties":{"layer":"Descarga por gravedad","entity_type":"LWPOLYLINE","handle":"22074D"}},{"type":"Feature","geometry":{"type":"Point","coordinates":[-60.75021122,-31.55797861]},"properties":{"layer":"Descarga por gravedad","entity_type":"MTEXT","handle":"22074F","text":"NO06","numeric_value":6.0}},{"type":"Feature","geometry":{"type":"LineString","coordinates":[[-60.75257864,-31.55649004],[-60.75231536,-31.55649159]]},"properties":{"layer":"Descarga por gravedad","entity_type":"LWPOLYLINE","handle":"220750"}},{"type":"Feature","geometry":{"type":"Point","coordinates":[-60.75511838,-31.55620136]},"properties":{"layer":"Descarga por gravedad","entity_type":"MTEXT","handle":"220752","text":"NO05","numeric_value":5.0}},{"type":"Feature","geometry":{"type":"Point","coordinates":[-60.67097364,-31.59233907]},"properties":{"layer":"Descarga por gravedad","entity_type":"MTEXT","handle":"220755","text":"CO10 (alternativo)","numeric_value":10.0}},{"type":"Feature","geometry":{"type":"LineString","coordinates":[[-60.67104654,-31.59328284],[-60.67078315,-31.59328423]]},"properties":{"layer":"Descarga por gravedad","entity_type":"LWPOLYLINE","handle":"22085D"}},{"type":"Feature","geometry":{"type":"Point","coordinates":[-60.60432964,-31.64056663]},"properties":{"layer":"Descarga por gravedad","entity_type":"CIRCLE","handle":"2782E2","radius_m_drawing_units":35.89797417307273}},{"type":"Feature","geometry":{"type":"LineString","coordinates":[[-60.61486646,-31.64217394],[-60.61460292,-31.64217521]]},"properties":{"layer":"Descarga por gravedad","entity_type":"LWPOLYLINE","handle":"2782E7"}},{"type":"Feature","geometry":{"type":"Point","coordinates":[-60.61435088,-31.64211492]},"properties":{"layer":"Descarga por gravedad","entity_type":"MTEXT","handle":"2782E9","text":"ES06","numeric_value":6.0}},{"type":"Feature","geometry":{"type":"Point","coordinates":[-60.59604138,-31.63076722]},"properties":{"layer":"Descarga por gravedad","entity_type":"CIRCLE","handle":"2782EC","radius_m_drawing_units":35.89797417307273}},{"type":"Feature","geometry":{"type":"LineString","coordinates":[[-60.62923361,-31.64539574],[-60.62897006,-31.64539703]]},"properties":{"layer":"Descarga por gravedad","entity_type":"LWPOLYLINE","handle":"278361"}},{"type":"Feature","geometry":{"type":"Point","coordinates":[-60.62876167,-31.64564463]},"properties":{"layer":"Descarga por gravedad","entity_type":"MTEXT","handle":"278366","text":"ES04","numeric_value":4.0}},{"type":"Feature","geometry":{"type":"Point","coordinates":[-60.61464059,-31.61379668]},"properties":{"layer":"Descarga por gravedad","entity_type":"CIRCLE","handle":"278370","radius_m_drawing_units":35.89797417307273}},{"type":"Feature","geometry":{"type":"Point","coordinates":[-60.60028436,-31.66060971]},"properties":{"layer":"Descarga por gravedad","entity_type":"MTEXT","handle":"515978","text":"ES14","numeric_value":14.0}},{"type":"Feature","geometry":{"type":"LineString","coordinates":[[-60.60008396,-31.66003788],[-60.59982038,-31.66003912]]},"properties":{"layer":"Descarga por gravedad","entity_type":"LWPOLYLINE","handle":"515979"}},{"type":"Feature","geometry":{"type":"LineString","coordinates":[[-60.63556751,-31.6037645],[-60.63504066,-31.60376712]]},"properties":{"layer":"Descarga por gravedad","entity_type":"LWPOLYLINE","handle":"516A5D"}},{"type":"Feature","geometry":{"type":"Point","coordinates":[-60.67209885,-31.5889518]},"properties":{"layer":"Descarga por gravedad","entity_type":"MTEXT","handle":"516B1D","text":"CO11","numeric_value":11.0}},{"type":"Feature","geometry":{"type":"LineString","coordinates":[[-60.67224799,-31.58864625],[-60.67198461,-31.58864764]]},"properties":{"layer":"Descarga por gravedad","entity_type":"LWPOLYLINE","handle":"516B1E"}}]}