{"type":"FeatureCollection","features":[{"properties":{"description":"Fija","source":"Estaciones de bombeo.kmz (1).zip","name":"OE01 - Casabomba 1"},"geometry":{"type":"Point","coordinates":[-60.7399266,-31.6600337]},"type":"Feature"},{"properties":{"description":"Fija","source":"Estaciones de bombeo.kmz (1).zip","name":"OE03 - Casabomba 3"},"geometry":{"type":"Point","coordinates":[-60.7337839,-31.6315372]},"type":"Feature"},{"properties":{"description":"Fija","source":"Estaciones de bombeo.kmz (1).zip","name":"OE04 - Casabomba 4"},"geometry":{"type":"Point","coordinates":[-60.7295073,-31.623942]},"type":"Feature"},{"properties":{"description":"","source":"Estaciones de bombeo.kmz (1).zip","name":"OE06 - Casabomba 6"},"geometry":{"type":"Point","coordinates":[-60.7546585,-31.5721886]},"type":"Feature"},{"properties":{"description":"Fija","source":"Estaciones de bombeo.kmz (1).zip","name":"NO01 - Teniente Loza"},"geometry":{"type":"Point","coordinates":[-60.7303485,-31.5678222]},"type":"Feature"},{"properties":{"description":"Fija","source":"Estaciones de bombeo.kmz (1).zip","name":"AV02 - El Corte"},"geometry":{"type":"Point","coordinates":[-60.6891647,-31.6788214]},"type":"Feature"},{"properties":{"description":"","source":"Estaciones de bombeo.kmz (1).zip","name":"CO01 - Costanera y Puente"},"geometry":{"type":"Point","coordinates":[-60.6828251,-31.6396596]},"type":"Feature"},{"properties":{"description":"Fija","source":"Estaciones de bombeo.kmz (1).zip","name":"PS01 -  Puerto Piojo"},"geometry":{"type":"Point","coordinates":[-60.7082797,-31.6641526]},"type":"Feature"},{"properties":{"description":"","source":"Estaciones de bombeo.kmz (1).zip","name":"AV05 - Manzana 5"},"geometry":{"type":"Point","coordinates":[-60.700696,-31.667616]},"type":"Feature"},{"properties":{"description":"Fija","source":"Estaciones de bombeo.kmz (1).zip","name":"OE02 - Casabomba 2"},"geometry":{"type":"Point","coordinates":[-60.7425542,-31.6467395]},"type":"Feature"},{"properties":{"description":"","source":"Estaciones de bombeo.kmz (1).zip","name":"PU05 - Frente Puerto"},"geometry":{"type":"Point","coordinates":[-60.7042379,-31.65405]},"type":"Feature"},{"properties":{"description":"","source":"Estaciones de bombeo.kmz (1).zip","name":"PU01 - Estacionamiento"},"geometry":{"type":"Point","coordinates":[-60.7008389,-31.6476387]},"type":"Feature"},{"properties":{"description":"","source":"Estaciones de bombeo.kmz (1).zip","name":"PU03 - EPE"},"geometry":{"type":"Point","coordinates":[-60.6980449,-31.6475841]},"type":"Feature"},{"properties":{"description":"","source":"Estaciones de bombeo.kmz (1).zip","name":"AV03 - Alto Verde"},"geometry":{"type":"Point","coordinates":[-60.6945916,-31.6592037]},"type":"Feature"},{"properties":{"description":"Fija","source":"Estaciones de bombeo.kmz (1).zip","name":"AV01 - Plaza Evita"},"geometry":{"type":"Point","coordinates":[-60.697113,-31.672378]},"type":"Feature"},{"properties":{"description":"","source":"Estaciones de bombeo.kmz (1).zip","name":"CO02 - Costanera y Virgen del Huerto"},"geometry":{"type":"Point","coordinates":[-60.6787817,-31.6320067]},"type":"Feature"},{"properties":{"description":"","source":"Estaciones de bombeo.kmz (1).zip","name":"PO01 - El Pozo"},"geometry":{"type":"Point","coordinates":[-60.663483,-31.638242]},"type":"Feature"},{"properties":{"description":"","source":"Estaciones de bombeo.kmz (1).zip","name":"CO03 - Costanera y Faro"},"geometry":{"type":"Point","coordinates":[-60.6777634,-31.6286482]},"type":"Feature"},{"properties":{"description":"","source":"Estaciones de bombeo.kmz (1).zip","name":"CO04 - Costanera y CODE"},"geometry":{"type":"Point","coordinates":[-60.6783697,-31.6262238]},"type":"Feature"},{"properties":{"description":"Fija","source":"Estaciones de bombeo.kmz (1).zip","name":"BA01 - Colodrero y Dorrego"},"geometry":{"type":"Point","coordinates":[-60.684146,-31.629375]},"type":"Feature"},{"properties":{"description":"","source":"Estaciones de bombeo.kmz (1).zip","name":"CO05 - Costanera y Salvador del Carril"},"geometry":{"type":"Point","coordinates":[-60.677265,-31.6220203]},"type":"Feature"},{"properties":{"description":"","source":"Estaciones de bombeo.kmz (1).zip","name":"CO06 - Costanera y Ricardo Aldao"},"geometry":{"type":"Point","coordinates":[-60.6716497,-31.6152933]},"type":"Feature"},{"properties":{"description":"","source":"Estaciones de bombeo.kmz (1).zip","name":"CO07 - Costanera y JP Lopez"},"geometry":{"type":"Point","coordinates":[-60.6697551,-31.6137684]},"type":"Feature"},{"properties":{"description":"","source":"Estaciones de bombeo.kmz (1).zip","name":"CO08 - Costanera y Padre Genesio"},"geometry":{"type":"Point","coordinates":[-60.6655743,-31.605933]},"type":"Feature"},{"properties":{"description":"","source":"Estaciones de bombeo.kmz (1).zip","name":"CO10 - Roca"},"geometry":{"type":"Point","coordinates":[-60.6675102,-31.5941515]},"type":"Feature"},{"properties":{"description":"Fija","source":"Estaciones de bombeo.kmz (1).zip","name":"CO11 - Dorrego"},"geometry":{"type":"Point","coordinates":[-60.6749848,-31.5990916]},"type":"Feature"},{"properties":{"description":"","source":"Estaciones de bombeo.kmz (1).zip","name":"CO10 - Roca"},"geometry":{"type":"Point","coordinates":[-60.668903,-31.580812]},"type":"Feature"},{"properties":{"description":"","source":"Estaciones de bombeo.kmz (1).zip","name":"OE05 - Casabomba 5"},"geometry":{"type":"Point","coordinates":[-60.736699,-31.6034236]},"type":"Feature"},{"properties":{"description":"","source":"Estaciones de bombeo.kmz (1).zip","name":"ES01 - Bajada Di Stefano"},"geometry":{"type":"Point","coordinates":[-60.641083,-31.6413235]},"type":"Feature"},{"properties":{"description":"Fija","source":"Estaciones de bombeo.kmz (1).zip","name":"ES11 - Los Zorzales"},"geometry":{"type":"Point","coordinates":[-60.5962138,-31.630883]},"type":"Feature"},{"properties":{"description":"","source":"Estaciones de bombeo.kmz (1).zip","name":"ES09 - Virgen de Guadalupe"},"geometry":{"type":"Point","coordinates":[-60.6133627,-31.6421021]},"type":"Feature"},{"properties":{"description":"Fija","source":"Estaciones de bombeo.kmz (1).zip","name":"ES16 - La Toma"},"geometry":{"type":"Point","coordinates":[-60.5883383,-31.623438]},"type":"Feature"},{"properties":{"description":"","source":"Estaciones de bombeo.kmz (1).zip","name":"ES07 - Velocidad y Resistencia"},"geometry":{"type":"Point","coordinates":[-60.6208361,-31.6457575]},"type":"Feature"},{"properties":{"description":"","source":"Estaciones de bombeo.kmz (1).zip","name":"ES04 - Makro Oeste"},"geometry":{"type":"Point","coordinates":[-60.6299926,-31.6453028]},"type":"Feature"},{"properties":{"description":"Fija","source":"Estaciones de bombeo.kmz (1).zip","name":"ES03 - La Guardia"},"geometry":{"type":"Point","coordinates":[-60.6361421,-31.6417712]},"type":"Feature"},{"properties":{"description":"","source":"Estaciones de bombeo.kmz (1).zip","name":"ES13 - Paraiso"},"geometry":{"type":"Point","coordinates":[-60.6283499,-31.6348074]},"type":"Feature"},{"properties":{"description":"","source":"Estaciones de bombeo.kmz (1).zip","name":"ES12 - Los Naranjales"},"geometry":{"type":"Point","coordinates":[-60.6145285,-31.6138135]},"type":"Feature"},{"properties":{"description":"Fija","source":"Estaciones de bombeo.kmz (1).zip","name":"ES06 - Colastine Sur"},"geometry":{"type":"Point","coordinates":[-60.6044678,-31.6637646]},"type":"Feature"},{"properties":{"description":"","source":"Estaciones de bombeo.kmz (1).zip","name":"AV06 - Manzana 5"},"geometry":{"type":"Point","coordinates":[-60.6952376,-31.6664351]},"type":"Feature"},{"properties":{"description":"","source":"Estaciones de bombeo.kmz (1).zip","name":"CO12 - Matheu"},"geometry":{"type":"Point","coordinates":[-60.6642771,-31.5993046]},"type":"Feature"},{"properties":{"description":"","source":"Estaciones de bombeo.kmz (1).zip","name":"OE00 - Casabomba 0"},"geometry":{"type":"Point","coordinates":[-60.7284098,-31.6713166]},"type":"Feature"},{"properties":{"description":"","source":"Estaciones de bombeo.kmz (1).zip","name":"ES14 - El Bañado"},"geometry":{"type":"Point","coordinates":[-60.6282703,-31.6385889]},"type":"Feature"},{"properties":{"description":"Fija","source":"Estaciones de bombeo.kmz (1).zip","name":"AV04 - Delegacion"},"geometry":{"type":"Point","coordinates":[-60.6984419,-31.658545]},"type":"Feature"},{"properties":{"description":"","source":"Estaciones de bombeo.kmz (1).zip","name":"VS01 - Varadero"},"geometry":{"type":"Point","coordinates":[-60.7389526,-31.6660398]},"type":"Feature"},{"properties":{"description":"","source":"Estaciones de bombeo.kmz (1).zip","name":"CO13 - Callejon Funes"},"geometry":{"type":"Point","coordinates":[-60.6720285,-31.5885785]},"type":"Feature"},{"properties":{"description":"","source":"Estaciones de bombeo.kmz (1).zip","name":"PU02 - Edificio"},"geometry":{"type":"Point","coordinates":[-60.6995966,-31.6473461]},"type":"Feature"},{"properties":{"description":"","source":"Estaciones de bombeo.kmz (1).zip","name":"CO14 - Costanera y Llerena"},"geometry":{"type":"Point","coordinates":[-60.6754212,-31.6184751]},"type":"Feature"},{"properties":{"description":"","source":"Estaciones de bombeo.kmz (1).zip","name":"PU04 - Cerveceria"},"geometry":{"type":"Point","coordinates":[-60.6931199,-31.6448308]},"type":"Feature"},{"properties":{"description":"","source":"Estaciones de bombeo.kmz (1).zip","name":"ES05 - Makro Este"},"geometry":{"type":"Point","coordinates":[-60.6290256,-31.6452231]},"type":"Feature"},{"properties":{"description":"","source":"Estaciones de bombeo.kmz (1).zip","name":"ES10 - Parque Dinosaurios"},"geometry":{"type":"Point","coordinates":[-60.6040901,-31.6405486]},"type":"Feature"},{"properties":{"description":"Fija","source":"Estaciones de bombeo.kmz (1).zip","name":"CE01 - Freyre y Catamarca"},"geometry":{"type":"Point","coordinates":[-60.7173948,-31.6419184]},"type":"Feature"}]}
