{"type":"FeatureCollection","features":[{"geometry":{"coordinates":[[[-60.721948,-31.635313],[-60.721909,-31.635341],[-60.721827,-31.635259],[-60.72186,-31.635235],[-60.721887,-31.63521],[-60.721889,-31.635191],[-60.721866,-31.635117],[-60.721849,-31.635011],[-60.721863,-31.634894],[-60.721874,-31.634831],[-60.721871,-31.634804],[-60.721829,-31.634749],[-60.721754,-31.634694],[-60.721704,-31.634577],[-60.721715,-31.634472],[-60.721733,-31.634398],[-60.721756,-31.634262],[-60.721748,-31.63418],[-60.721729,-31.634133],[-60.721687,-31.634083],[-60.721547,-31.633987],[-60.721477,-31.633952],[-60.721465,-31.633944],[-60.721393,-31.633929],[-60.721309,-31.633919],[-60.721209,-31.633921],[-60.720911,-31.633907],[-60.720752,-31.633937],[-60.720514,-31.633951],[-60.72046,-31.633937],[-60.720426,-31.633934],[-60.7204,-31.633937],[-60.720354,-31.63397],[-60.720316,-31.633994],[-60.720239,-31.634001],[-60.720178,-31.634014],[-60.720105,-31.634064],[-60.720044,-31.634117],[-60.719877,-31.634275],[-60.71982,-31.634325],[-60.719774,-31.634391],[-60.719736,-31.63444],[-60.719694,-31.634473],[-60.719608,-31.634482],[-60.719611,-31.634515],[-60.719611,-31.634547],[-60.719607,-31.634579],[-60.7196,-31.63461],[-60.71959,-31.634641],[-60.719577,-31.634671],[-60.71956,-31.6347],[-60.719541,-31.634728],[-60.719519,-31.634754],[-60.719494,-31.634778],[-60.719467,-31.634801],[-60.719438,-31.634821],[-60.719407,-31.634839],[-60.719374,-31.634855],[-60.71934,-31.634868],[-60.719304,-31.634878],[-60.719268,-31.634886],[-60.71923,-31.634891],[-60.719193,-31.634893],[-60.719155,-31.634892],[-60.719118,-31.634889],[-60.719081,-31.634883],[-60.719045,-31.634874],[-60.71901,-31.634862],[-60.718976,-31.634848],[-60.718944,-31.634831],[-60.718914,-31.634812],[-60.718886,-31.63479],[-60.71886,-31.634767],[-60.718836,-31.634742],[-60.718816,-31.634715],[-60.718798,-31.634687],[-60.718783,-31.634657],[-60.718771,-31.634627],[-60.718762,-31.634595],[-60.718757,-31.634564],[-60.718755,-31.634531],[-60.718756,-31.634499],[-60.718761,-31.634467],[-60.718768,-31.634436],[-60.718779,-31.634405],[-60.718793,-31.634375],[-60.71881,-31.634346],[-60.71883,-31.634319],[-60.718853,-31.634294],[-60.718878,-31.63427],[-60.718906,-31.634248],[-60.718935,-31.634228],[-60.718967,-31.634211],[-60.719,-31.634196],[-60.719035,-31.634183],[-60.719071,-31.634173],[-60.719107,-31.634166],[-60.719145,-31.634162],[-60.719182,-31.63416],[-60.71922,-31.634162],[-60.719257,-31.634166],[-60.719294,-31.634173],[-60.71933,-31.634183],[-60.719364,-31.634195],[-60.719398,-31.63421],[-60.719429,-31.634227],[-60.719459,-31.634247],[-60.719487,-31.634269],[-60.719596,-31.634099],[-60.719422,-31.633672],[-60.719421,-31.6336],[-60.719486,-31.633502],[-60.719569,-31.633445],[-60.720156,-31.633288],[-60.720221,-31.633307],[-60.720297,-31.633366],[-60.72035,-31.633445],[-60.720421,-31.633591],[-60.720453,-31.633793],[-60.720471,-31.633827],[-60.720528,-31.633842],[-60.720734,-31.633829],[-60.720901,-31.633798],[-60.721195,-31.633812],[-60.721311,-31.633785],[-60.721446,-31.633794],[-60.721542,-31.633819],[-60.721584,-31.633849],[-60.721639,-31.633911],[-60.72178,-31.634008],[-60.721842,-31.634082],[-60.721873,-31.634157],[-60.721883,-31.634266],[-60.721858,-31.634416],[-60.721841,-31.634488],[-60.721832,-31.634563],[-60.721862,-31.63463],[-60.721925,-31.634677],[-60.721993,-31.634767],[-60.722001,-31.634832],[-60.721989,-31.634908],[-60.721976,-31.635009],[-60.72199,-31.635095],[-60.722017,-31.635182],[-60.722009,-31.635257],[-60.721948,-31.635313]]],"type":"Polygon"},"type":"Feature","properties":{"name":"Reservorio","description":"","source":"Reservorios.kmz.zip"}},{"geometry":{"coordinates":[[[-60.721466,-31.63648],[-60.721461,-31.636503],[-60.721448,-31.636507],[-60.721374,-31.636505],[-60.721336,-31.636473],[-60.72132,-31.636447],[-60.721313,-31.636431],[-60.721297,-31.636411],[-60.721247,-31.636402],[-60.721167,-31.636405],[-60.721105,-31.636406],[-60.721051,-31.63639],[-60.721024,-31.636341],[-60.721023,-31.636203],[-60.721018,-31.635993],[-60.721043,-31.635812],[-60.721096,-31.635677],[-60.721198,-31.635571],[-60.721294,-31.635505],[-60.721443,-31.635462],[-60.721566,-31.635438],[-60.721642,-31.635405],[-60.72173,-31.635329],[-60.72181,-31.635409],[-60.721669,-31.635612],[-60.721635,-31.635728],[-60.72164,-31.63583],[-60.721672,-31.635901],[-60.721707,-31.635935],[-60.721747,-31.635979],[-60.721787,-31.636017],[-60.721796,-31.63605],[-60.7218,-31.636096],[-60.721792,-31.636133],[-60.721757,-31.63619],[-60.721727,-31.636224],[-60.721679,-31.63628],[-60.721618,-31.636333],[-60.72154,-31.636401],[-60.721487,-31.636443],[-60.721466,-31.636469],[-60.721466,-31.63648]]],"type":"Polygon"},"type":"Feature","properties":{"name":"Reservorio","description":"","source":"Reservorios.kmz.zip"}},{"geometry":{"coordinates":[[[-60.721313,-31.636612],[-60.721406,-31.636614],[-60.721435,-31.636639],[-60.721445,-31.636662],[-60.721445,-31.636705],[-60.721477,-31.636775],[-60.721496,-31.636817],[-60.721537,-31.636852],[-60.721569,-31.636883],[-60.721623,-31.636921],[-60.721646,-31.636979],[-60.721637,-31.637025],[-60.721611,-31.637057],[-60.721557,-31.637099],[-60.721444,-31.63715],[-60.721322,-31.637171],[-60.72124,-31.637179],[-60.72115,-31.637175],[-60.721082,-31.637164],[-60.721037,-31.637153],[-60.721005,-31.637161],[-60.720991,-31.637169],[-60.720983,-31.637196],[-60.720983,-31.637231],[-60.720983,-31.637269],[-60.720956,-31.637308],[-60.720925,-31.637355],[-60.720907,-31.637374],[-60.720898,-31.637394],[-60.720898,-31.637409],[-60.720912,-31.637425],[-60.72093,-31.637436],[-60.720953,-31.637459],[-60.720976,-31.637486],[-60.720981,-31.63754],[-60.720977,-31.637587],[-60.720964,-31.637649],[-60.720941,-31.637707],[-60.720914,-31.637738],[-60.720887,-31.637762],[-60.72086,-31.637774],[-60.720838,-31.637781],[-60.72082,-31.637801],[-60.720807,-31.63784],[-60.720785,-31.637913],[-60.720717,-31.63796],[-60.720626,-31.637949],[-60.720567,-31.637911],[-60.720499,-31.637838],[-60.720416,-31.637722],[-60.720375,-31.637617],[-60.720351,-31.637505],[-60.720355,-31.637381],[-60.720355,-31.637315],[-60.72039,-31.637207],[-60.720426,-31.637156],[-60.720457,-31.637121],[-60.72047,-31.63709],[-60.720429,-31.637028],[-60.720384,-31.636971],[-60.720405,-31.636874],[-60.720527,-31.636826],[-60.720618,-31.636834],[-60.720749,-31.636837],[-60.720853,-31.636863],[-60.720908,-31.636937],[-60.720927,-31.637029],[-60.720968,-31.637083],[-60.721,-31.637106],[-60.721041,-31.637106],[-60.721104,-31.637083],[-60.721149,-31.637044],[-60.721121,-31.636955],[-60.721111,-31.636827],[-60.721124,-31.636726],[-60.721182,-31.636672],[-60.721313,-31.636612]]],"type":"Polygon"},"type":"Feature","properties":{"name":"Reservorio","description":"","source":"Reservorios.kmz.zip"}},{"geometry":{"coordinates":[[[-60.7151145,-31.6645761],[-60.7151135,-31.6645761],[-60.7150465,-31.6645781],[-60.7149805,-31.6645851],[-60.7149145,-31.6645971],[-60.7148505,-31.6646131],[-60.7147875,-31.6646351],[-60.7147275,-31.6646611],[-60.7147205,-31.6646641],[-60.7147145,-31.6646681],[-60.7147075,-31.6646721],[-60.7146765,-31.6646931],[-60.7146485,-31.6647161],[-60.7146235,-31.6647411],[-60.7146005,-31.6647671],[-60.7145805,-31.6647961],[-60.7145535,-31.6648381],[-60.7145255,-31.6648801],[-60.7144975,-31.6649221],[-60.7144835,-31.6649441],[-60.7144705,-31.6649661],[-60.7144585,-31.6649891],[-60.7144545,-31.6649961],[-60.7144505,-31.6650021],[-60.7144445,-31.6650081],[-60.7144395,-31.6650141],[-60.7144325,-31.6650201],[-60.7144255,-31.6650251],[-60.7144185,-31.6650291],[-60.7144105,-31.6650331],[-60.7144025,-31.6650361],[-60.7143945,-31.6650391],[-60.7143865,-31.6650411],[-60.7143775,-31.6650431],[-60.7143765,-31.6650431],[-60.7143755,-31.6650431],[-60.7143755,-31.6650441],[-60.7143745,-31.6650441],[-60.7143745,-31.6650451],[-60.7143735,-31.6650461],[-60.7143735,-31.6650471],[-60.7143735,-31.6650481],[-60.7143745,-31.6650491],[-60.7143745,-31.6650501],[-60.7143755,-31.6650501],[-60.7143755,-31.6650511],[-60.7143765,-31.6650511],[-60.7143865,-31.6650551],[-60.7143955,-31.6650601],[-60.7144035,-31.6650651],[-60.7144115,-31.6650711],[-60.7144185,-31.6650771],[-60.7144255,-31.6650841],[-60.7144305,-31.6650911],[-60.7144355,-31.6650991],[-60.7144405,-31.6651071],[-60.7144435,-31.6651161],[-60.7144465,-31.6651241],[-60.7144475,-31.6651331],[-60.7144485,-31.6651421],[-60.7144485,-31.6651511],[-60.7144475,-31.6651591],[-60.7144455,-31.6651681],[-60.7144425,-31.6651771],[-60.7144395,-31.6651851],[-60.7144345,-31.6651931],[-60.7144295,-31.6652011],[-60.7144235,-31.6652081],[-60.7144165,-31.6652151],[-60.7144155,-31.6652151],[-60.7144155,-31.6652161],[-60.7144145,-31.6652171],[-60.7144145,-31.6652181],[-60.7144135,-31.6652191],[-60.7144135,-31.6652201],[-60.7144135,-31.6652211],[-60.7144135,-31.6652221],[-60.7144135,-31.6652231],[-60.7144145,-31.6652231],[-60.7144145,-31.6652241],[-60.7144955,-31.6654001],[-60.7144955,-31.6654011],[-60.7144965,-31.6654021],[-60.7144975,-31.6654031],[-60.7144985,-31.6654031],[-60.7144985,-31.6654041],[-60.7144995,-31.6654041],[-60.7145005,-31.6654051],[-60.7145015,-31.6654051],[-60.7145025,-31.6654051],[-60.7145035,-31.6654061],[-60.7145045,-31.6654061],[-60.7145085,-31.6654061],[-60.7145125,-31.6654071],[-60.7145175,-31.6654091],[-60.7145215,-31.6654101],[-60.7145255,-31.6654121],[-60.7145285,-31.6654151],[-60.7145325,-31.6654171],[-60.7145355,-31.6654201],[-60.7145385,-31.6654231],[-60.7145415,-31.6654261],[-60.7145435,-31.6654301],[-60.7145455,-31.6654331],[-60.7145465,-31.6654371],[-60.7145475,-31.6654411],[-60.7145485,-31.6654441],[-60.7145495,-31.6654481],[-60.7145495,-31.6654521],[-60.7145485,-31.6654561],[-60.7145475,-31.6654601],[-60.7145465,-31.6654641],[-60.7145445,-31.6654671],[-60.7145425,-31.6654711],[-60.7145405,-31.6654741],[-60.7145375,-31.6654771],[-60.7145355,-31.6654801],[-60.7145315,-31.6654831],[-60.7145285,-31.6654851],[-60.7145245,-31.6654881],[-60.7145205,-31.6654901],[-60.7145165,-31.6654911],[-60.7145125,-31.6654921],[-60.7145075,-31.6654931],[-60.7145035,-31.6654941],[-60.7144985,-31.6654941],[-60.7144945,-31.6654941],[-60.7144895,-31.6654941],[-60.7144855,-31.6654931],[-60.7144805,-31.6654921],[-60.7144765,-31.6654911],[-60.7144725,-31.6654891],[-60.7144685,-31.6654871],[-60.7144645,-31.6654851],[-60.7144615,-31.6654821],[-60.7144585,-31.6654791],[-60.7144555,-31.6654761],[-60.7144525,-31.6654731],[-60.7144505,-31.6654701],[-60.7144485,-31.6654661],[-60.7144475,-31.6654621],[-60.7144465,-31.6654591],[-60.7144455,-31.6654551],[-60.7144455,-31.6654511],[-60.7144455,-31.6654471],[-60.7144455,-31.6654431],[-60.7144465,-31.6654391],[-60.7144475,-31.6654361],[-60.7144495,-31.6654321],[-60.7144515,-31.6654281],[-60.7144535,-31.6654251],[-60.7144545,-31.6654241],[-60.7144555,-31.6654231],[-60.7144555,-31.6654221],[-60.7144555,-31.6654211],[-60.7144555,-31.6654201],[-60.7144555,-31.6654191],[-60.7144555,-31.6654181],[-60.7144545,-31.6654171],[-60.7144545,-31.6654161],[-60.7143565,-31.6652511],[-60.7143555,-31.6652501],[-60.7143555,-31.6652491],[-60.7143545,-31.6652491],[-60.7143535,-31.6652481],[-60.7143525,-31.6652481],[-60.7143525,-31.6652471],[-60.7143515,-31.6652471],[-60.7143505,-31.6652471],[-60.7143495,-31.6652471],[-60.7143485,-31.6652461],[-60.7143475,-31.6652461],[-60.7143465,-31.6652461],[-60.7143455,-31.6652461],[-60.7143355,-31.6652471],[-60.7143245,-31.6652471],[-60.7143145,-31.6652471],[-60.7143045,-31.6652451],[-60.7142945,-31.6652431],[-60.7142845,-31.6652401],[-60.7142745,-31.6652361],[-60.7142655,-31.6652321],[-60.7142575,-31.6652271],[-60.7142485,-31.6652211],[-60.7142415,-31.6652151],[-60.7142345,-31.6652081],[-60.7142285,-31.6652011],[-60.7142235,-31.6651941],[-60.7142185,-31.6651851],[-60.7142145,-31.6651771],[-60.7142125,-31.6651691],[-60.7142105,-31.6651601],[-60.7142095,-31.6651511],[-60.7142085,-31.6651421],[-60.7142095,-31.6651331],[-60.7142095,-31.6651321],[-60.7142095,-31.6651301],[-60.7142095,-31.6651281],[-60.7142095,-31.6651271],[-60.7142085,-31.6651251],[-60.7142085,-31.6651241],[-60.7142075,-31.6651231],[-60.7142065,-31.6651211],[-60.7142055,-31.6651201],[-60.7142045,-31.6651191],[-60.7142025,-31.6651181],[-60.7142015,-31.6651171],[-60.7142005,-31.6651161],[-60.7141985,-31.6651151],[-60.7141965,-31.6651141],[-60.7141955,-31.6651141],[-60.7141785,-31.6651101],[-60.7141625,-31.6651081],[-60.7141455,-31.6651061],[-60.7141285,-31.6651061],[-60.7141115,-31.6651081],[-60.7140955,-31.6651101],[-60.7140795,-31.6651141],[-60.7140765,-31.6651151],[-60.7140735,-31.6651161],[-60.7140705,-31.6651171],[-60.7140465,-31.6651271],[-60.7140215,-31.6651351],[-60.7139955,-31.6651421],[-60.7139695,-31.6651461],[-60.7139425,-31.6651481],[-60.7139155,-31.6651481],[-60.7138895,-31.6651461],[-60.7138625,-31.6651421],[-60.7138475,-31.6651381],[-60.7138335,-31.6651341],[-60.7138195,-31.6651281],[-60.7137525,-31.6650951],[-60.7136865,-31.6650631],[-60.7136195,-31.6650301],[-60.7136185,-31.6650291],[-60.7136165,-31.6650291],[-60.7136155,-31.6650271],[-60.7136145,-31.6650261],[-60.7136135,-31.6650251],[-60.7136125,-31.6650241],[-60.7136115,-31.6650231],[-60.7136105,-31.6650211],[-60.7136105,-31.6650201],[-60.7136095,-31.6650181],[-60.7136095,-31.6650171],[-60.7136085,-31.6650051],[-60.7136085,-31.6649941],[-60.7136095,-31.6649821],[-60.7136105,-31.6649811],[-60.7136105,-31.6649791],[-60.7136115,-31.6649781],[-60.7136125,-31.6649761],[-60.7136135,-31.6649751],[-60.7136145,-31.6649741],[-60.7136155,-31.6649721],[-60.7136165,-31.6649711],[-60.7136185,-31.6649701],[-60.7136195,-31.6649691],[-60.7136215,-31.6649691],[-60.7136595,-31.6649521],[-60.7136965,-31.6649341],[-60.7137325,-31.6649161],[-60.7137545,-31.6649051],[-60.7137775,-31.6648951],[-60.7138005,-31.6648861],[-60.7138185,-31.6648791],[-60.7138355,-31.6648711],[-60.7138525,-31.6648611],[-60.7138675,-31.6648501],[-60.7138805,-31.6648381],[-60.7138935,-31.6648251],[-60.7139045,-31.6648101],[-60.7139145,-31.6647961],[-60.7139225,-31.6647801],[-60.7139285,-31.6647641],[-60.7139335,-31.6647481],[-60.7139365,-31.6647311],[-60.7139375,-31.6647141],[-60.7139375,-31.6646971],[-60.7139345,-31.6646801],[-60.7139275,-31.6646301],[-60.7139255,-31.6645801],[-60.7139285,-31.6645291],[-60.7139375,-31.6644791],[-60.7139515,-31.6644301],[-60.7139515,-31.6644291],[-60.7139515,-31.6644271],[-60.7139515,-31.6644251],[-60.7139515,-31.6644241],[-60.7139515,-31.6644221],[-60.7139515,-31.6644211],[-60.7139505,-31.6644191],[-60.7139495,-31.6644181],[-60.7139495,-31.6644161],[-60.7139485,-31.6644151],[-60.7139465,-31.6644141],[-60.7139455,-31.6644121],[-60.7139385,-31.6644061],[-60.7139325,-31.6643991],[-60.7139265,-31.6643921],[-60.7139215,-31.6643841],[-60.7139175,-31.6643761],[-60.7139145,-31.6643671],[-60.7139125,-31.6643591],[-60.7139105,-31.6643501],[-60.7139105,-31.6643411],[-60.7139105,-31.6643331],[-60.7139115,-31.6643241],[-60.7139135,-31.6643151],[-60.7139165,-31.6643071],[-60.7139195,-31.6642991],[-60.7139245,-31.6642911],[-60.7139295,-31.6642831],[-60.7139355,-31.6642761],[-60.7139425,-31.6642691],[-60.7139495,-31.6642631],[-60.7139575,-31.6642581],[-60.7139665,-31.6642531],[-60.7139755,-31.6642481],[-60.7139845,-31.6642451],[-60.7139855,-31.6642441],[-60.7139865,-31.6642441],[-60.7139865,-31.6642431],[-60.7139875,-31.6642431],[-60.7139885,-31.6642421],[-60.7139895,-31.6642411],[-60.7139895,-31.6642401],[-60.7139905,-31.6642401],[-60.7139905,-31.6642391],[-60.7139905,-31.6642381],[-60.7139915,-31.6642381],[-60.7139915,-31.6642371],[-60.7140075,-31.6640341],[-60.7140075,-31.6640331],[-60.7140075,-31.6640321],[-60.7140075,-31.6640311],[-60.7140065,-31.6640301],[-60.7140065,-31.6640291],[-60.7140055,-31.6640281],[-60.7140045,-31.6640271],[-60.7140035,-31.6640271],[-60.7140005,-31.6640241],[-60.7139975,-31.6640211],[-60.7139955,-31.6640181],[-60.7139925,-31.6640151],[-60.7139905,-31.6640111],[-60.7139895,-31.6640081],[-60.7139875,-31.6640041],[-60.7139875,-31.6640001],[-60.7139865,-31.6639971],[-60.7139865,-31.6639931],[-60.7139865,-31.6639891],[-60.7139875,-31.6639851],[-60.7139885,-31.6639811],[-60.7139905,-31.6639781],[-60.7139925,-31.6639741],[-60.7139945,-31.6639711],[-60.7139965,-31.6639681],[-60.7139995,-31.6639651],[-60.7140025,-31.6639621],[-60.7140065,-31.6639601],[-60.7140095,-31.6639571],[-60.7140135,-31.6639551],[-60.7140175,-31.6639541],[-60.7140215,-31.6639521],[-60.7140265,-31.6639511],[-60.7140305,-31.6639511],[-60.7140355,-31.6639501],[-60.7140395,-31.6639501],[-60.7140445,-31.6639511],[-60.7140485,-31.6639511],[-60.7140525,-31.6639521],[-60.7140575,-31.6639541],[-60.7140615,-31.6639551],[-60.7140655,-31.6639571],[-60.7140685,-31.6639591],[-60.7140725,-31.6639621],[-60.7140755,-31.6639651],[-60.7140785,-31.6639681],[-60.7140805,-31.6639711],[-60.7140825,-31.6639741],[-60.7140845,-31.6639781],[-60.7140865,-31.6639811],[-60.7140875,-31.6639851],[-60.7140885,-31.6639891],[-60.7140885,-31.6639921],[-60.7140885,-31.6639961],[-60.7140885,-31.6640001],[-60.7140875,-31.6640041],[-60.7140865,-31.6640081],[-60.7140845,-31.6640111],[-60.7140825,-31.6640151],[-60.7140805,-31.6640181],[-60.7140775,-31.6640211],[-60.7140745,-31.6640241],[-60.7140715,-31.6640271],[-60.7140685,-31.6640291],[-60.7140675,-31.6640291],[-60.7140665,-31.6640301],[-60.7140665,-31.6640311],[-60.7140655,-31.6640311],[-60.7140655,-31.6640321],[-60.7140645,-31.6640331],[-60.7140645,-31.6640341],[-60.7140635,-31.6640351],[-60.7140635,-31.6640361],[-60.7140635,-31.6640371],[-60.7140725,-31.6642381],[-60.7140725,-31.6642391],[-60.7140725,-31.6642401],[-60.7140735,-31.6642411],[-60.7140735,-31.6642421],[-60.7140745,-31.6642431],[-60.7140745,-31.6642441],[-60.7140755,-31.6642441],[-60.7140765,-31.6642451],[-60.7140775,-31.6642451],[-60.7140785,-31.6642461],[-60.7140875,-31.6642501],[-60.7140965,-31.6642541],[-60.7141045,-31.6642591],[-60.7141125,-31.6642651],[-60.7141195,-31.6642711],[-60.7141255,-31.6642781],[-60.7141315,-31.6642851],[-60.7141365,-31.6642931],[-60.7141405,-31.6643011],[-60.7141445,-31.6643091],[-60.7141465,-31.6643171],[-60.7141485,-31.6643261],[-60.7141495,-31.6643341],[-60.7141495,-31.6643361],[-60.7141505,-31.6643381],[-60.7141505,-31.6643391],[-60.7141515,-31.6643411],[-60.7141525,-31.6643421],[-60.7141525,-31.6643441],[-60.7141545,-31.6643451],[-60.7141555,-31.6643461],[-60.7141565,-31.6643471],[-60.7141585,-31.6643481],[-60.7141595,-31.6643491],[-60.7141615,-31.6643501],[-60.7141635,-31.6643501],[-60.7141645,-31.6643511],[-60.7141665,-31.6643511],[-60.7141685,-31.6643521],[-60.7142505,-31.6643611],[-60.7143305,-31.6643771],[-60.7144095,-31.6643981],[-60.7144105,-31.6643981],[-60.7144115,-31.6643991],[-60.7144125,-31.6643991],[-60.7144135,-31.6643991],[-60.7144145,-31.6643991],[-60.7144155,-31.6643981],[-60.7144165,-31.6643981],[-60.7144175,-31.6643981],[-60.7144185,-31.6643981],[-60.7144195,-31.6643971],[-60.7144205,-31.6643961],[-60.7144215,-31.6643951],[-60.7144225,-31.6643941],[-60.7144225,-31.6643931],[-60.7144235,-31.6643921],[-60.7144285,-31.6643781],[-60.7144345,-31.6643641],[-60.7144425,-31.6643511],[-60.7144525,-31.6643391],[-60.7144525,-31.6643381],[-60.7144535,-31.6643381],[-60.7144545,-31.6643371],[-60.7144555,-31.6643361],[-60.7144565,-31.6643361],[-60.7144575,-31.6643361],[-60.7144585,-31.6643351],[-60.7144595,-31.6643351],[-60.7144605,-31.6643351],[-60.7144615,-31.6643351],[-60.7144625,-31.6643351],[-60.7144635,-31.6643361],[-60.7144645,-31.6643361],[-60.7144655,-31.6643361],[-60.7144665,-31.6643371],[-60.7144675,-31.6643371],[-60.7144775,-31.6643441],[-60.7144875,-31.6643511],[-60.7144975,-31.6643581],[-60.7144985,-31.6643591],[-60.7144995,-31.6643591],[-60.7145015,-31.6643601],[-60.7145035,-31.6643611],[-60.7145045,-31.6643611],[-60.7145065,-31.6643621],[-60.7145085,-31.6643621],[-60.7145105,-31.6643621],[-60.7145125,-31.6643621],[-60.7145135,-31.6643621],[-60.7145155,-31.6643611],[-60.7145175,-31.6643611],[-60.7145185,-31.6643601],[-60.7145205,-31.6643601],[-60.7145225,-31.6643591],[-60.7145235,-31.6643581],[-60.7145325,-31.6643531],[-60.7145415,-31.6643481],[-60.7145515,-31.6643441],[-60.7145615,-31.6643411],[-60.7145715,-31.6643381],[-60.7145825,-31.6643371],[-60.7145925,-31.6643361],[-60.7146035,-31.6643361],[-60.7146145,-31.6643371],[-60.7146245,-31.6643381],[-60.7146355,-31.6643411],[-60.7146455,-31.6643441],[-60.7146545,-31.6643481],[-60.7146645,-31.6643531],[-60.7146725,-31.6643581],[-60.7146805,-31.6643641],[-60.7146885,-31.6643711],[-60.7146945,-31.6643781],[-60.7146965,-31.6643791],[-60.7146975,-31.6643801],[-60.7146985,-31.6643811],[-60.7147005,-31.6643821],[-60.7147015,-31.6643831],[-60.7147035,-31.6643841],[-60.7147055,-31.6643851],[-60.7147075,-31.6643851],[-60.7147085,-31.6643851],[-60.7147105,-31.6643851],[-60.7147125,-31.6643851],[-60.7147145,-31.6643851],[-60.7147165,-31.6643851],[-60.7147185,-31.6643851],[-60.7147195,-31.6643841],[-60.7147215,-31.6643831],[-60.7147235,-31.6643831],[-60.7147365,-31.6643761],[-60.7147495,-31.6643701],[-60.7147635,-31.6643641],[-60.7147645,-31.6643631],[-60.7147655,-31.6643631],[-60.7147665,-31.6643631],[-60.7147675,-31.6643631],[-60.7147685,-31.6643631],[-60.7147695,-31.6643631],[-60.7147705,-31.6643631],[-60.7147715,-31.6643631],[-60.7147725,-31.6643641],[-60.7147735,-31.6643641],[-60.7147745,-31.6643641],[-60.7147745,-31.6643651],[-60.7147755,-31.6643651],[-60.7147765,-31.6643661],[-60.7147765,-31.6643671],[-60.7147775,-31.6643671],[-60.7147775,-31.6643681],[-60.7147775,-31.6643691],[-60.7147885,-31.6643981],[-60.7147955,-31.6644291],[-60.7147985,-31.6644591],[-60.7148955,-31.6644621],[-60.7149915,-31.6644681],[-60.7150865,-31.6644771],[-60.7150875,-31.6644771],[-60.7150885,-31.6644771],[-60.7150895,-31.6644771],[-60.7150905,-31.6644771],[-60.7150915,-31.6644761],[-60.7150925,-31.6644761],[-60.7150935,-31.6644761],[-60.7150935,-31.6644751],[-60.7150945,-31.6644751],[-60.7150955,-31.6644741],[-60.7150965,-31.6644741],[-60.7150965,-31.6644731],[-60.7150975,-31.6644731],[-60.7150975,-31.6644721],[-60.7150975,-31.6644711],[-60.7151025,-31.6644631],[-60.7151075,-31.6644551],[-60.7151135,-31.6644481],[-60.7151195,-31.6644411],[-60.7151275,-31.6644341],[-60.7151355,-31.6644291],[-60.7151435,-31.6644231],[-60.7151525,-31.6644191],[-60.7151625,-31.6644151],[-60.7151715,-31.6644121],[-60.7151825,-31.6644091],[-60.7151925,-31.6644081],[-60.7152025,-31.6644071],[-60.7152135,-31.6644071],[-60.7152235,-31.6644071],[-60.7152345,-31.6644091],[-60.7152445,-31.6644111],[-60.7152545,-31.6644141],[-60.7152635,-31.6644181],[-60.7152725,-31.6644221],[-60.7152815,-31.6644271],[-60.7152895,-31.6644331],[-60.7152965,-31.6644391],[-60.7153035,-31.6644461],[-60.7153095,-31.6644531],[-60.7153155,-31.6644611],[-60.7153155,-31.6644621],[-60.7153165,-31.6644621],[-60.7153165,-31.6644631],[-60.7153175,-31.6644641],[-60.7153185,-31.6644641],[-60.7153195,-31.6644651],[-60.7153205,-31.6644651],[-60.7153215,-31.6644651],[-60.7153215,-31.6644661],[-60.7153225,-31.6644661],[-60.7153235,-31.6644661],[-60.7153245,-31.6644661],[-60.7156785,-31.6644611],[-60.7156795,-31.6644611],[-60.7156805,-31.6644611],[-60.7156815,-31.6644611],[-60.7156815,-31.6644601],[-60.7156825,-31.6644601],[-60.7156835,-31.6644601],[-60.7156845,-31.6644591],[-60.7156855,-31.6644591],[-60.7156885,-31.6644561],[-60.7156925,-31.6644541],[-60.7156965,-31.6644521],[-60.7157015,-31.6644501],[-60.7157055,-31.6644491],[-60.7157105,-31.6644481],[-60.7157145,-31.6644481],[-60.7157195,-31.6644471],[-60.7157245,-31.6644471],[-60.7157285,-31.6644481],[-60.7157335,-31.6644491],[-60.7157375,-31.6644501],[-60.7157425,-31.6644511],[-60.7157465,-31.6644531],[-60.7157505,-31.6644551],[-60.7157545,-31.6644581],[-60.7157575,-31.6644601],[-60.7157615,-31.6644631],[-60.7157635,-31.6644661],[-60.7157665,-31.6644701],[-60.7157685,-31.6644731],[-60.7157705,-31.6644771],[-60.7157725,-31.6644811],[-60.7157735,-31.6644851],[-60.7157735,-31.6644891],[-60.7157745,-31.6644931],[-60.7157745,-31.6644971],[-60.7157735,-31.6645011],[-60.7157725,-31.6645051],[-60.7157715,-31.6645091],[-60.7157695,-31.6645121],[-60.7157675,-31.6645161],[-60.7157645,-31.6645191],[-60.7157615,-31.6645221],[-60.7157585,-31.6645251],[-60.7157555,-31.6645281],[-60.7157515,-31.6645311],[-60.7157475,-31.6645331],[-60.7157435,-31.6645351],[-60.7157395,-31.6645361],[-60.7157345,-31.6645381],[-60.7157305,-31.6645381],[-60.7157255,-31.6645391],[-60.7157205,-31.6645391],[-60.7157165,-31.6645391],[-60.7157115,-31.6645391],[-60.7157065,-31.6645381],[-60.7157025,-31.6645371],[-60.7156975,-31.6645351],[-60.7156935,-31.6645331],[-60.7156895,-31.6645311],[-60.7156865,-31.6645291],[-60.7156825,-31.6645261],[-60.7156815,-31.6645251],[-60.7156805,-31.6645241],[-60.7156795,-31.6645241],[-60.7156785,-31.6645241],[-60.7156775,-31.6645241],[-60.7156765,-31.6645231],[-60.7156755,-31.6645231],[-60.7156745,-31.6645231],[-60.7153215,-31.6645551],[-60.7153205,-31.6645561],[-60.7153195,-31.6645561],[-60.7153185,-31.6645561],[-60.7153175,-31.6645561],[-60.7153175,-31.6645571],[-60.7153165,-31.6645571],[-60.7153155,-31.6645581],[-60.7153145,-31.6645581],[-60.7153145,-31.6645591],[-60.7153135,-31.6645591],[-60.7153135,-31.6645601],[-60.7153075,-31.6645681],[-60.7153015,-31.6645751],[-60.7152935,-31.6645821],[-60.7152855,-31.6645881],[-60.7152775,-31.6645931],[-60.7152685,-31.6645981],[-60.7152585,-31.6646021],[-60.7152495,-31.6646061],[-60.7152385,-31.6646081],[-60.7152285,-31.6646101],[-60.7152175,-31.6646111],[-60.7152075,-31.6646121],[-60.7151965,-31.6646111],[-60.7151855,-31.6646101],[-60.7151755,-31.6646071],[-60.7151655,-31.6646041],[-60.7151555,-31.6646011],[-60.7151465,-31.6645961],[-60.7151375,-31.6645911],[-60.7151295,-31.6645851],[-60.7151215,-31.6645791],[-60.7151205,-31.6645781],[-60.7151195,-31.6645771],[-60.7151185,-31.6645771],[-60.7151175,-31.6645771],[-60.7151165,-31.6645761],[-60.7151155,-31.6645761],[-60.7151145,-31.6645761]]],"type":"Polygon"},"type":"Feature","properties":{"name":"Reservorio","description":"","source":"Reservorios.kmz.zip"}},{"geometry":{"coordinates":[[[-60.669223,-31.578185],[-60.669571,-31.578852],[-60.670182,-31.578666],[-60.670381,-31.579069],[-60.670543,-31.579229],[-60.670741,-31.57953],[-60.670902,-31.579773],[-60.671172,-31.580182],[-60.67129,-31.580361],[-60.67159,-31.580816],[-60.671055,-31.580921],[-60.670789,-31.580973],[-60.670337,-31.581062],[-60.670146,-31.581099],[-60.669972,-31.581133],[-60.669482,-31.581229],[-60.669341,-31.581223],[-60.669263,-31.581066],[-60.669158,-31.580853],[-60.668912,-31.580502],[-60.668743,-31.580184],[-60.668556,-31.579915],[-60.668413,-31.579663],[-60.668174,-31.579266],[-60.668067,-31.579081],[-60.667938,-31.578855],[-60.667748,-31.57852],[-60.667926,-31.578473],[-60.668139,-31.578423],[-60.668426,-31.578358],[-60.668596,-31.578318],[-60.668738,-31.57828],[-60.668796,-31.578271],[-60.668893,-31.578253],[-60.669051,-31.578224],[-60.669223,-31.578185]]],"type":"Polygon"},"type":"Feature","properties":{"name":"Reservorio","description":"","source":"Reservorios.kmz.zip"}},{"geometry":{"coordinates":[[[-60.703769,-31.573518],[-60.703502,-31.57375],[-60.703013,-31.57402],[-60.702476,-31.574062],[-60.702252,-31.574025],[-60.701848,-31.573797],[-60.701757,-31.573529],[-60.701577,-31.573339],[-60.701441,-31.573186],[-60.701439,-31.572842],[-60.701436,-31.572459],[-60.701434,-31.572152],[-60.701654,-31.571691],[-60.70165,-31.571232],[-60.701962,-31.571],[-60.702273,-31.570807],[-60.702495,-31.570614],[-60.702896,-31.570382],[-60.703163,-31.570228],[-60.703565,-31.570226],[-60.703656,-31.570378],[-60.703837,-31.570722],[-60.704108,-31.570989],[-60.704154,-31.571218],[-60.704113,-31.571716],[-60.704294,-31.57206],[-60.704296,-31.572328],[-60.704165,-31.572712],[-60.70399,-31.573249],[-60.703769,-31.573518]]],"type":"Polygon"},"type":"Feature","properties":{"name":"Reservorio","description":"","source":"Reservorios.kmz.zip"}},{"geometry":{"coordinates":[[[-60.707584,-31.577619],[-60.707629,-31.577704],[-60.707707,-31.57777],[-60.707828,-31.57775],[-60.70795,-31.577721],[-60.70806,-31.577692],[-60.708137,-31.577673],[-60.708181,-31.577644],[-60.708248,-31.577615],[-60.708325,-31.577615],[-60.708403,-31.577662],[-60.708459,-31.577737],[-60.708482,-31.577813],[-60.708471,-31.577936],[-60.70845,-31.578041],[-60.708373,-31.578117],[-60.70834,-31.578174],[-60.708264,-31.578241],[-60.708209,-31.578317],[-60.708187,-31.578393],[-60.708188,-31.578516],[-60.708122,-31.578564],[-60.70799,-31.57864],[-60.707869,-31.578707],[-60.707792,-31.578831],[-60.707738,-31.578926],[-60.707838,-31.579029],[-60.707884,-31.579247],[-60.708039,-31.579246],[-60.708038,-31.579208],[-60.70806,-31.57918],[-60.708194,-31.579255],[-60.708439,-31.579462],[-60.708484,-31.579576],[-60.708474,-31.579718],[-60.708662,-31.579717],[-60.708728,-31.579678],[-60.708971,-31.579658],[-60.709015,-31.579601],[-60.709169,-31.579524],[-60.709191,-31.579439],[-60.70919,-31.579344],[-60.709199,-31.579107],[-60.709276,-31.578984],[-60.709332,-31.579021],[-60.709377,-31.579163],[-60.709377,-31.579239],[-60.709367,-31.579362],[-60.709323,-31.5794],[-60.709392,-31.579675],[-60.70937,-31.579751],[-60.709282,-31.579742],[-60.709171,-31.579733],[-60.709127,-31.579818],[-60.709249,-31.579875],[-60.709195,-31.57996],[-60.709217,-31.580036],[-60.709318,-31.580102],[-60.709407,-31.580224],[-60.709495,-31.580224],[-60.709584,-31.580223],[-60.709695,-31.580336],[-60.709685,-31.580469],[-60.709653,-31.580545],[-60.709698,-31.580611],[-60.709676,-31.580706],[-60.709632,-31.580763],[-60.709577,-31.580764],[-60.709521,-31.580726],[-60.709488,-31.580688],[-60.709487,-31.580613],[-60.709465,-31.580584],[-60.709388,-31.580613],[-60.709322,-31.580642],[-60.709255,-31.580633],[-60.7092,-31.580605],[-60.709144,-31.580558],[-60.709067,-31.580558],[-60.709001,-31.580644],[-60.708912,-31.580635],[-60.708813,-31.580635],[-60.708637,-31.580835],[-60.708593,-31.580854],[-60.70856,-31.580892],[-60.708549,-31.58094],[-60.708561,-31.581044],[-60.708518,-31.58113],[-60.708474,-31.581196],[-60.708408,-31.581197],[-60.708275,-31.581207],[-60.708143,-31.581293],[-60.708087,-31.581293],[-60.708043,-31.581265],[-60.70801,-31.581246],[-60.707943,-31.581247],[-60.707899,-31.581285],[-60.707801,-31.581427],[-60.707768,-31.581532],[-60.707394,-31.581761],[-60.707383,-31.581828],[-60.707318,-31.581894],[-60.707207,-31.581895],[-60.707174,-31.581867],[-60.707129,-31.581839],[-60.707073,-31.581773],[-60.707039,-31.581706],[-60.707028,-31.58165],[-60.707017,-31.581602],[-60.706994,-31.581527],[-60.70696,-31.581442],[-60.706938,-31.581394],[-60.706904,-31.581357],[-60.706816,-31.581348],[-60.706918,-31.581679],[-60.706929,-31.581783],[-60.70693,-31.581868],[-60.706875,-31.581916],[-60.706754,-31.581992],[-60.706611,-31.58204],[-60.706511,-31.582098],[-60.70639,-31.582136],[-60.706279,-31.582137],[-60.706169,-31.582138],[-60.706091,-31.582129],[-60.706047,-31.58211],[-60.706024,-31.582053],[-60.705991,-31.582016],[-60.705968,-31.581968],[-60.70599,-31.581902],[-60.706,-31.581797],[-60.705999,-31.581712],[-60.705966,-31.581665],[-60.705965,-31.581589],[-60.70591,-31.581542],[-60.705876,-31.581495],[-60.705865,-31.581419],[-60.705809,-31.581382],[-60.705787,-31.581344],[-60.705742,-31.581344],[-60.705532,-31.581364],[-60.705344,-31.581375],[-60.705333,-31.581375],[-60.7052,-31.581366],[-60.705089,-31.581329],[-60.705045,-31.58131],[-60.704978,-31.581282],[-60.704945,-31.581292],[-60.704946,-31.581358],[-60.704969,-31.581462],[-60.705003,-31.581585],[-60.705048,-31.581765],[-60.705072,-31.581888],[-60.705117,-31.582039],[-60.70514,-31.582162],[-60.705141,-31.582257],[-60.705053,-31.582333],[-60.704987,-31.58241],[-60.704865,-31.582439],[-60.704777,-31.582439],[-60.704688,-31.58244],[-60.7046,-31.58244],[-60.704533,-31.582403],[-60.704455,-31.582346],[-60.704355,-31.582299],[-60.7042,-31.582224],[-60.704088,-31.582064],[-60.703999,-31.582026],[-60.703966,-31.581951],[-60.703954,-31.581856],[-60.703898,-31.581771],[-60.703853,-31.581686],[-60.703753,-31.581677],[-60.703598,-31.581678],[-60.703465,-31.581641],[-60.703487,-31.581584],[-60.703476,-31.581518],[-60.703453,-31.581432],[-60.703386,-31.581366],[-60.703286,-31.58131],[-60.703175,-31.581254],[-60.703064,-31.581179],[-60.703107,-31.581074],[-60.703073,-31.581018],[-60.703006,-31.580895],[-60.703049,-31.580752],[-60.70358,-31.580655],[-60.703745,-31.580635],[-60.703945,-31.580634],[-60.704089,-31.580699],[-60.7041,-31.580709],[-60.7042,-31.580793],[-60.704256,-31.58085],[-60.704213,-31.580964],[-60.704158,-31.581049],[-60.704114,-31.581107],[-60.704247,-31.581163],[-60.704369,-31.581209],[-60.70448,-31.581199],[-60.704579,-31.581142],[-60.7047,-31.581065],[-60.704633,-31.581],[-60.704677,-31.580923],[-60.705317,-31.580711],[-60.705372,-31.580702],[-60.705538,-31.580634],[-60.705559,-31.580539],[-60.70558,-31.580407],[-60.705634,-31.580245],[-60.705689,-31.58016],[-60.705688,-31.580065],[-60.705698,-31.579932],[-60.70572,-31.579799],[-60.705741,-31.579695],[-60.70574,-31.57961],[-60.70574,-31.579534],[-60.705673,-31.579449],[-60.705529,-31.57945],[-60.705319,-31.579517],[-60.704987,-31.5795],[-60.704954,-31.57951],[-60.704877,-31.579548],[-60.704811,-31.579586],[-60.704756,-31.579615],[-60.704667,-31.579616],[-60.704601,-31.579644],[-60.704491,-31.579749],[-60.704326,-31.579845],[-60.703608,-31.58001],[-60.703508,-31.580001],[-60.703464,-31.579973],[-60.703397,-31.579954],[-60.703342,-31.579936],[-60.703297,-31.579908],[-60.703231,-31.57987],[-60.703175,-31.57987],[-60.703109,-31.579871],[-60.70302,-31.579862],[-60.702932,-31.579862],[-60.702832,-31.579834],[-60.702743,-31.579787],[-60.702655,-31.579769],[-60.702631,-31.579608],[-60.702586,-31.579513],[-60.702585,-31.579333],[-60.702817,-31.579247],[-60.702971,-31.579151],[-60.70327,-31.579149],[-60.704485,-31.578906],[-60.704628,-31.578896],[-60.704838,-31.578819],[-60.70507,-31.578732],[-60.705368,-31.578674],[-60.705545,-31.578654],[-60.705755,-31.578643],[-60.705788,-31.578662],[-60.705911,-31.578746],[-60.705967,-31.578841],[-60.705979,-31.578964],[-60.706001,-31.579021],[-60.706057,-31.579134],[-60.706102,-31.57921],[-60.706114,-31.579285],[-60.706137,-31.579361],[-60.706159,-31.579389],[-60.70617,-31.57937],[-60.706158,-31.579295],[-60.706158,-31.579209],[-60.706146,-31.579115],[-60.706079,-31.579039],[-60.706045,-31.578926],[-60.706033,-31.578821],[-60.706043,-31.578708],[-60.706064,-31.578575],[-60.705997,-31.578386],[-60.706073,-31.5783],[-60.706072,-31.578186],[-60.705961,-31.578121],[-60.705916,-31.578017],[-60.705937,-31.577874],[-60.705871,-31.577818],[-60.705815,-31.577837],[-60.705738,-31.577837],[-60.70566,-31.577772],[-60.70567,-31.577573],[-60.705635,-31.577412],[-60.705612,-31.577298],[-60.7056,-31.577213],[-60.70551,-31.576967],[-60.705498,-31.576787],[-60.705453,-31.576673],[-60.705441,-31.576598],[-60.705596,-31.576625],[-60.705652,-31.576653],[-60.705851,-31.576643],[-60.705939,-31.576595],[-60.70596,-31.57651],[-60.705927,-31.576443],[-60.706058,-31.5763],[-60.706158,-31.57629],[-60.706225,-31.576413],[-60.706225,-31.576461],[-60.706226,-31.576546],[-60.706259,-31.576565],[-60.706326,-31.57665],[-60.706415,-31.576715],[-60.706493,-31.576715],[-60.706526,-31.576772],[-60.706505,-31.576886],[-60.706539,-31.576933],[-60.70666,-31.576875],[-60.706748,-31.576789],[-60.706836,-31.57677],[-60.706746,-31.576581],[-60.706757,-31.576515],[-60.706712,-31.576496],[-60.706712,-31.576458],[-60.706822,-31.576391],[-60.706978,-31.576456],[-60.707088,-31.576427],[-60.707154,-31.576427],[-60.707187,-31.576408],[-60.707265,-31.576408],[-60.707332,-31.576455],[-60.707255,-31.57654],[-60.707211,-31.576616],[-60.707267,-31.576692],[-60.707279,-31.576777],[-60.707356,-31.576777],[-60.70739,-31.576824],[-60.707336,-31.576966],[-60.707392,-31.577127],[-60.707359,-31.577194],[-60.707337,-31.577194],[-60.707382,-31.577269],[-60.70746,-31.577316],[-60.707583,-31.577448],[-60.707584,-31.577619]]],"type":"Polygon"},"type":"Feature","properties":{"name":"Reservorio","description":"","source":"Reservorios.kmz.zip"}},{"geometry":{"coordinates":[[[-60.704508,-31.584952],[-60.704265,-31.585029],[-60.704154,-31.584983],[-60.704077,-31.584945],[-60.703999,-31.58487],[-60.703855,-31.58487],[-60.703755,-31.584871],[-60.703711,-31.584843],[-60.703655,-31.584758],[-60.70352,-31.584484],[-60.703497,-31.584427],[-60.703485,-31.584285],[-60.703374,-31.584143],[-60.703251,-31.584068],[-60.703163,-31.584069],[-60.70302,-31.584155],[-60.702909,-31.584155],[-60.702875,-31.584108],[-60.70282,-31.584033],[-60.702697,-31.583977],[-60.702642,-31.583958],[-60.702608,-31.583844],[-60.702607,-31.58375],[-60.702596,-31.583664],[-60.702528,-31.583551],[-60.702483,-31.583428],[-60.702483,-31.583352],[-60.702504,-31.583248],[-60.702536,-31.583162],[-60.702558,-31.583124],[-60.702779,-31.583066],[-60.70289,-31.583037],[-60.702978,-31.582989],[-60.703099,-31.582951],[-60.703265,-31.582893],[-60.703442,-31.582873],[-60.703541,-31.582873],[-60.703873,-31.582861],[-60.70394,-31.582889],[-60.704039,-31.582917],[-60.704062,-31.582936],[-60.704118,-31.583059],[-60.704163,-31.583172],[-60.704385,-31.583323],[-60.704497,-31.583502],[-60.704622,-31.5839],[-60.704635,-31.584127],[-60.704636,-31.584231],[-60.704647,-31.584326],[-60.704648,-31.584373],[-60.704493,-31.584431],[-60.704416,-31.584441],[-60.704361,-31.584441],[-60.704328,-31.584489],[-60.704328,-31.584555],[-60.704373,-31.584612],[-60.704462,-31.584678],[-60.704584,-31.584743],[-60.704585,-31.584828],[-60.704508,-31.584952]]],"type":"Polygon"},"type":"Feature","properties":{"name":"Reservorio","description":"","source":"Reservorios.kmz.zip"}},{"geometry":{"coordinates":[[[-60.73348,-31.602815],[-60.733734,-31.602158],[-60.733831,-31.601908],[-60.733882,-31.600929],[-60.734147,-31.600411],[-60.735496,-31.601008],[-60.736645,-31.601566],[-60.736465,-31.601763],[-60.736211,-31.60204],[-60.735808,-31.602558],[-60.735294,-31.603037],[-60.734445,-31.603901],[-60.733628,-31.604473],[-60.732851,-31.605016],[-60.730937,-31.606009],[-60.730059,-31.606485],[-60.729305,-31.606897],[-60.728685,-31.607358],[-60.728367,-31.607606],[-60.727967,-31.607866],[-60.727581,-31.608333],[-60.727245,-31.608606],[-60.727218,-31.607948],[-60.727175,-31.607722],[-60.727165,-31.607669],[-60.727138,-31.607527],[-60.727008,-31.607378],[-60.727067,-31.607155],[-60.727007,-31.606844],[-60.726917,-31.606347],[-60.72688,-31.606113],[-60.726861,-31.605991],[-60.727484,-31.605801],[-60.727596,-31.605766],[-60.72894,-31.60545],[-60.730053,-31.605204],[-60.730487,-31.605096],[-60.731259,-31.604904],[-60.732202,-31.604668],[-60.733035,-31.604442],[-60.733424,-31.602959],[-60.73348,-31.602815]]],"type":"Polygon"},"type":"Feature","properties":{"name":"Reservorio","description":"","source":"Reservorios.kmz.zip"}},{"geometry":{"coordinates":[[[-60.723722,-31.614556],[-60.7257254,-31.6187858],[-60.727019,-31.621522],[-60.728015,-31.623981],[-60.728709,-31.623949],[-60.728993,-31.624474],[-60.728546,-31.624665],[-60.72855,-31.625053],[-60.728961,-31.625812],[-60.729022,-31.626565],[-60.7287211,-31.6271508],[-60.72815,-31.627358],[-60.7274337,-31.6272483],[-60.7263608,-31.6266636],[-60.72565,-31.626048],[-60.725257,-31.625367],[-60.7250876,-31.624264],[-60.724764,-31.623035],[-60.724835,-31.62263],[-60.725328,-31.622308],[-60.725511,-31.621206],[-60.725447,-31.620663],[-60.725089,-31.619853],[-60.724072,-31.6183256],[-60.723886,-31.6179175],[-60.723815,-31.617483],[-60.723998,-31.616696],[-60.723335,-31.614505],[-60.723484,-31.614431],[-60.723722,-31.614556]]],"type":"Polygon"},"type":"Feature","properties":{"name":"Reservorio","description":"","source":"Reservorios.kmz.zip"}},{"geometry":{"coordinates":[[[-60.732256,-31.631221],[-60.7324898,-31.6314418],[-60.732655,-31.631698],[-60.732875,-31.632318],[-60.733467,-31.63378],[-60.7314598,-31.6340848],[-60.731176,-31.633976],[-60.730892,-31.633679],[-60.7305013,-31.6327816],[-60.730182,-31.632274],[-60.729427,-31.631733],[-60.7281124,-31.630918],[-60.726698,-31.630189],[-60.726522,-31.629891],[-60.726779,-31.628816],[-60.726961,-31.628591],[-60.727536,-31.628555],[-60.7282268,-31.6288109],[-60.7292139,-31.6292859],[-60.731002,-31.6304187],[-60.732256,-31.631221]]],"type":"Polygon"},"type":"Feature","properties":{"name":"Reservorio","description":"","source":"Reservorios.kmz.zip"}},{"geometry":{"coordinates":[[[-60.7396589,-31.6419519],[-60.7410322,-31.6429232],[-60.7411896,-31.6435565],[-60.7415615,-31.6454319],[-60.7415758,-31.6473301],[-60.7411359,-31.6487245],[-60.7408105,-31.64979],[-60.7400452,-31.6515147],[-60.7395005,-31.6533866],[-60.7376115,-31.6532006],[-60.7379495,-31.6488082],[-60.7381354,-31.6450087],[-60.7383071,-31.6423417],[-60.7396589,-31.6419519]]],"type":"Polygon"},"type":"Feature","properties":{"name":"Reservorio","description":"","source":"Reservorios.kmz.zip"}},{"geometry":{"coordinates":[[[-60.7084127,-31.6595296],[-60.7084127,-31.6594992],[-60.7086416,-31.659522],[-60.7089348,-31.6596909],[-60.7091851,-31.6600258],[-60.709414,-31.6603119],[-60.709786,-31.6606392],[-60.7101221,-31.6609436],[-60.7101937,-31.6612038],[-60.7103868,-31.6617883],[-60.7106014,-31.6622814],[-60.7111432,-31.6629389],[-60.7117225,-31.6634138],[-60.7120658,-31.6638095],[-60.7122661,-31.6640286],[-60.7126738,-31.664266],[-60.7129027,-31.66426],[-60.7133247,-31.6643817],[-60.7134534,-31.6648444],[-60.7137038,-31.6654532],[-60.7135107,-31.6655871],[-60.7131244,-31.6657758],[-60.7128383,-31.6658428],[-60.7124163,-31.6659158],[-60.7118441,-31.6658976],[-60.7114221,-31.6657941],[-60.7111432,-31.6656541],[-60.7111074,-31.6654471],[-60.7112504,-31.6652644],[-60.7108106,-31.6648566],[-60.7105173,-31.664607],[-60.7103886,-31.6642904],[-60.7101239,-31.6638155],[-60.7099862,-31.663499],[-60.7096787,-31.6628841],[-60.7095142,-31.6625493],[-60.7094927,-31.6622205],[-60.7091136,-31.6620866],[-60.7089777,-31.6619831],[-60.708899,-31.66177],[-60.7088847,-31.6615448],[-60.7086916,-31.6613743],[-60.708241,-31.6611003],[-60.7077904,-31.6597183],[-60.7084127,-31.6595296]]],"type":"Polygon"},"type":"Feature","properties":{"name":"Reservorio","description":"","source":"Reservorios.kmz.zip"}},{"geometry":{"coordinates":[[[-60.738881,-31.66603],[-60.7389,-31.666044],[-60.7389059,-31.6660828],[-60.738876,-31.666117],[-60.738834,-31.666117],[-60.738635,-31.666215],[-60.738592,-31.66629],[-60.738522,-31.666334],[-60.738464,-31.666387],[-60.738415,-31.666408],[-60.738389,-31.666391],[-60.738395,-31.666324],[-60.738372,-31.666313],[-60.738202,-31.666368],[-60.738144,-31.666283],[-60.738048,-31.666301],[-60.738053,-31.666267],[-60.7381,-31.66623],[-60.738117,-31.666178],[-60.738201,-31.666144],[-60.738174,-31.666121],[-60.738157,-31.666085],[-60.738174,-31.666046],[-60.738224,-31.666008],[-60.73829,-31.666],[-60.73836,-31.666017],[-60.738408,-31.665993],[-60.738482,-31.665989],[-60.738563,-31.665986],[-60.738644,-31.666034],[-60.738724,-31.666068],[-60.738832,-31.666033],[-60.738881,-31.66603]]],"type":"Polygon"},"type":"Feature","properties":{"name":"Reservorio","description":"","source":"Reservorios.kmz.zip"}},{"geometry":{"coordinates":[[[-60.6629419,-31.6342297],[-60.6634139,-31.6357886],[-60.663455,-31.636436],[-60.663317,-31.639569],[-60.661439,-31.639478],[-60.661681,-31.634189],[-60.6629419,-31.6342297]]],"type":"Polygon"},"type":"Feature","properties":{"name":"Reservorio","description":"","source":"Reservorios.kmz.zip"}},{"geometry":{"coordinates":[[[-60.6740599,-31.6374712],[-60.6742101,-31.6376539],[-60.6741744,-31.6378914],[-60.6739455,-31.6381715],[-60.673688,-31.6383115],[-60.6734949,-31.6380071],[-60.6732946,-31.6380375],[-60.672565,-31.6383663],[-60.6725579,-31.638549],[-60.6723791,-31.6386221],[-60.6718069,-31.6386525],[-60.6712919,-31.6387317],[-60.6710916,-31.6385673],[-60.6708198,-31.6384333],[-60.670734,-31.6382567],[-60.6708341,-31.6381106],[-60.6710916,-31.6378792],[-60.6712776,-31.6377757],[-60.6711989,-31.6377087],[-60.6711703,-31.6375443],[-60.671392,-31.6373737],[-60.671814,-31.6372032],[-60.6723361,-31.6371363],[-60.672658,-31.6371119],[-60.6728154,-31.6371484],[-60.6729584,-31.6372459],[-60.6731802,-31.6372093],[-60.6734663,-31.6371789],[-60.6736808,-31.6373798],[-60.6738668,-31.6374042],[-60.6740599,-31.6374712]]],"type":"Polygon"},"type":"Feature","properties":{"name":"Reservorio","description":"","source":"Reservorios.kmz.zip"}},{"geometry":{"coordinates":[[[-60.717589,-31.642526],[-60.717685,-31.642858],[-60.717631,-31.642868],[-60.717535,-31.642538],[-60.717589,-31.642526]]],"type":"Polygon"},"type":"Feature","properties":{"name":"Reservorio","description":"","source":"Reservorios.kmz.zip"}},{"geometry":{"coordinates":[[[-60.6956751,-31.6716306],[-60.6960613,-31.6717645],[-60.6961114,-31.6722393],[-60.6962973,-31.6723611],[-60.6960541,-31.6726776],[-60.6957895,-31.6725985],[-60.6956536,-31.6725011],[-60.6954319,-31.6725741],[-60.6952888,-31.6722089],[-60.6953246,-31.6719167],[-60.6956751,-31.6716306]]],"type":"Polygon"},"type":"Feature","properties":{"name":"Reservorio","description":"","source":"Reservorios.kmz.zip"}},{"geometry":{"coordinates":[[[-60.6963304,-31.6726989],[-60.6967399,-31.6729789],[-60.6963268,-31.6734069],[-60.6959084,-31.67313],[-60.6960676,-31.6728621],[-60.6963304,-31.6726989]]],"type":"Polygon"},"type":"Feature","properties":{"name":"Reservorio","description":"","source":"Reservorios.kmz.zip"}},{"geometry":{"coordinates":[[[-60.7341842,-31.6680291],[-60.734431,-31.6681996],[-60.7341842,-31.6684613],[-60.7338802,-31.6685686],[-60.7336483,-31.6685492],[-60.733513,-31.6683814],[-60.7336339,-31.6682102],[-60.7339875,-31.6680961],[-60.7341842,-31.6680291]]],"type":"Polygon"},"type":"Feature","properties":{"name":"Reservorio","description":"","source":"Reservorios.kmz.zip"}},{"geometry":{"coordinates":[[[-60.7349181,-31.6675887],[-60.7349217,-31.6677226],[-60.7348466,-31.6678474],[-60.7346964,-31.6679722],[-60.7345176,-31.6679326],[-60.7343853,-31.6678992],[-60.7343173,-31.6677165],[-60.7343638,-31.6675765],[-60.7347465,-31.6675126],[-60.7349181,-31.6675887]]],"type":"Polygon"},"type":"Feature","properties":{"name":"Reservorio","description":"","source":"Reservorios.kmz.zip"}},{"geometry":{"coordinates":[[[-60.7366154,-31.6679403],[-60.7370409,-31.6681808],[-60.7372054,-31.6684486],[-60.7372484,-31.6686556],[-60.7370946,-31.6687743],[-60.7369801,-31.6688169],[-60.7368192,-31.6687226],[-60.7365796,-31.668753],[-60.7364973,-31.6689539],[-60.7364544,-31.6689965],[-60.7360467,-31.6687439],[-60.7358393,-31.668826],[-60.7355675,-31.6687256],[-60.7355022,-31.6686906],[-60.7354093,-31.6686465],[-60.7353243,-31.6686099],[-60.7352099,-31.6685673],[-60.7353529,-31.6683756],[-60.735335,-31.6682356],[-60.7351276,-31.6681473],[-60.7348844,-31.6682021],[-60.7348952,-31.667992],[-60.7351205,-31.6680407],[-60.7352278,-31.6679464],[-60.7357392,-31.6679099],[-60.7360467,-31.6679312],[-60.7363543,-31.6679829],[-60.7366154,-31.6679403]]],"type":"Polygon"},"type":"Feature","properties":{"name":"Reservorio","description":"","source":"Reservorios.kmz.zip"}},{"geometry":{"coordinates":[[[-60.7072904,-31.5920101],[-60.7075336,-31.5928783],[-60.7069578,-31.5930184],[-60.7066538,-31.5921868],[-60.7072904,-31.5920101]]],"type":"Polygon"},"type":"Feature","properties":{"name":"Reservorio","description":"","source":"Reservorios.kmz.zip"}},{"geometry":{"coordinates":[[[-60.7567052,-31.5664682],[-60.7571916,-31.5659868],[-60.7569627,-31.5673763],[-60.7567339,-31.5688632],[-60.7557325,-31.5706914],[-60.7541017,-31.5731046],[-60.7532434,-31.5748352],[-60.752779,-31.577158],[-60.7478075,-31.5782233],[-60.7474069,-31.5762429],[-60.7508115,-31.5755116],[-60.7512407,-31.5748779],[-60.7516126,-31.5737323],[-60.7520132,-31.5735373],[-60.7523851,-31.5729766],[-60.7504682,-31.5718798],[-60.7491808,-31.5721966],[-60.7484941,-31.571636],[-60.7567052,-31.5664682]]],"type":"Polygon"},"type":"Feature","properties":{"name":"Reservorio","description":"","source":"Reservorios.kmz.zip"}},{"geometry":{"coordinates":[[[-60.7568047,-31.5660318],[-60.75649,-31.5661902],[-60.7555244,-31.5632711],[-60.7557462,-31.5632314],[-60.7559035,-31.563524],[-60.7562969,-31.5639384],[-60.7566331,-31.5644991],[-60.756769,-31.565139],[-60.7567547,-31.5655473],[-60.7568047,-31.5660318]]],"type":"Polygon"},"type":"Feature","properties":{"name":"Reservorio","description":"","source":"Reservorios.kmz.zip"}},{"geometry":{"coordinates":[[[-60.7485305,-31.5572364],[-60.7492171,-31.5570505],[-60.7495461,-31.5573918],[-60.7505189,-31.55766],[-60.7514916,-31.5579891],[-60.7534657,-31.5594519],[-60.7547103,-31.5605123],[-60.7552682,-31.5611218],[-60.7556401,-31.5616459],[-60.7556973,-31.5621091],[-60.755683,-31.5630659],[-60.7544528,-31.5613107],[-60.7537375,-31.5605916],[-60.7531653,-31.5602015],[-60.7510196,-31.5585925],[-60.7495748,-31.5576052],[-60.7491456,-31.5572639],[-60.7485448,-31.5574467],[-60.7485305,-31.5572364]]],"type":"Polygon"},"type":"Feature","properties":{"name":"Reservorio","description":"","source":"Reservorios.kmz.zip"}},{"geometry":{"coordinates":[[[-60.757521,-31.5549546],[-60.7576068,-31.5551983],[-60.7442458,-31.5582244],[-60.7442458,-31.5580904],[-60.755386,-31.555494],[-60.757521,-31.5549546]]],"type":"Polygon"},"type":"Feature","properties":{"name":"Reservorio","description":"","source":"Reservorios.kmz.zip"}},{"geometry":{"coordinates":[[[-60.7174937,-31.5680767],[-60.7176743,-31.5686327],[-60.7169259,-31.5687645],[-60.7164968,-31.5688681],[-60.7163072,-31.5690875],[-60.7159425,-31.5690845],[-60.7157815,-31.5685177],[-60.7174937,-31.5680767]]],"type":"Polygon"},"type":"Feature","properties":{"name":"Reservorio","description":"","source":"Reservorios.kmz.zip"}},{"geometry":{"coordinates":[[[-60.6057072,-31.6388119],[-60.6059075,-31.6388484],[-60.605771,-31.63906],[-60.6053568,-31.6393051],[-60.6054927,-31.6398044],[-60.6055999,-31.6402185],[-60.6055284,-31.6405291],[-60.6053425,-31.6405656],[-60.6046415,-31.6399019],[-60.6037474,-31.6394573],[-60.6035114,-31.6392929],[-60.6038833,-31.6391163],[-60.6047631,-31.6391163],[-60.6051922,-31.6391042],[-60.6057072,-31.6388119]]],"type":"Polygon"},"type":"Feature","properties":{"name":"Reservorio","description":"","source":"Reservorios.kmz.zip"}},{"geometry":{"coordinates":[[[-60.6310025,-31.643253],[-60.6312743,-31.6443064],[-60.63234,-31.6441237],[-60.6324616,-31.6447996],[-60.6329122,-31.6456947],[-60.6320825,-31.6457313],[-60.6300583,-31.6452441],[-60.628356,-31.645098],[-60.6284347,-31.6440872],[-60.6295004,-31.6440933],[-60.6294933,-31.6432043],[-60.6310025,-31.643253]]],"type":"Polygon"},"type":"Feature","properties":{"name":"Reservorio","description":"","source":"Reservorios.kmz.zip"}},{"geometry":{"coordinates":[[[-60.5902346,-31.6580045],[-60.5914828,-31.6576563],[-60.5925986,-31.6583594],[-60.5914685,-31.659638],[-60.5914255,-31.6605146],[-60.5900236,-31.6610991],[-60.5889365,-31.6608312],[-60.5867192,-31.6622923],[-60.5848452,-31.6646788],[-60.5835434,-31.6638387],[-60.5833396,-31.6605006],[-60.5902346,-31.6580045]]],"type":"Polygon"},"type":"Feature","properties":{"name":"Reservorio","description":"","source":"Reservorios.kmz.zip"}}]}
